{"type": "FeatureCollection", "features": [{"type": "Feature", "geometry": {"type": "Polygon", "coordinates": [[[-82.85073999958766, 27.39138900015363], [-82.84986000005385, 27.388929999950758], [-82.84934000037018, 27.387559999618063], [-82.84825999992152, 27.384809999777424], [-82.84660999956047, 27.380910000092566], [-82.8452300004345, 27.37787999974001], [-82.84377000004426, 27.37487999999907], [-82.84233999979125, 27.372069999679546], [-82.84055999973387, 27.36880000017164], [-82.83897999969301, 27.366049999922325], [-82.83754000029258, 27.36365000027145], [-82.83624999978163, 27.36159000024208], [-82.83449999986148, 27.35892000007157], [-82.83229999967953, 27.355719999911553], [-82.83019999995501, 27.352820000082005], [-82.82837999971464, 27.3504200001097], [-82.82626999994439, 27.347759999792896], [-82.8249400001488, 27.346149999649157], [-82.82247999967585, 27.34325999969704], [-82.8210899996058, 27.341699999676432], [-82.8191399996691, 27.339599999924914], [-82.81704999999033, 27.337389999887588], [-82.81435000021618, 27.33468000033486], [-82.81226999968483, 27.332680000384265], [-82.81015999991456, 27.33072000029788], [-82.80902000008977, 27.329689999737795], [-82.80756999974527, 27.32841000025778], [-82.79889999961212, 27.320850000003887], [-82.79743000007444, 27.319580000255677], [-82.7969899998584, 27.319199999854874], [-82.7955200003207, 27.31794999989535], [-82.7935899995772, 27.316340000141153], [-82.79117000018553, 27.314409999618487], [-82.78810999966296, 27.312060000291982], [-82.78629000032092, 27.310659999892085], [-82.78474000041729, 27.30817000001553], [-82.78395000039689, 27.306930000255875], [-82.782839999811, 27.30520999984644], [-82.78169999998622, 27.303489999920387], [-82.78063999962905, 27.301949999953035], [-82.77308000008179, 27.291080000259345], [-82.77198999958738, 27.289619999974587], [-82.77156000031539, 27.289039999904038], [-82.77089999999131, 27.28815999965623], [-82.7684699996556, 27.284990000363493], [-82.76790999978894, 27.28423999970776], [-82.76662000017633, 27.28260000031407], [-82.7650700002727, 27.280650000094713], [-82.76368000020267, 27.278730000290764], [-82.76322999994086, 27.278129999735498], [-82.76277999967907, 27.27752999993233], [-82.76094000024554, 27.275200000024984], [-82.76014000017936, 27.27419000015288], [-82.75885999971418, 27.272639999627508], [-82.75720000020573, 27.27064000013078], [-82.75473999973276, 27.26782000017202], [-82.75309000027003, 27.266019999727117], [-82.75168000010851, 27.26451999998349], [-82.73734000009033, 27.249490000246457], [-82.73626999968742, 27.248359999607597], [-82.73465000036191, 27.246819999750038], [-82.73394999985487, 27.244260000011995], [-82.73347000035416, 27.242330000111536], [-82.732670000288, 27.239349999606663], [-82.73186000017608, 27.236559999861004], [-82.73087000013913, 27.23343999976624], [-82.72974000036008, 27.230170000254784], [-82.72879999965352, 27.227600000253222], [-82.72786999989101, 27.225209999987815], [-82.72711000000781, 27.223339999855856], [-82.72602000041175, 27.22081000007404], [-82.72511999988815, 27.218800000270537], [-82.72409999971396, 27.216630000367157], [-82.7232999996478, 27.21497999992052], [-82.72246000029696, 27.21332000021186], [-82.72170000041379, 27.211850000237344], [-82.72099999990672, 27.210540000010607], [-82.71994000044788, 27.208600000395556], [-82.71901999983281, 27.206989999924893], [-82.71778999959632, 27.204910000066906], [-82.71687999992531, 27.203490000193245], [-82.715760000192, 27.20175999992247], [-82.71397000008888, 27.19913000008695], [-82.71189999960328, 27.196219999725837], [-82.71090000041887, 27.194850000087484], [-82.70894999958387, 27.192309999998244], [-82.70671000011725, 27.189500000394204], [-82.70440000033045, 27.186739999814904], [-82.7023199997991, 27.18437000019085], [-82.70060000001615, 27.18237000007685], [-82.69920999994612, 27.18080000008054], [-82.69727000005518, 27.17868999985068], [-82.6951800003764, 27.176469999837586], [-82.69357000019832, 27.174830000234373], [-82.69193999992876, 27.17320999969357], [-82.68986000029571, 27.171210000148076], [-82.68773999958141, 27.169260000074274], [-82.68587000001064, 27.16757999964739], [-82.68397000030266, 27.165929999852324], [-82.68161000028714, 27.163950000199392], [-82.67934999983073, 27.162129999685636], [-82.67658999978212, 27.159990000264788], [-82.67457000042354, 27.15846999976125], [-82.67374000022016, 27.15725999986313], [-82.67297000029122, 27.156229999846843], [-82.6716100003584, 27.155219999935163], [-82.6705399999555, 27.154440000037177], [-82.66992999986012, 27.153260000189146], [-82.66908999961099, 27.151480000287066], [-82.66846000032245, 27.150190000191497], [-82.6673299996451, 27.148519999645384], [-82.66639999988259, 27.147350000327428], [-82.66473000032838, 27.145330000272573], [-82.6628799999508, 27.14193000006347], [-82.66251000005494, 27.141249999919808], [-82.66158000029243, 27.139410000043014], [-82.65937000006474, 27.134669999600785], [-82.65829999966184, 27.131500000116045], [-82.6575099996414, 27.12925000006757], [-82.65666000024484, 27.12708999986592], [-82.65587000022443, 27.125300000226503], [-82.6533699995685, 27.119710000302195], [-82.65292000020503, 27.118699999788905], [-82.65199999958995, 27.116710000152487], [-82.65045999973206, 27.113570000149306], [-82.64858000011557, 27.10997000002537], [-82.64641000007086, 27.106099999959], [-82.64518999988012, 27.10403000030452], [-82.64143399994677, 27.098499000255945], [-82.63754900014199, 27.09166800035669], [-82.63652099957189, 27.089860000065887], [-82.63530999960197, 27.08772999986848], [-82.63489000037572, 27.085609999792158], [-82.63398999985213, 27.08154999968888], [-82.63298999976942, 27.077669999907197], [-82.63194000035632, 27.07398000004394], [-82.63074000025708, 27.070139999817183], [-82.62945999979188, 27.06649999974806], [-82.62842999957195, 27.063750000381045], [-82.62721000027955, 27.06070000037176], [-82.62638000007615, 27.058690000028935], [-82.625800000118, 27.05736000000742], [-82.6246100000645, 27.05471000004429], [-82.62293999961199, 27.05122000035743], [-82.62117999964607, 27.04777000015087], [-82.61967999997118, 27.045000000331104], [-82.61801999956438, 27.042109999693732], [-82.61628999973573, 27.03923999979019], [-82.61469999964913, 27.036730000317846], [-82.61397999994892, 27.03479999998847], [-82.6135699998701, 27.033820000313845], [-82.61258999987886, 27.03145000021977], [-82.61173999958397, 27.028860000352843], [-82.61075999959276, 27.026110000328536], [-82.6096699999967, 27.023229999784366], [-82.60871000009696, 27.02086000028919], [-82.6076499997398, 27.018340000320496], [-82.6052200003024, 27.012760000368303], [-82.60485000040653, 27.011859999728177], [-82.60334999983331, 27.008219999833184], [-82.60228000032872, 27.005710000298574], [-82.60109000027522, 27.003050000258387], [-82.60032000034629, 27.001400000057455], [-82.59652000003202, 26.99414999983807], [-82.59556000013228, 26.992349999971175], [-82.59439000017026, 26.990229999760665], [-82.59299000005447, 26.987809999812402], [-82.5916400001674, 26.985579999632968], [-82.59014999963993, 26.983200000339437], [-82.5886199998278, 26.980849999821025], [-82.58681999967892, 26.97821999963828], [-82.58595000019088, 26.976990000109875], [-82.58383000037486, 26.97403000007254], [-82.57992999960317, 26.968560000017373], [-82.57240000019313, 26.958020000328535], [-82.56842999999952, 26.95174000002052], [-82.5658580002719, 26.94731400031095], [-82.47680399967096, 26.94646000022021], [-82.4417469995698, 26.946497999889225], [-82.43758899995356, 26.94646900024832], [-82.42425499986585, 26.94637600018994], [-82.38460800032831, 26.946101000291584], [-82.38421199959488, 26.946098999922963], [-82.37803500044495, 26.946044000182102], [-82.3757220002851, 26.946040999627655], [-82.37425400039726, 26.946040000243585], [-82.37424099997845, 26.946040000243585], [-82.37267500018132, 26.94603900005873], [-82.37260499986112, 26.94603900005873], [-82.37253500043923, 26.946040000243585], [-82.370562000038, 26.9460639998726], [-82.36584700002983, 26.94612300034017], [-82.36511700028386, 26.946139000081615], [-82.36449100029496, 26.94612700027576], [-82.36164000000977, 26.94607299993235], [-82.35463399958304, 26.945974000036323], [-82.3538839997456, 26.94596300039844], [-82.35360400026143, 26.945957000085897], [-82.35266000025523, 26.94593600019067], [-82.3525749998664, 26.945933999819122], [-82.35250600026944, 26.94593299963331], [-82.35221599984122, 26.945927000119987], [-82.3512159997585, 26.94591500029154], [-82.35023400011745, 26.945895999959983], [-82.34925400012625, 26.94590899997645], [-82.34920700027057, 26.94586499979142], [-82.3472170001509, 26.945838999746826], [-82.34697399957834, 26.945838999746826], [-82.34691699967694, 26.945838999746826], [-82.34624100035767, 26.945846000252196], [-82.34551599973624, 26.945838999746826], [-82.34499699987747, 26.945838999746826], [-82.3447170003933, 26.945838999746826], [-82.3441199998184, 26.945838999746826], [-82.34300299955984, 26.945838999746826], [-82.34293999981065, 26.94583999993344], [-82.3428300002058, 26.94582900028246], [-82.33988500020926, 26.945895999959983], [-82.33902700041678, 26.945911999733642], [-82.33819999968813, 26.945919000234483], [-82.33732299962907, 26.945881999755752], [-82.33727499994849, 26.94588000018401], [-82.3371910002829, 26.945878999997753], [-82.33655199987523, 26.94586899973617], [-82.33645700033897, 26.945868000350586], [-82.33577299972545, 26.945860999846555], [-82.33484499961277, 26.94586899973617], [-82.33395800040628, 26.94586499979142], [-82.3330729999513, 26.94587299968074], [-82.33303399959324, 26.945871000108852], [-82.33214099964066, 26.945826999909013], [-82.33134800014551, 26.945826999909013], [-82.33056999982065, 26.94586499979142], [-82.33032799997132, 26.94587399986705], [-82.32629400020363, 26.945846000252196], [-82.32405399983868, 26.945718999709623], [-82.32333499996338, 26.94567800001464], [-82.32328399990975, 26.945675000251214], [-82.32291400001391, 26.94565400030348], [-82.32285600028757, 26.94565000035111], [-82.32280400040905, 26.9456460003986], [-82.3226749996393, 26.945637000304764], [-82.32253599972213, 26.945627000021705], [-82.32235800034522, 26.94567299987507], [-82.32190499971037, 26.945638999880792], [-82.32157199962442, 26.945634999927897], [-82.32092300006933, 26.945625999833172], [-82.32084500025152, 26.94562499964466], [-82.32074899999206, 26.94563300035181], [-82.32065500028072, 26.945650999738618], [-82.32056499986903, 26.945680999777995], [-82.32054499977755, 26.945689999868332], [-82.32052300003623, 26.94570000014582], [-82.32049399972392, 26.945718000322742], [-82.32043900037064, 26.945739999645284], [-82.32039199961669, 26.945745999969365], [-82.32033200024054, 26.945739999645284], [-82.32020900021688, 26.945744999781912], [-82.32001300039832, 26.945752000293158], [-82.31840300022023, 26.945732999934098], [-82.31778100042929, 26.94572500003485], [-82.3177169999569, 26.945726999609317], [-82.3172809999388, 26.945732999934098], [-82.31713199997589, 26.945745999969365], [-82.3170349998915, 26.945744999781912], [-82.31694000035526, 26.945735999695977], [-82.31684300027086, 26.945722999659566], [-82.3164499999105, 26.945705000284217], [-82.31625699956665, 26.945709999621602], [-82.31615100015975, 26.945718999709623], [-82.31570900029386, 26.945722999659566], [-82.31540399979703, 26.94572500003485], [-82.31525599965903, 26.94572600022247], [-82.31491199970245, 26.945717000135023], [-82.31471000003607, 26.945710999809386], [-82.3141140001844, 26.945715999947314], [-82.31389900009925, 26.945727999796908], [-82.31370699958033, 26.94573800007105], [-82.31269099960409, 26.945727999796908], [-82.30492000016962, 26.945649000162817], [-82.304580000411, 26.9456460003986], [-82.30442499970198, 26.94564400002191], [-82.30433699983843, 26.945642999833556], [-82.30426099967045, 26.94564199964516], [-82.30403700026278, 26.945640000069197], [-82.30401899982112, 26.945640000069197], [-82.29995999993906, 26.945564000139836], [-82.29989600036497, 26.945564000139836], [-82.29632799985427, 26.945556000228606], [-82.29013300026268, 26.945506000370006], [-82.2899929996223, 26.945506000370006], [-82.28906299985978, 26.945506000370006], [-82.28899599991263, 26.945506000370006], [-82.28204499973751, 26.945506000370006], [-82.28057000017695, 26.945484000200995], [-82.28050900007759, 26.945483000011226], [-82.27629500038485, 26.94542199962877], [-82.27244499984184, 26.94539600028278], [-82.26762500025168, 26.94536100001409], [-82.26377899990665, 26.945325000344166], [-82.26365099986013, 26.945329999698405], [-82.26194799979564, 26.945330999889535], [-82.258827000072, 26.94533399966211], [-82.25878000021636, 26.945297999983573], [-82.258755000102, 26.945287999670402], [-82.25873599983542, 26.94527999973958], [-82.25870099967531, 26.94527199980816], [-82.25652999980568, 26.945266000259647], [-82.2563330001622, 26.94526500006792], [-82.25628799995634, 26.945263999876204], [-82.25611399987908, 26.945261000101755], [-82.25570399980026, 26.94525499975186], [-82.25554399996668, 26.94526299968445], [-82.25552100040046, 26.945263999876204], [-82.25551899985233, 26.945468999755693], [-82.255501000309, 26.94770299988099], [-82.25549799993593, 26.949423999989747], [-82.25548500041545, 26.950951000229672], [-82.25548600024037, 26.95265300038955], [-82.25547299982156, 26.953309000363074], [-82.2554600003011, 26.95604299990979], [-82.25546100012602, 26.956673000216636], [-82.255453999555, 26.95756900004741], [-82.25544299968435, 26.959140000224597], [-82.25544100003451, 26.959997999742573], [-82.25542799961572, 26.963341000170775], [-82.2554109998973, 26.96483200009867], [-82.2554109998973, 26.966457000065354], [-82.25540599987441, 26.96727300004989], [-82.25539599982868, 26.96919399988612], [-82.25539400017885, 26.971212000072896], [-82.2553759997372, 26.97456499997272], [-82.25534899997302, 26.978715999748164], [-82.25537300026247, 26.9787500001663], [-82.2553420003003, 26.979659999677345], [-82.25532999970643, 26.982956000260497], [-82.2553120001631, 26.985855000003482], [-82.25529700009447, 26.988437999673426], [-82.2552910002467, 26.989292999855238], [-82.25528399967568, 26.994172999863018], [-82.25529799991938, 26.998944999884635], [-82.25529799991938, 26.998989999854878], [-82.25529799991938, 26.999006000088993], [-82.25529700009447, 26.999950000266523], [-82.25529700009447, 26.99996999998782], [-82.25529700009447, 27.000335999782695], [-82.2552999995692, 27.000749000252902], [-82.2552999995692, 27.000776000124198], [-82.2552999995692, 27.000794000301603], [-82.2552999995692, 27.000829999847408], [-82.25531100033817, 27.00206900006828], [-82.25530999961494, 27.00253699996362], [-82.25531399981293, 27.00390499981691], [-82.25533100042968, 27.005592999807465], [-82.255312999988, 27.005592000151598], [-82.2552789996528, 27.005590000039533], [-82.2552789996528, 27.00566800038254], [-82.25527799982791, 27.005710000298574], [-82.25527799982791, 27.006041000002284], [-82.25527799982791, 27.00610900031885], [-82.25527700000299, 27.00637200033218], [-82.25527500035315, 27.006693000025916], [-82.25527500035315, 27.006833999653992], [-82.25527399962995, 27.007113000253053], [-82.25527199998012, 27.007461999737846], [-82.2552710001552, 27.0078129998124], [-82.25526899960707, 27.008176999621366], [-82.25526799978218, 27.008534000043717], [-82.25526600013232, 27.008891000132568], [-82.25526500030742, 27.00924799988797], [-82.25526399958419, 27.009601000028788], [-82.25526199993436, 27.009955000278744], [-82.25526100010946, 27.010307999799913], [-82.25526000028455, 27.010594000260863], [-82.2552579997364, 27.010951000209644], [-82.25525699991151, 27.011303999804042], [-82.25525500026168, 27.011662000300834], [-82.25525400043676, 27.012009000069618], [-82.25525299971355, 27.01224700036644], [-82.25525199988863, 27.012291999814437], [-82.25525100006372, 27.012646999985517], [-82.25524900041391, 27.01299500030473], [-82.25524799969067, 27.01335199982986], [-82.25524500021595, 27.014072000163512], [-82.2552419998429, 27.01478600004055], [-82.25523900036815, 27.015505999990065], [-82.25524299966779, 27.01624099994861], [-82.25524699986578, 27.016963000088786], [-82.2552500002388, 27.017678000352127], [-82.25525400043676, 27.01835600020134], [-82.25525699991151, 27.019077000019998], [-82.25525400043676, 27.020541000090965], [-82.25524500021595, 27.021977999917315], [-82.25523500017019, 27.02344199979686], [-82.25522500012445, 27.024910999623565], [-82.25521699972853, 27.026034000318045], [-82.2552069996828, 27.027508999822228], [-82.25519800036027, 27.028920000077125], [-82.25518800031453, 27.030403000371756], [-82.2551869995913, 27.030570999771335], [-82.2551869995913, 27.03095200019327], [-82.25518300029165, 27.031137000261687], [-82.25518400011657, 27.031446000115853], [-82.25517099969778, 27.03284400014185], [-82.25517099969778, 27.032874000143952], [-82.25516999987286, 27.03297399982643], [-82.25516900004797, 27.033019999986518], [-82.2545949999376, 27.033015999938566], [-82.25343199964829, 27.032991000235672], [-82.25322999998191, 27.03299599969659], [-82.2525329998479, 27.03297900008826], [-82.25225199964052, 27.03298499976205], [-82.25159800006253, 27.03293599974953], [-82.25100300003578, 27.032996999908825], [-82.25044200034422, 27.032924999809115], [-82.25041800005476, 27.032931999698597], [-82.25036899965096, 27.032946000276397], [-82.25026300024408, 27.03296599972709], [-82.25023800012971, 27.032970999989278], [-82.25020499961944, 27.032976999663486], [-82.25010099986235, 27.032985999974375], [-82.2500389999381, 27.032991999647795], [-82.24940299990345, 27.032991999647795], [-82.24663799983198, 27.032984000349916], [-82.24493300011765, 27.032977999875886], [-82.24490299998044, 27.032977999875886], [-82.24387299976051, 27.03297500003886], [-82.24221800027492, 27.032969999776824], [-82.24196800002964, 27.032969000364538], [-82.24110799968902, 27.03296599972709], [-82.24018700014736, 27.032964000102236], [-82.23853099993853, 27.032957999627165], [-82.23816299969249, 27.03295700021475], [-82.23698100003492, 27.03295400037716], [-82.23605999959491, 27.03295099973931], [-82.2346929999894, 27.032946000276397], [-82.23425199994844, 27.032945000063712], [-82.23419099984906, 27.032945000063712], [-82.2333199996378, 27.032942000225795], [-82.23173799994713, 27.0329369999623], [-82.23172500042666, 27.0329369999623], [-82.22988199972177, 27.03293100028594], [-82.22888400018721, 27.032927999647477], [-82.22519799967574, 27.03291600029349], [-82.22427600030915, 27.03291299965462], [-82.22042999996411, 27.03290000008599], [-82.21991899960297, 27.032897999659802], [-82.21985500002886, 27.032897999659802], [-82.21982099969367, 27.032897999659802], [-82.21978200023392, 27.03289700024685], [-82.2197329998301, 27.03289700024685], [-82.21966599988296, 27.03289700024685], [-82.21958200021737, 27.03289700024685], [-82.21937800000288, 27.032896000033737], [-82.21879399984678, 27.03289399960747], [-82.21871400037915, 27.03289399960747], [-82.21796299981848, 27.03289199998137], [-82.21780499963472, 27.032890999768206], [-82.21558199988657, 27.032883999876177], [-82.21463000038274, 27.032881000036603], [-82.21293900001382, 27.03287500035727], [-82.21094399987126, 27.03286799966407], [-82.2087279997958, 27.032860000357363], [-82.20784999991183, 27.03285799993046], [-82.2069679998299, 27.0328550000902], [-82.20671000008704, 27.032852000249893], [-82.20507099959666, 27.0328400000876], [-82.20476799964796, 27.0328400000876], [-82.20344200005033, 27.032842999928263], [-82.20178699966641, 27.032846999982375], [-82.20113599956316, 27.0328400000876], [-82.19446899996848, 27.032826000296733], [-82.1944000003715, 27.032826000296733], [-82.19437400043223, 27.032826000296733], [-82.19381500039049, 27.032825000082997], [-82.18943400029316, 27.032815000345543], [-82.18874800002982, 27.03281299991784], [-82.1885720003027, 27.03281299991784], [-82.18805199972071, 27.032811999703988], [-82.18410599981658, 27.03280199996538], [-82.18341399970545, 27.03280199996538], [-82.17877599969016, 27.03279600028182], [-82.17785400032358, 27.03279200022585], [-82.17722499996164, 27.03278900038386], [-82.17718499977867, 27.03278900038386], [-82.17640099960602, 27.032785000327653], [-82.17293000007804, 27.032776000000695], [-82.17232199963249, 27.032771999944014], [-82.17228800019562, 27.032771999944014], [-82.1716549996357, 27.032769000101478], [-82.16816900003911, 27.032759999773194], [-82.16469799961278, 27.0327519996586], [-82.16404700040786, 27.032748999815517], [-82.16396799986683, 27.032748999815517], [-82.16395600017127, 27.032748999815517], [-82.16369500005536, 27.03274799960108], [-82.1635350002218, 27.03274799960108], [-82.16343899996232, 27.03274799960108], [-82.15964600021904, 27.032740999700135], [-82.15949899990595, 27.032740999700135], [-82.15656499978007, 27.032733000384365], [-82.15624599993785, 27.03273200016979], [-82.15615999972412, 27.03273200016979], [-82.15582199961533, 27.0327309999552], [-82.15578800017845, 27.0327309999552], [-82.15550000029836, 27.03272999974061], [-82.15523900018246, 27.032729000326196], [-82.15345699957693, 27.03271899978002], [-82.15236799980576, 27.032713000092006], [-82.15235100008732, 27.032713000092006], [-82.15233900039176, 27.032713000092006], [-82.15227999994221, 27.032711999877264], [-82.15224599960703, 27.032711999877264], [-82.15081999955197, 27.032703999759235], [-82.1497149998873, 27.032696999855553], [-82.14879299962239, 27.032692999796097], [-82.14802100004363, 27.032688000321684], [-82.14753300014699, 27.032684999676732], [-82.14569000034042, 27.0326739997117], [-82.14461900011261, 27.03266600039115], [-82.14460099967094, 27.03266600039115], [-82.14458200030268, 27.03266600039115], [-82.14455299999037, 27.03266500017599], [-82.14450799978451, 27.03266500017599], [-82.14424699966861, 27.03266299974561], [-82.14406300044392, 27.032662000330564], [-82.14404500000225, 27.032662000330564], [-82.14363300027361, 27.032658999684912], [-82.1416480001768, 27.032644999871515], [-82.13975900033947, 27.03263200027182], [-82.13927100044286, 27.032628999625366], [-82.13901100015184, 27.032628000210025], [-82.13899199988526, 27.032628000210025], [-82.138929999961, 27.03262699999451], [-82.13885299996811, 27.03262699999451], [-82.13880199991446, 27.03262699999451], [-82.13853400012587, 27.032625000363648], [-82.13829899994923, 27.03262299993256], [-82.13734700044543, 27.032614000392762], [-82.13553200022794, 27.03260200020504], [-82.13550299991562, 27.03260200020504], [-82.13500400014833, 27.03259999977354], [-82.13495899994248, 27.03259999977354], [-82.134910000437, 27.03259999977354], [-82.1337279998811, 27.032595000294982], [-82.13352000036696, 27.032596999926415], [-82.13117000039719, 27.032614999808207], [-82.13088099979385, 27.032617000239423], [-82.13045999984439, 27.03260200020504], [-82.13042300003447, 27.032600999989292], [-82.13020999959913, 27.032592999863372], [-82.12973400029637, 27.03257600019403], [-82.129601000227, 27.03257099991425], [-82.12824200011907, 27.032569999698236], [-82.12732400005214, 27.03256500021835], [-82.12640000013742, 27.03255400024155], [-82.1254770000476, 27.0325510003932], [-82.12312999955256, 27.032539000198746], [-82.12244599983735, 27.032539000198746], [-82.12180700032798, 27.032524000153966], [-82.12001899987466, 27.032507999890566], [-82.11872800043714, 27.032502999607733], [-82.11823600034256, 27.03250900010714], [-82.11325600002053, 27.03247499994027], [-82.10860799995949, 27.03242999977417], [-82.1083269997521, 27.03243500006026], [-82.10783399983261, 27.03242999977417], [-82.10332300003893, 27.032366000253734], [-82.10279900015729, 27.03237499981344], [-82.10258499989705, 27.0323760000312], [-82.10154200015663, 27.032362999600167], [-82.09798299986677, 27.032333999679683], [-82.09250999962524, 27.03228999967559], [-82.09165799968054, 27.032285000183236], [-82.09152700015927, 27.03228399996468], [-82.09145600001416, 27.032285000183236], [-82.09123599990615, 27.032293999749434], [-82.0910429995623, 27.032311999679788], [-82.09074299998663, 27.032307000188414], [-82.09045400028164, 27.032303000115043], [-82.09036999971774, 27.032301999896635], [-82.09015499963257, 27.032299000041544], [-82.08858800001053, 27.032199999977298], [-82.08817899975662, 27.03220199961574], [-82.08660299991372, 27.032198999757977], [-82.08524999965361, 27.032190000184173], [-82.08288600033845, 27.03215899977965], [-82.08234200036532, 27.03216100021899], [-82.08201299957904, 27.03215899977965], [-82.08009000030485, 27.032135000105892], [-82.07894499955886, 27.032129999806443], [-82.07703499980514, 27.03212400008697], [-82.07640399979337, 27.032120000007094], [-82.07580999959153, 27.032117000147128], [-82.07488800022495, 27.032111999846915], [-82.0743300000081, 27.032106000126475], [-82.07393699964773, 27.032099999605542], [-82.07298400031901, 27.032099999605542], [-82.072062999879, 27.032096000325005], [-82.07081699974901, 27.032103999686154], [-82.07059400016625, 27.032099999605542], [-82.06985799967418, 27.032096000325005], [-82.06927299969317, 27.032091000023826], [-82.06801800024066, 27.032081999641193], [-82.06758800007034, 27.032078999780236], [-82.067386000404, 27.03208599972244], [-82.06660200023134, 27.032080000000626], [-82.06597399969432, 27.03207599991916], [-82.06577000037812, 27.032071999837584], [-82.06545800020861, 27.03207599991916], [-82.06477399959508, 27.032071999837584], [-82.06436900043744, 27.032067999755842], [-82.06208399986667, 27.032067999755842], [-82.06116199960177, 27.032060000392125], [-82.05800300024332, 27.03212100022713], [-82.0577360002796, 27.032120000007094], [-82.05750600012585, 27.03211899978706], [-82.0575100003238, 27.033530999940997], [-82.05751199997363, 27.034119999767288], [-82.05751600017159, 27.035197000346972], [-82.05752100019446, 27.037196999709153], [-82.05752000036955, 27.038783000102814], [-82.05751899964632, 27.041038999865826], [-82.0575169999965, 27.045198000200163], [-82.05751600017159, 27.047647999852444], [-82.05751600017159, 27.04767899998021], [-82.05751600017159, 27.04774399965246], [-82.05751600017159, 27.04783299961037], [-82.05751600017159, 27.04791000014627], [-82.0575300004153, 27.052657999622465], [-82.05753100024022, 27.0528349996373], [-82.0575599996542, 27.062871000109435], [-82.05754999960847, 27.065593999951762], [-82.0575239996692, 27.073764000108195], [-82.05751600017159, 27.076487999973285], [-82.05749699990501, 27.082150999853567], [-82.05744400020156, 27.099142999617914], [-82.0574269995848, 27.104806999741466], [-82.05741900008721, 27.107200999758668], [-82.0574180002623, 27.107595000247827], [-82.05739700034592, 27.114385000198826], [-82.0573899997749, 27.116780000294323], [-82.05738800012507, 27.11725900039824], [-82.05738300010219, 27.118699999788905], [-82.0573820002773, 27.119179999911143], [-82.05738099955406, 27.119303000145678], [-82.05737999972915, 27.11967200003789], [-82.05737999972915, 27.119795999968943], [-82.0573820002773, 27.119849999986243], [-82.05752000036955, 27.12288699965871], [-82.05763099979931, 27.12533099966186], [-82.05761800027884, 27.126471000267237], [-82.05754999960847, 27.132168999815114], [-82.05752700004226, 27.134175999678003], [-82.05752100019446, 27.13475699985957], [-82.0575169999965, 27.135072000092396], [-82.05749199988213, 27.13526199990519], [-82.05744800039952, 27.140036999609592], [-82.0573689998585, 27.14891200011337], [-82.05736499966054, 27.149180000025094], [-82.05731000030727, 27.153459999618214], [-82.0572979997134, 27.154362000067554], [-82.0572559998806, 27.157693999772736], [-82.05723699961402, 27.159136999700415], [-82.0571799997126, 27.163516999671756], [-82.05701400003126, 27.177848999727765], [-82.05667400027262, 27.192836999930265], [-82.05654100020324, 27.203876000066646], [-82.05653399963224, 27.20453700019381], [-82.05649699982231, 27.20776899980167], [-82.07275599981504, 27.207986000017097], [-82.0741590003039, 27.207987999711555], [-82.07437500021396, 27.207987999711555], [-82.07586599966803, 27.207988999958218], [-82.08478600004642, 27.20809299999724], [-82.08966199971309, 27.208078999751827], [-82.09604999964853, 27.20804399992947], [-82.09687800020208, 27.20803900029637], [-82.09693699975332, 27.20803900029637], [-82.09731900024306, 27.20803699980391], [-82.09752400028246, 27.208036000356586], [-82.09763700026036, 27.20803699980391], [-82.09793900038416, 27.20803900029637], [-82.0988080000473, 27.208052999747895], [-82.1015539998522, 27.208078999751827], [-82.10156800009591, 27.208078999751827], [-82.10158700036247, 27.208078999751827], [-82.10161300030174, 27.208078999751827], [-82.10164799956354, 27.208078999751827], [-82.10171200003595, 27.208079999997675], [-82.10172899975439, 27.208079999997675], [-82.10175700024179, 27.208079999997675], [-82.10438500004592, 27.208105999995297], [-82.10583899969006, 27.20812399962136], [-82.1107980000957, 27.208181000015923], [-82.11291799991172, 27.20818900037733], [-82.11534800024744, 27.208090000058935], [-82.1153590001181, 27.208090000058935], [-82.11536999998874, 27.208090000058935], [-82.11538099985941, 27.208090000058935], [-82.11539199973006, 27.208090000058935], [-82.11540299960072, 27.208090000058935], [-82.11541400036967, 27.208090000058935], [-82.11542500024034, 27.208090000058935], [-82.11543600011099, 27.208090000058935], [-82.11544699998164, 27.208090000058935], [-82.1154579998523, 27.208090000058935], [-82.11546899972295, 27.208090000058935], [-82.1154799995936, 27.208090000058935], [-82.11549100036257, 27.208090000058935], [-82.11550200023322, 27.208090000058935], [-82.11551300010387, 27.208090000058935], [-82.11552399997453, 27.208090000058935], [-82.1155349998452, 27.208090000058935], [-82.11554599971583, 27.208090000058935], [-82.1155569995865, 27.208090000058935], [-82.11556800035547, 27.208090000058935], [-82.11557900022613, 27.208090000058935], [-82.11559000009676, 27.208090000058935], [-82.11560099996743, 27.208090000058935], [-82.11561199983808, 27.208090000058935], [-82.11562299970873, 27.208090000058935], [-82.11563399957939, 27.208090000058935], [-82.11564500034835, 27.208090000058935], [-82.11565600021902, 27.208090000058935], [-82.11566700008967, 27.208090000058935], [-82.11567799996034, 27.208090000058935], [-82.11568899983097, 27.208090000058935], [-82.11569999970162, 27.208090000058935], [-82.11571099957229, 27.208090000058935], [-82.11572200034126, 27.208090000058935], [-82.1157330002119, 27.208090000058935], [-82.11574400008256, 27.208090000058935], [-82.11575599977812, 27.208090000058935], [-82.11576800037201, 27.208090000058935], [-82.11578000006757, 27.208090000058935], [-82.11579199976313, 27.208090000058935], [-82.11580400035703, 27.208090000058935], [-82.11581600005258, 27.208090000058935], [-82.11582799974815, 27.208090000058935], [-82.11584000034202, 27.208090000058935], [-82.11585200003759, 27.208090000058935], [-82.11586399973316, 27.208090000058935], [-82.11587600032703, 27.208090000058935], [-82.1158880000226, 27.208090000058935], [-82.11589999971818, 27.208090000058935], [-82.11591200031205, 27.208090000058935], [-82.11592400000761, 27.208090000058935], [-82.1159359997032, 27.208090000058935], [-82.11594800029707, 27.208090000058935], [-82.11595999999263, 27.208090000058935], [-82.11597199968818, 27.208090000058935], [-82.11598400028208, 27.208090000058935], [-82.11599599997763, 27.208090000058935], [-82.1160079996732, 27.208090000058935], [-82.1160200002671, 27.208090000058935], [-82.11603199996264, 27.208090000058935], [-82.11604399965822, 27.208090000058935], [-82.11605600025209, 27.208090000058935], [-82.11606799994766, 27.208090000058935], [-82.11607999964323, 27.208090000058935], [-82.1160920002371, 27.208090000058935], [-82.11610399993266, 27.208090000058935], [-82.11611599962824, 27.208090000058935], [-82.11612800022212, 27.208090000058935], [-82.11613999991766, 27.208090000058935], [-82.11615199961325, 27.208090000058935], [-82.11616400020714, 27.208090000058935], [-82.11617599990268, 27.208090000058935], [-82.11618799959825, 27.208090000058935], [-82.11620000019215, 27.208090000058935], [-82.1162119998877, 27.208090000058935], [-82.11622399958327, 27.208090000058935], [-82.11623600017715, 27.208090000058935], [-82.11624799987271, 27.208090000058935], [-82.11625999956829, 27.208090000058935], [-82.11627299998707, 27.208090000058935], [-82.11628600040586, 27.208090000058935], [-82.11629899992636, 27.208090000058935], [-82.11631200034513, 27.208090000058935], [-82.11632499986561, 27.208090000058935], [-82.1163380002844, 27.208090000058935], [-82.11635099980488, 27.208090000058935], [-82.11636400022367, 27.208090000058935], [-82.11637699974413, 27.208090000058935], [-82.11639000016294, 27.208090000058935], [-82.11640299968342, 27.208090000058935], [-82.1164160001022, 27.208090000058935], [-82.11642899962268, 27.208090000058935], [-82.11644200004147, 27.208090000058935], [-82.11645499956194, 27.208090000058935], [-82.11646799998074, 27.208090000058935], [-82.11648100039953, 27.208090000058935], [-82.11649399992001, 27.208090000058935], [-82.11650700033879, 27.208090000058935], [-82.11651999985928, 27.208090000058935], [-82.11653300027807, 27.208090000058935], [-82.11654599979856, 27.208090000058935], [-82.11655900021735, 27.208090000058935], [-82.1165719997378, 27.208090000058935], [-82.1165850001566, 27.208090000058935], [-82.11659799967708, 27.208090000058935], [-82.11661100009587, 27.208090000058935], [-82.11662399961637, 27.208090000058935], [-82.11663700003514, 27.208090000058935], [-82.11664999955562, 27.208090000058935], [-82.11666299997441, 27.208090000058935], [-82.11667600039321, 27.208090000058935], [-82.11668899991368, 27.208090000058935], [-82.11670200033247, 27.208090000058935], [-82.11671499985295, 27.208090000058935], [-82.11672800027173, 27.208090000058935], [-82.11674099979221, 27.208090000058935], [-82.11675400021102, 27.208090000058935], [-82.11676699973148, 27.208090000058935], [-82.11678000015027, 27.208090000058935], [-82.11679299967076, 27.208090000058935], [-82.11680600008955, 27.208090000058935], [-82.11681899961002, 27.208090000058935], [-82.11683200002882, 27.208090000058935], [-82.1168450004476, 27.208090000058935], [-82.11685799996808, 27.208090000058935], [-82.11687100038687, 27.208090000058935], [-82.11688399990736, 27.208090000058935], [-82.11689700032615, 27.208090000058935], [-82.11690999984661, 27.208090000058935], [-82.11692300026542, 27.208090000058935], [-82.11693599978588, 27.208090000058935], [-82.11694900020467, 27.208090000058935], [-82.11696199972516, 27.208090000058935], [-82.11697500014394, 27.208090000058935], [-82.11698799966442, 27.208090000058935], [-82.11700100008322, 27.208090000058935], [-82.1170139996037, 27.208090000058935], [-82.11702700002249, 27.208090000058935], [-82.11704000044126, 27.208090000058935], [-82.11705299996176, 27.208090000058935], [-82.11706600038055, 27.208090000058935], [-82.11707899990103, 27.208090000058935], [-82.11709200031981, 27.208090000058935], [-82.11710499984028, 27.208090000058935], [-82.11711800025907, 27.208090000058935], [-82.11713099977956, 27.208090000058935], [-82.11714400019835, 27.208090000058935], [-82.11715699971883, 27.208090000058935], [-82.11717000013762, 27.208090000058935], [-82.11718299965808, 27.208090000058935], [-82.11719600007687, 27.208090000058935], [-82.11720899959737, 27.208090000058935], [-82.11722200001616, 27.208090000058935], [-82.11723500043493, 27.208090000058935], [-82.11724799995542, 27.208090000058935], [-82.11726100037421, 27.208090000058935], [-82.11727399989469, 27.208090000058935], [-82.1172870003135, 27.208090000058935], [-82.11730099965888, 27.208090000058935], [-82.11731499990258, 27.208090000058935], [-82.11732900014628, 27.208090000058935], [-82.11734300038998, 27.208090000058935], [-82.11735699973536, 27.208090000058935], [-82.11737099997907, 27.208090000058935], [-82.11738500022277, 27.208090000058935], [-82.11739899956815, 27.208090000058935], [-82.11741299981186, 27.208090000058935], [-82.11742700005557, 27.208090000058935], [-82.11744100029927, 27.208090000058935], [-82.11745499964466, 27.208090000058935], [-82.11746899988836, 27.208090000058935], [-82.11748300013205, 27.208090000058935], [-82.11749700037576, 27.208090000058935], [-82.11751099972115, 27.208090000058935], [-82.11752499996486, 27.208090000058935], [-82.11753900020857, 27.208090000058935], [-82.11755299955395, 27.208090000058935], [-82.11756699979765, 27.208090000058935], [-82.11758100004135, 27.208090000058935], [-82.11759500028505, 27.208090000058935], [-82.11760899963043, 27.208090000058935], [-82.11762299987413, 27.208090000058935], [-82.11763700011785, 27.208090000058935], [-82.11765100036155, 27.208090000058935], [-82.11766499970693, 27.208090000058935], [-82.11767899995066, 27.208090000058935], [-82.11769300019435, 27.208090000058935], [-82.11770700043806, 27.208090000058935], [-82.11772099978344, 27.208090000058935], [-82.11773500002714, 27.208090000058935], [-82.11774900027083, 27.208090000058935], [-82.11776299961623, 27.208090000058935], [-82.11777699985994, 27.208090000058935], [-82.11779100010364, 27.208090000058935], [-82.11780500034735, 27.208090000058935], [-82.11781799986782, 27.208090000058935], [-82.1178310002866, 27.208090000058935], [-82.11784399980708, 27.208090000058935], [-82.11785700022587, 27.208090000058935], [-82.11786999974636, 27.208090000058935], [-82.11788300016515, 27.208090000058935], [-82.11789599968562, 27.208090000058935], [-82.1179090001044, 27.208090000058935], [-82.1179219996249, 27.208090000058935], [-82.11793500004369, 27.208090000058935], [-82.11794799956417, 27.208090000058935], [-82.11796099998294, 27.208090000058935], [-82.11797400040174, 27.208090000058935], [-82.11798699992221, 27.208090000058935], [-82.11800000034101, 27.208090000058935], [-82.11801299986149, 27.208090000058935], [-82.11802600028027, 27.208090000058935], [-82.11803899980076, 27.208090000058935], [-82.11805200021955, 27.208090000058935], [-82.11806499974003, 27.208090000058935], [-82.11807800015882, 27.208090000058935], [-82.11809099967928, 27.208090000058935], [-82.11810400009807, 27.208090000058935], [-82.11811699961856, 27.208090000058935], [-82.11813000003735, 27.208090000058935], [-82.11814299955783, 27.208090000058935], [-82.11815599997661, 27.208090000058935], [-82.11816900039541, 27.208090000058935], [-82.11818199991589, 27.208090000058935], [-82.11819500033468, 27.208090000058935], [-82.11820799985516, 27.208090000058935], [-82.11822100027393, 27.208090000058935], [-82.11823399979441, 27.208090000058935], [-82.11824700021322, 27.208090000058935], [-82.1182599997337, 27.208090000058935], [-82.11827300015248, 27.208090000058935], [-82.11828599967295, 27.208090000058935], [-82.11829900009175, 27.208090000058935], [-82.11831199961222, 27.208090000058935], [-82.11832500003102, 27.208090000058935], [-82.1183379995515, 27.208090000058935], [-82.11835099997029, 27.208090000058935], [-82.11836400038906, 27.208090000058935], [-82.11837699990956, 27.208090000058935], [-82.11839000032835, 27.208090000058935], [-82.11840299984884, 27.208090000058935], [-82.11841600026763, 27.208090000058935], [-82.1184289997881, 27.208090000058935], [-82.11844200020688, 27.208090000058935], [-82.11845499972736, 27.208090000058935], [-82.11846800014615, 27.208090000058935], [-82.11848099966664, 27.208090000058935], [-82.11849400008542, 27.208090000058935], [-82.1185069996059, 27.208090000058935], [-82.11852000002469, 27.208090000058935], [-82.11853300044349, 27.208090000058935], [-82.11854599996397, 27.208090000058935], [-82.11855900038275, 27.208090000058935], [-82.11857199990322, 27.208090000058935], [-82.11858500032201, 27.208090000058935], [-82.11859799984249, 27.208090000058935], [-82.1186110002613, 27.208090000058935], [-82.11862399978176, 27.208090000058935], [-82.11863700020055, 27.208090000058935], [-82.11864999972104, 27.208090000058935], [-82.11866300013983, 27.208090000058935], [-82.1186759996603, 27.208090000058935], [-82.11868900007909, 27.208090000058935], [-82.11870199959957, 27.208090000058935], [-82.11871500001835, 27.208090000058935], [-82.11872800043714, 27.208090000058935], [-82.11874099995764, 27.208090000058935], [-82.11875400037641, 27.208090000058935], [-82.11876699989689, 27.208090000058935], [-82.1187800003157, 27.208090000058935], [-82.11879299983616, 27.208090000058935], [-82.11880600025496, 27.208090000058935], [-82.11881899977541, 27.208090000058935], [-82.11883200019422, 27.208090000058935], [-82.1188439998898, 27.208090000058935], [-82.11885599958535, 27.208090000058935], [-82.11886800017923, 27.208090000058935], [-82.11887999987479, 27.208090000058935], [-82.11889199957037, 27.208090000058935], [-82.11890400016424, 27.208090000058935], [-82.11891599985981, 27.208090000058935], [-82.11892799955537, 27.208090000058935], [-82.11894000014925, 27.208090000058935], [-82.11895199984482, 27.208090000058935], [-82.1189640004387, 27.208090000058935], [-82.11897600013427, 27.208090000058935], [-82.11898799982984, 27.208090000058935], [-82.11900000042371, 27.208090000058935], [-82.11901200011927, 27.208090000058935], [-82.11902399981486, 27.208090000058935], [-82.11903600040873, 27.208090000058935], [-82.11904800010429, 27.208090000058935], [-82.11905999979986, 27.208090000058935], [-82.11907200039374, 27.208090000058935], [-82.11908400008929, 27.208090000058935], [-82.11909599978486, 27.208090000058935], [-82.11910800037876, 27.208090000058935], [-82.1191200000743, 27.208090000058935], [-82.11913199976988, 27.208090000058935], [-82.11914400036378, 27.208090000058935], [-82.11915600005932, 27.208090000058935], [-82.1191679997549, 27.208090000058935], [-82.11918000034876, 27.208090000058935], [-82.11919200004434, 27.208090000058935], [-82.11920399973991, 27.208090000058935], [-82.11921600033378, 27.208090000058935], [-82.11922800002935, 27.208090000058935], [-82.11923999972491, 27.208090000058935], [-82.1192520003188, 27.208090000058935], [-82.11926400001434, 27.208090000058935], [-82.11927599970993, 27.208090000058935], [-82.11928800030381, 27.208090000058935], [-82.11929999999936, 27.208090000058935], [-82.11931199969493, 27.208090000058935], [-82.11932400028883, 27.208090000058935], [-82.11933599998437, 27.208090000058935], [-82.11934799967995, 27.208090000058935], [-82.11935900044891, 27.208090000058935], [-82.11937000031956, 27.208090000058935], [-82.11938100019022, 27.208090000058935], [-82.11939200006087, 27.208090000058935], [-82.11940299993152, 27.208090000058935], [-82.11941399980219, 27.208090000058935], [-82.11942499967284, 27.208090000058935], [-82.11943600044181, 27.208090000058935], [-82.11944700031246, 27.208090000058935], [-82.11945800018313, 27.208090000058935], [-82.11946900005378, 27.208090000058935], [-82.11947999992441, 27.208090000058935], [-82.11949099979508, 27.208090000058935], [-82.11950199966573, 27.208090000058935], [-82.11951300043471, 27.208090000058935], [-82.11952400030535, 27.208090000058935], [-82.11953500017601, 27.208090000058935], [-82.11954600004667, 27.208090000058935], [-82.11955699991732, 27.208090000058935], [-82.11956799978796, 27.208090000058935], [-82.11957899965861, 27.208090000058935], [-82.11959000042759, 27.208090000058935], [-82.11960100029825, 27.208090000058935], [-82.11961200016891, 27.208090000058935], [-82.11962300003955, 27.208090000058935], [-82.11963399991022, 27.208090000058935], [-82.11964499978087, 27.208090000058935], [-82.1196559996515, 27.208090000058935], [-82.11966700042048, 27.208090000058935], [-82.11967800029115, 27.208090000058935], [-82.1196890001618, 27.208090000058935], [-82.11970000003245, 27.208090000058935], [-82.1197109999031, 27.208090000058935], [-82.11972199977376, 27.208090000058935], [-82.11973299964441, 27.208090000058935], [-82.1202809998155, 27.208090000058935], [-82.12215100028456, 27.20806500030356], [-82.12217200020096, 27.208064000057572], [-82.12345699979072, 27.208029999677894], [-82.12482699976928, 27.2079940003925], [-82.1268910004071, 27.208026999737907], [-82.13329000021318, 27.208208999680473], [-82.13334799993952, 27.20821100016983], [-82.13681400034295, 27.20831000038071], [-82.13691100042732, 27.208313000313115], [-82.1380510002521, 27.20831900017766], [-82.13808300003916, 27.20831900017766], [-82.1471530002054, 27.208365999637966], [-82.15202100037445, 27.208391000124728], [-82.1557289997289, 27.20840999994767], [-82.24869200042406, 27.20888999965575], [-82.24981299998228, 27.208870999914673], [-82.2535959996798, 27.208916000263336], [-82.25358900000711, 27.21050999968476], [-82.25354200015144, 27.223448000376074], [-82.25353600030367, 27.236967999871332], [-82.25350000031865, 27.23770000032289], [-82.25349500029579, 27.23875399967457], [-82.25348799972478, 27.240069000106832], [-82.25348799972478, 27.240130999917987], [-82.25344500006706, 27.249624999915678], [-82.25336600042435, 27.250326000320474], [-82.25336499970113, 27.250542999870596], [-82.25336499970113, 27.254931999626], [-82.25341199955679, 27.255255999955605], [-82.25335999967825, 27.255805999773788], [-82.25322499995903, 27.26876400025614], [-82.25319900001978, 27.271303999764143], [-82.25317599955524, 27.279104999890695], [-82.25316899988255, 27.28404400007073], [-82.25316300003476, 27.287002999805594], [-82.25316399985967, 27.287019000372865], [-82.25316499968459, 27.28705700031379], [-82.25316499968459, 27.28710799979387], [-82.25316499968459, 27.287179999865337], [-82.2531660004078, 27.287685999716146], [-82.2531660004078, 27.28775500002524], [-82.25312000037705, 27.289396999777313], [-82.2531520001641, 27.289465000307384], [-82.2531799997532, 27.289564000088866], [-82.25319099962385, 27.289628000069996], [-82.25319700036995, 27.289773999913848], [-82.25318899997401, 27.289878000166784], [-82.25317399990543, 27.289958999620772], [-82.25314299994326, 27.2900860003804], [-82.25311600017909, 27.290198000395485], [-82.25307000014834, 27.290385000005003], [-82.25305500007973, 27.29051299978245], [-82.25305099988176, 27.29054600020632], [-82.2530459998589, 27.290596000176734], [-82.25303499998824, 27.290700999961484], [-82.25302400011759, 27.290800000237805], [-82.25303800036129, 27.29115399994751], [-82.25297800008683, 27.29926599996128], [-82.25298599958444, 27.29943200037426], [-82.25300200037628, 27.29957699987788], [-82.25300499985102, 27.299604000271], [-82.25302900014047, 27.29974800012814], [-82.25303300033843, 27.299774999681418], [-82.25304099983602, 27.299810999607782], [-82.2530679996002, 27.29993400019932], [-82.25311700000401, 27.300103999682744], [-82.25308500021696, 27.302212999624903], [-82.25308400039205, 27.302253000349005], [-82.25307599999611, 27.30261599961581], [-82.25302599976742, 27.306039999682703], [-82.25302599976742, 27.30606300024564], [-82.25302499994251, 27.30608200015181], [-82.25302400011759, 27.306171999621178], [-82.25291500033764, 27.31273399997069], [-82.25288400037552, 27.317031999719234], [-82.25288400037552, 27.31704599982071], [-82.25288400037552, 27.317088000114506], [-82.25288000017756, 27.317623000242072], [-82.25286000008606, 27.320364000371253], [-82.25282900012391, 27.32464199986044], [-82.25280900003244, 27.327449000157394], [-82.25280900003244, 27.327473000242204], [-82.25280599965939, 27.327486999823762], [-82.25280800020752, 27.327645999735616], [-82.25278999976587, 27.33012900014014], [-82.25278899994095, 27.33027700006214], [-82.25278899994095, 27.330288000253375], [-82.25278899994095, 27.330300000388174], [-82.25278899994095, 27.330310999779066], [-82.25278700029112, 27.330482999689394], [-82.25278399991807, 27.330914999772077], [-82.25275799997881, 27.33439599977102], [-82.25275399978085, 27.33506900026902], [-82.25264500000091, 27.350237000217167], [-82.25261499986368, 27.359047999750192], [-82.25258800009951, 27.364420999720917], [-82.25255499958922, 27.371210000387546], [-82.25255499958922, 27.371248999777507], [-82.25226000003644, 27.37532099988821], [-82.25226400023439, 27.38624299968723], [-82.25233399965629, 27.38624299968723], [-82.25238999973277, 27.38624299968723], [-82.25318999979893, 27.38624500016171], [-82.25322300030922, 27.38624500016171], [-82.25326599996693, 27.38624500016171], [-82.25330899962462, 27.38624500016171], [-82.25334200013491, 27.38624500016171], [-82.25336200022639, 27.38624500016171], [-82.2533839999677, 27.386245999601314], [-82.25391799989508, 27.38624699983855], [-82.25484099998489, 27.386249000312983], [-82.25491700015289, 27.386249000312983], [-82.25497599970411, 27.386249000312983], [-82.25511100032163, 27.386249000312983], [-82.25536200039181, 27.386249999752536], [-82.25538699960785, 27.386249999752536], [-82.25541500009524, 27.386249999752536], [-82.25545899957785, 27.386249999752536], [-82.25551100035473, 27.386249999752536], [-82.25555499983733, 27.386249999752536], [-82.25556800025613, 27.386249999752536], [-82.25561000008894, 27.38625099998972], [-82.25571999969377, 27.38625099998972], [-82.25933900025808, 27.386259000291663], [-82.26056000027373, 27.386262000205328], [-82.26817699972241, 27.38630399978571], [-82.26823799982179, 27.38630399978571], [-82.27602599987301, 27.386319000144752], [-82.27605299963719, 27.386319000144752], [-82.27615599956935, 27.386319000144752], [-82.27657999989188, 27.386320000381314], [-82.2769899999707, 27.386320999820256], [-82.27998299964781, 27.38632699964414], [-82.2800870003032, 27.386327999880624], [-82.28011900009025, 27.38632699964414], [-82.2801299999609, 27.38632699964414], [-82.28711999959579, 27.386343999675123], [-82.2970690003692, 27.38636700032285], [-82.29709100011053, 27.38636700032285], [-82.29721800033212, 27.38636700032285], [-82.29986799987755, 27.38634200000004], [-82.31369999990761, 27.386215000219174], [-82.31538600025368, 27.386235999621466], [-82.31542499971343, 27.386235999621466], [-82.33018099965821, 27.386421999736918], [-82.33233399998451, 27.38643100026201], [-82.33236599977157, 27.38643100026201], [-82.3363760001481, 27.386452999858665], [-82.34062500000097, 27.38647699992125], [-82.34693199974555, 27.386512999606545], [-82.34695900040803, 27.386512999606545], [-82.35064900021916, 27.386533999749865], [-82.35277099968499, 27.386546000171847], [-82.35292499967078, 27.3865469996087], [-82.35354800018494, 27.38655099974907], [-82.36092899963208, 27.386570999650907], [-82.36354899993859, 27.386578999929668], [-82.36794099990657, 27.38659199978321], [-82.36810900013606, 27.38659199978321], [-82.36815900036477, 27.38659199978321], [-82.3716879996191, 27.38660199973091], [-82.37481500008882, 27.386611000241377], [-82.37502400032618, 27.3865469996087], [-82.37523299966523, 27.386550000312212], [-82.37781500033694, 27.386593000017342], [-82.37792499994177, 27.38659499968786], [-82.38465400035906, 27.386707000323266], [-82.38912300031994, 27.386782000229573], [-82.38916699980257, 27.38678299966434], [-82.38921700003127, 27.386783999896704], [-82.38924799999342, 27.386785000129066], [-82.38929499984907, 27.3867860003614], [-82.38931599976549, 27.3867860003614], [-82.38933500003205, 27.3867860003614], [-82.39200399984406, 27.38683000020672], [-82.39207499998918, 27.386830999641045], [-82.39251500020522, 27.386830999641045], [-82.39267000001591, 27.3868249998445], [-82.39360999982416, 27.38674800029961], [-82.39698900018898, 27.386475999686102], [-82.39719699970313, 27.386458999675412], [-82.39732800012268, 27.38645500032938], [-82.39739400024493, 27.386452999858665], [-82.3981170003182, 27.38645100018558], [-82.39980500031407, 27.386447000041613], [-82.40126200033126, 27.38644299989753], [-82.40642500005309, 27.38643000002647], [-82.40651200009174, 27.38643000002647], [-82.40920199982014, 27.38642299997255], [-82.41037000013233, 27.386420000063247], [-82.41213900031907, 27.386415999918185], [-82.4147539997044, 27.386410000099136], [-82.41538399989125, 27.38640799962759], [-82.41628699988958, 27.386404999717893], [-82.41634499961589, 27.386404999717893], [-82.41645599994398, 27.386404999717893], [-82.41659300021134, 27.386410000099136], [-82.41662800037142, 27.38641100033487], [-82.41673299995341, 27.38641499968249], [-82.4168590003501, 27.386420000063247], [-82.4172810001245, 27.386420000063247], [-82.41773399986103, 27.386401999808108], [-82.41777700041705, 27.386401999808108], [-82.41787199995328, 27.386401999808108], [-82.42194599990395, 27.386391999842356], [-82.42207899997335, 27.386391999842356], [-82.42224600037792, 27.386391999842356], [-82.42263200016731, 27.386390999606444], [-82.42384300013721, 27.38638799969629], [-82.42399100027521, 27.386393000078268], [-82.42401600038957, 27.38639400031419], [-82.42411299957564, 27.386397000224182], [-82.42425599969077, 27.386401999808108], [-82.42455299979169, 27.386401999808108], [-82.42501499974905, 27.38638400034769], [-82.42559200023244, 27.386381999875713], [-82.42578800005104, 27.38638099963971], [-82.42651600014719, 27.386378999965302], [-82.4284119996572, 27.386374000380307], [-82.43243499955423, 27.386357000353943], [-82.4331350000613, 27.386350000295405], [-82.4332279999477, 27.386349000059088], [-82.43333699972764, 27.386347999822792], [-82.43363600037671, 27.386346000147775], [-82.4336790000344, 27.386346000147775], [-82.43371099982146, 27.386344999911454], [-82.43373599993582, 27.386344999911454], [-82.43378600016455, 27.386344999911454], [-82.43396199989164, 27.386343999675123], [-82.43420299991607, 27.386343000236398], [-82.4353119997787, 27.386336999615757], [-82.43550799959729, 27.386337999852152], [-82.4355210000161, 27.386337999852152], [-82.4360299998291, 27.38634000032493], [-82.4362399998914, 27.38635300020659], [-82.43792500041253, 27.386309000171508], [-82.4383170000497, 27.38629799996057], [-82.44156400017, 27.38621399998166], [-82.4445900003574, 27.386132999856088], [-82.44590099988642, 27.38615400007161], [-82.44708799956688, 27.386122999866025], [-82.44718499965124, 27.388157000133127], [-82.44716899975774, 27.388603000020723], [-82.44742300020094, 27.38858900018752], [-82.44746099983578, 27.3885869997554], [-82.44849299970554, 27.388604000236622], [-82.44860900005648, 27.388604999654916], [-82.44881300027099, 27.388605999870805], [-82.44900099969365, 27.38860800030254], [-82.44932399973383, 27.388614000002356], [-82.45003199973848, 27.388626999616708], [-82.45012100032527, 27.388629000048102], [-82.45145100012085, 27.38866000034885], [-82.4526589997177, 27.388668999894207], [-82.45377199977831, 27.38867800023648], [-82.4539190000914, 27.388678999654076], [-82.45504999969538, 27.388687999995526], [-82.45516199984836, 27.388682000299728], [-82.45567700040748, 27.388655000069374], [-82.4557340003089, 27.38865100000515], [-82.45580600027891, 27.38864800015629], [-82.45674500026226, 27.388598999954613], [-82.45832299975497, 27.388453999653887], [-82.4591439997375, 27.388369000296823], [-82.45948900041732, 27.38833299962047], [-82.45951500035659, 27.388329999762984], [-82.46071000043297, 27.388205999733003], [-82.46146000027042, 27.388241000231563], [-82.4636040003759, 27.388240000012367], [-82.46367200014794, 27.388240000012367], [-82.46382600013374, 27.388240000012367], [-82.46385299989791, 27.388240000012367], [-82.46691199969726, 27.38824699995129], [-82.4673650003321, 27.38824900038953], [-82.46833500027758, 27.388252999670687], [-82.471020999808, 27.3882660001251], [-82.47111299986953, 27.3882660001251], [-82.4713089996881, 27.38826700034405], [-82.47145699982612, 27.38826700034405], [-82.47226399956497, 27.388270999624524], [-82.47253999974949, 27.388277000140256], [-82.4742799996239, 27.388285999716796], [-82.47435199959394, 27.388285999716796], [-82.47488499969641, 27.38828900037312], [-82.47735299966695, 27.388302000025664], [-82.47780200010384, 27.388321999610845], [-82.47812599996895, 27.38831999997154], [-82.47832299961243, 27.38831800033222], [-82.47840100032856, 27.388317000113698], [-82.47850699973543, 27.388317000113698], [-82.47862800010927, 27.38831599989519], [-82.47872799966838, 27.38831499967668], [-82.47882499975277, 27.388317000113698], [-82.47936500042624, 27.388326999905413], [-82.4798349998812, 27.388313000037247], [-82.48079200030621, 27.38831800033222], [-82.48147199982347, 27.388321999610845], [-82.48151700002931, 27.388321999610845], [-82.48285400039592, 27.388329999762984], [-82.48400300044152, 27.388336999696197], [-82.48708700035523, 27.38835599985452], [-82.48829800032513, 27.388362000365635], [-82.48953299968616, 27.388369000296823], [-82.49129699985001, 27.388379000083816], [-82.49131500029169, 27.388379000083816], [-82.49394399992072, 27.388392999943623], [-82.49399699962416, 27.388392999943623], [-82.49477699959884, 27.388397000017186], [-82.49491700023925, 27.388398000234957], [-82.4950419999127, 27.388398999655106], [-82.49510800003495, 27.388398999655106], [-82.49619400033139, 27.388405000163853], [-82.49621299969964, 27.388405000163853], [-82.49625200005771, 27.388405000163853], [-82.49738100001186, 27.388408000019304], [-82.49983399991376, 27.388413999729973], [-82.50020100033491, 27.38841499994759], [-82.50063900000282, 27.388425999947966], [-82.50081499972991, 27.388435000309986], [-82.50122099961078, 27.38843999980179], [-82.50161200032134, 27.388445000091025], [-82.50163499988756, 27.38844799994539], [-82.50556800027123, 27.38889800031007], [-82.50561799960164, 27.38890399999414], [-82.50570100034062, 27.38890500020733], [-82.50975400037488, 27.388929999950758], [-82.50977399956807, 27.388929999950758], [-82.51282200039508, 27.388962999794863], [-82.51296899980984, 27.38896500022015], [-82.51387099998327, 27.388973999740685], [-82.51521699967236, 27.388962000379802], [-82.51866700018229, 27.389003000317803], [-82.51967200028785, 27.389014999674234], [-82.51998000025944, 27.389018999725305], [-82.52056600006536, 27.388998000053796], [-82.52151400026953, 27.388940999899887], [-82.52199600031837, 27.38889599988354], [-82.52211199977101, 27.388884999929946], [-82.5221889997639, 27.388875999604526], [-82.52324599974803, 27.38875699966428], [-82.52383999994987, 27.388690999843302], [-82.52389199982841, 27.38868500014767], [-82.52408599999715, 27.388671000324848], [-82.52417899988359, 27.38866399961515], [-82.5245880001375, 27.388655000069374], [-82.5249260002463, 27.388642999876243], [-82.5249420001398, 27.388642999876243], [-82.52541199959478, 27.388640000027166], [-82.5257150004418, 27.388641999660685], [-82.52591799993307, 27.388642999876243], [-82.52650999958678, 27.38864599972524], [-82.52664299965618, 27.38864699994076], [-82.52727000036829, 27.38865100000515], [-82.52731200020109, 27.38865100000515], [-82.52771399988399, 27.388653999853933], [-82.52802400040369, 27.388656000284804], [-82.52856900020174, 27.388659000133448], [-82.52876300037049, 27.38866000034885], [-82.52878199973875, 27.38866000034885], [-82.52906299994615, 27.388660999766635], [-82.52956099988853, 27.38866399961515], [-82.52984200009591, 27.388666000045845], [-82.52995699972365, 27.38867199974252], [-82.53004299993736, 27.388677000021243], [-82.53016400031119, 27.388683999932496], [-82.53023999958087, 27.388687999995526], [-82.53031900012189, 27.388697000336222], [-82.53035000008403, 27.388701000398807], [-82.53037199982533, 27.388703000031207], [-82.53047099955954, 27.38871500021784], [-82.5307350000485, 27.388731999881745], [-82.53083600033085, 27.38873899978954], [-82.53151199965014, 27.38878200023879], [-82.53158299979523, 27.388787999929153], [-82.5316449997195, 27.388793999619203], [-82.53176500026842, 27.388804000165393], [-82.53178600018482, 27.38880599979595], [-82.53187099967533, 27.388812999699045], [-82.5318830002692, 27.388813999913037], [-82.53195000021636, 27.388819000185364], [-82.5322919996248, 27.388846999791745], [-82.5323329996327, 27.388846999791745], [-82.53301800007112, 27.388901000152153], [-82.53325800027065, 27.388909999677903], [-82.53330599995122, 27.388912000104142], [-82.53371600003004, 27.388928000322444], [-82.53468000012774, 27.388917000372015], [-82.53524300036744, 27.388909999677903], [-82.53534200010164, 27.38890900026237], [-82.5358240001505, 27.38892199984204], [-82.53612200007632, 27.388929999950758], [-82.53728000034278, 27.388959999954466], [-82.53749100022996, 27.388965999635175], [-82.53784400040738, 27.388974999953238], [-82.53799099982217, 27.388979000005758], [-82.53963699998523, 27.388998000053796], [-82.53989300007828, 27.389000999893167], [-82.53998199976675, 27.389002000105478], [-82.5402529999284, 27.38900499994472], [-82.54121399965305, 27.389008999996182], [-82.54257199993603, 27.389014000259657], [-82.54260999957086, 27.389014000259657], [-82.54299799990838, 27.389022000361706], [-82.54315799974195, 27.389028000039044], [-82.54318299985631, 27.389029000251103], [-82.54357299984365, 27.389040999604735], [-82.54366599973007, 27.389044000240563], [-82.54441800011567, 27.389033000301687], [-82.54473100011009, 27.38903200008963], [-82.54673999959803, 27.389052999754686], [-82.54774999972648, 27.389047000078683], [-82.54996499997704, 27.389033999716077], [-82.55028200016946, 27.38903200008963], [-82.55501499972098, 27.38901000020842], [-82.55767900040841, 27.389029999665567], [-82.55930100028205, 27.389043000028632], [-82.55933899991689, 27.389040999604735], [-82.55959699965976, 27.389028000039044], [-82.56002500018023, 27.38901700009859], [-82.56032300010607, 27.389026999826985], [-82.56033399997673, 27.389026999826985], [-82.56061799965885, 27.389030999877598], [-82.56106799992065, 27.389036000140116], [-82.56142199992298, 27.38903899997844], [-82.56144500038751, 27.38903899997844], [-82.56221100011848, 27.38903899997844], [-82.56222199998915, 27.38903899997844], [-82.56234099981482, 27.389037000352097], [-82.56244999959476, 27.389044000240563], [-82.56299600011604, 27.389120000368482], [-82.56374099993063, 27.389120999782104], [-82.56392500005363, 27.389120999782104], [-82.56397799975709, 27.389102999966582], [-82.56401899976495, 27.389092000033585], [-82.56414500016166, 27.389070000164256], [-82.56436100007173, 27.38904999991672], [-82.56456600011114, 27.389048000290565], [-82.56460499957089, 27.389048000290565], [-82.56461600033985, 27.389048000290565], [-82.56538299989573, 27.389051000128585], [-82.56541300003298, 27.3890609998539], [-82.56547699960707, 27.38908399993657], [-82.5654990002467, 27.389092000033585], [-82.56555100012523, 27.389109999850863], [-82.56558000043755, 27.389119000157237], [-82.56567800034685, 27.389120000368482], [-82.56594000028767, 27.389120999782104], [-82.56600200021194, 27.389120999782104], [-82.56607800037993, 27.389120999782104], [-82.5662969997647, 27.38912199999332], [-82.56632600007704, 27.38911799994599], [-82.56634799981835, 27.389115000109804], [-82.57680100038193, 27.389188000354718], [-82.57952000042265, 27.389208999990103], [-82.59652000003202, 27.38932000016167], [-82.6140209999568, 27.3895129997348], [-82.61658500018682, 27.389542000170525], [-82.61705600036503, 27.389546999612293], [-82.62362000002754, 27.389620000369657], [-82.62482000012679, 27.389620000369657], [-82.62551999973553, 27.389620000369657], [-82.62571899992716, 27.38962099977874], [-82.63181399995965, 27.38966299967873], [-82.63343500000835, 27.389674000352553], [-82.63979299980656, 27.389716999640637], [-82.63992400022613, 27.389717999846475], [-82.64112099995234, 27.389720000258123], [-82.6411539995643, 27.389720000258123], [-82.64261300012961, 27.389739000178835], [-82.64263200039619, 27.389739000178835], [-82.64283200041274, 27.389736999767557], [-82.64472100025007, 27.389720000258123], [-82.64688700009683, 27.389720000258123], [-82.64931900008237, 27.389720000258123], [-82.64956500012967, 27.389720000258123], [-82.65017100002707, 27.389720000258123], [-82.66133300042023, 27.389881999981238], [-82.68232999998735, 27.39002999981627], [-82.68730299973838, 27.390091000218774], [-82.695624999717, 27.390166000222965], [-82.69864300040678, 27.390187999874236], [-82.70431199956859, 27.390229000155276], [-82.70618000038783, 27.39024200037737], [-82.82564700032854, 27.391111999620083], [-82.85073999958766, 27.39138900015363]]]}, "properties": {"GEOID": "12115", "NAME": "Sarasota County", "BASENAME": "Sarasota", "STATE": "12", "COUNTY": "115", "AREALAND": "1440271311", "AREAWATER": "1086396800", "INTPTLAT": "+27.2235311", "INTPTLON": "-082.4247494"}}], "_auspice": {"source_url": "https://tigerweb.geo.census.gov/arcgis/rest/services/TIGERweb/State_County/MapServer/1/query?where=GEOID%3D%2712115%27&outFields=GEOID%2CNAME%2CBASENAME%2CSTATE%2CCOUNTY%2CAREALAND%2CAREAWATER%2CINTPTLAT%2CINTPTLON&returnGeometry=true&outSR=4326&f=geojson", "fetched_at": "2026-08-26T23:13:24.134603+00:00", "service": "Census TIGERweb State_County layer 1"}}