{"type": "FeatureCollection", "features": [{"type": "Feature", "geometry": {"type": "Polygon", "coordinates": [[[-86.35996200030134, 39.92399900028908], [-86.3594030002596, 39.92400399974333], [-86.35775299989855, 39.92401900017064], [-86.35725400013128, 39.92402300000847], [-86.35576000030414, 39.92403599982421], [-86.35526200036178, 39.92404099996468], [-86.35314900021845, 39.92405800030177], [-86.35183299976826, 39.924069000193406], [-86.34681200033666, 39.924110999826105], [-86.34470000001824, 39.92413000006156], [-86.34462399985027, 39.92413000006156], [-86.34439600024463, 39.92413000006156], [-86.34432000007665, 39.92413000006156], [-86.34349499989614, 39.92413000006156], [-86.34211999989469, 39.92413000006156], [-86.34102299972761, 39.92411999979327], [-86.34092999984118, 39.92411999979327], [-86.34054499987674, 39.92411999979327], [-86.34033999983733, 39.92411999979327], [-86.34020000009522, 39.92411000021244], [-86.33937400008979, 39.924119000179665], [-86.33689699989841, 39.924147999989636], [-86.3360719997179, 39.924158999866876], [-86.33587500007441, 39.924158999866876], [-86.3355500003844, 39.924160999781705], [-86.33528400024561, 39.924160999781705], [-86.33508800042704, 39.924160999781705], [-86.33488800041049, 39.924162000083555], [-86.33428800036086, 39.92416700021482], [-86.33408900016924, 39.924169000129474], [-86.33400600032856, 39.924169000129474], [-86.33394000020633, 39.924169000129474], [-86.33375699990822, 39.924169000129474], [-86.33367400006753, 39.924169000129474], [-86.33359100022686, 39.924169000129474], [-86.33356199991454, 39.924169000129474], [-86.33334299963143, 39.92414699968758], [-86.33326099961566, 39.924139000026216], [-86.33324200024741, 39.92413700011069], [-86.33292199968194, 39.92413700011069], [-86.33190599970571, 39.92413700011069], [-86.33162500039663, 39.92413700011069], [-86.33156799959691, 39.924139000026216], [-86.33140699993842, 39.92414499977234], [-86.33092400006467, 39.92416299969653], [-86.33079500019325, 39.924169000129474], [-86.3307630004062, 39.924167999827716], [-86.33064899970505, 39.924165000300164], [-86.33030899994645, 39.924156000338925], [-86.33019599996852, 39.924153999735026], [-86.33015400013574, 39.924153000121926], [-86.32960299959161, 39.924169000129474], [-86.32948399976591, 39.92416399999835], [-86.32629299972209, 39.92402899976475], [-86.32628900042245, 39.92404200026834], [-86.32164200018633, 39.92414999990484], [-86.32139399959091, 39.92415800025384], [-86.32138899956804, 39.924219000042704], [-86.32133699968949, 39.924220000343716], [-86.31945299987504, 39.924213999915246], [-86.31901600003204, 39.92421599982846], [-86.31878300040353, 39.92421500021632], [-86.31807799987361, 39.924220000343716], [-86.31803000019303, 39.924220000343716], [-86.31747299980113, 39.924220000343716], [-86.31667100008512, 39.92422499978181], [-86.3160979997997, 39.92423500003478], [-86.31581900014044, 39.92423800024818], [-86.31434500040478, 39.92426300018417], [-86.31054000006765, 39.924327999699436], [-86.30925100027993, 39.924351999992425], [-86.30724600009165, 39.924394000140445], [-86.30407000011644, 39.92444700009361], [-86.30399300012354, 39.92444700009361], [-86.30331500025612, 39.92445600001655], [-86.30236899970177, 39.924487000278056], [-86.30162800008516, 39.924487000278056], [-86.29891099969427, 39.92451799983656], [-86.2978150002504, 39.924531000247285], [-86.29719900030726, 39.92453599966268], [-86.29532499964023, 39.92456100017878], [-86.29359499981155, 39.924582000191876], [-86.29357999974293, 39.924582000191876], [-86.29268000011766, 39.924589999801526], [-86.29259999975173, 39.92459100009712], [-86.29077000036393, 39.92461900010092], [-86.29023899991128, 39.92462699970619], [-86.29016600011636, 39.92462900029627], [-86.28904899985777, 39.92464399989778], [-86.28899100013146, 39.92464399989778], [-86.28891400013856, 39.924634999999505], [-86.28591899991332, 39.92464099970217], [-86.28375700026452, 39.92464599979844], [-86.28217399985063, 39.92464300029184], [-86.28198899990271, 39.92464099970217], [-86.2818550000084, 39.92464099970217], [-86.28179899993191, 39.92464000009623], [-86.28127000002739, 39.92464099970217], [-86.28109699977502, 39.92464000009623], [-86.2799829998895, 39.92468799976612], [-86.27957500035883, 39.924701999749566], [-86.27951199971133, 39.924703000043564], [-86.27944899996213, 39.92470499994251], [-86.27847099962072, 39.92472900010333], [-86.27757299964527, 39.92475800034385], [-86.27755900029989, 39.92475800034385], [-86.27734599986455, 39.92476599993289], [-86.27558000005087, 39.92480000024276], [-86.27488899976464, 39.92481299991102], [-86.27471899988534, 39.92481699970247], [-86.27273499961345, 39.92486300004287], [-86.27140200034313, 39.92489499972227], [-86.27094000038576, 39.924899999800004], [-86.27042800019969, 39.92491399974015], [-86.26886800025034, 39.92491199984731], [-86.26824599956109, 39.92491600032189], [-86.26790400015264, 39.92490499987736], [-86.2676060002268, 39.92494699968615], [-86.26733500006516, 39.92494699968615], [-86.26688499980337, 39.92498000030511], [-86.26613800033896, 39.9250139998198], [-86.2649010004298, 39.92507300033565], [-86.2639950000584, 39.925106000205005], [-86.26248000031491, 39.92513299971049], [-86.26111799983396, 39.92513900005842], [-86.26008000011639, 39.925030999915286], [-86.25986599985616, 39.9250379998723], [-86.2598530003357, 39.92510999997934], [-86.25574800042288, 39.925323999965194], [-86.255010000281, 39.92536300004187], [-86.25209899972133, 39.925515999969164], [-86.25154800007552, 39.925541000127396], [-86.25150700006763, 39.92554400028353], [-86.25135599955658, 39.925551000188136], [-86.25065799959766, 39.92558699998135], [-86.25034399977832, 39.92560300034263], [-86.2496399999716, 39.925644000131896], [-86.24842200032901, 39.92570899971388], [-86.24821800011452, 39.92572000002918], [-86.24815500036533, 39.92572399976764], [-86.2468160003489, 39.92579700012006], [-86.2413730002446, 39.92608499965655], [-86.24120099981715, 39.92609299977949], [-86.24109000038737, 39.92609200019469], [-86.24105299967914, 39.92608799978888], [-86.24077800021784, 39.926067000237666], [-86.24073600038504, 39.92606200024516], [-86.24080800035507, 39.9323989999429], [-86.24082699972334, 39.93416100018012], [-86.24082800044654, 39.9343030001076], [-86.2409020000664, 39.94075299993173], [-86.24090299989132, 39.94500999990234], [-86.24090299989132, 39.9461679999401], [-86.24090299989132, 39.94803500029836], [-86.24090299989132, 39.94810499972577], [-86.24090299989132, 39.948513000256064], [-86.24090399971622, 39.94884999981945], [-86.24090299989132, 39.950267000112774], [-86.24090500043945, 39.95081100007233], [-86.24090500043945, 39.95092299981052], [-86.24090399971622, 39.95095900003171], [-86.24090399971622, 39.95106899971035], [-86.24090399971622, 39.951105999762845], [-86.24090299989132, 39.951315000204524], [-86.24090299989132, 39.951451000237924], [-86.24090299989132, 39.95194299965975], [-86.24090299989132, 39.95215300019128], [-86.24090299989132, 39.95223199993902], [-86.2409589999678, 39.95519200004943], [-86.24096099961763, 39.9553149998787], [-86.24097800023438, 39.956958999854656], [-86.2409790000593, 39.9571249998008], [-86.24098999992995, 39.95875399994857], [-86.24100400017366, 39.96086700024135], [-86.24101699969412, 39.96257399983253], [-86.241021999717, 39.96355199992479], [-86.24102300044022, 39.96367600027762], [-86.24102699973987, 39.96411399999022], [-86.24106299972487, 39.96970799974091], [-86.24106400044812, 39.96983900013696], [-86.24104699983137, 39.9717390001884], [-86.24117700042602, 39.977093999955606], [-86.24118400009871, 39.97872899976179], [-86.24120900021308, 39.98369500032232], [-86.24121099986289, 39.9840259999546], [-86.2412180004339, 39.9853509997506], [-86.24122699975642, 39.98707599971853], [-86.24107399959554, 39.9915169998343], [-86.24106100007505, 39.9918940001159], [-86.24106299972487, 39.99271499984546], [-86.24107600014366, 39.99334500026067], [-86.24106600009793, 39.993440000223266], [-86.24123500015233, 39.99588700033072], [-86.24124799967281, 39.99784800030489], [-86.24124799967281, 39.99788599972714], [-86.24124799967281, 39.997999999931594], [-86.24124900039604, 39.9980389998673], [-86.24109899970989, 39.99863599986142], [-86.24106500027301, 39.998772999937586], [-86.24106600009793, 39.99891300011822], [-86.24106600009793, 39.998995999780114], [-86.24107000029589, 39.99955200015368], [-86.24105100002932, 40.000040000028456], [-86.24105100002932, 40.00041700005659], [-86.24105299967914, 40.00224899974949], [-86.24105400040237, 40.00232300017364], [-86.2410560000522, 40.003536999884254], [-86.2410569998771, 40.00403399995403], [-86.24106699992284, 40.00582099987262], [-86.24106699992284, 40.005923000306986], [-86.24106799974776, 40.008835000017136], [-86.24106899957265, 40.01276300033422], [-86.24107000029589, 40.01281100008768], [-86.24107000029589, 40.012876999779635], [-86.24107000029589, 40.01293299973918], [-86.24107000029589, 40.01294300009573], [-86.24107000029589, 40.01327500009241], [-86.24107399959554, 40.013949999942774], [-86.24107299977062, 40.01424899966628], [-86.24106000025016, 40.01863000022625], [-86.24106799974776, 40.020763999792486], [-86.24113100039526, 40.026508000270006], [-86.24113800006796, 40.02682199989161], [-86.24115300013658, 40.027471999843414], [-86.2411549997864, 40.02757599989376], [-86.24115999980926, 40.02777000000054], [-86.24116300018231, 40.028025000308595], [-86.24117599970279, 40.028749999928536], [-86.24119199959632, 40.02980999984917], [-86.24122799958133, 40.03201199979496], [-86.24142000010026, 40.04154500026799], [-86.24142000010026, 40.04155699978977], [-86.24142000010026, 40.04167099995533], [-86.241422999575, 40.04230800004489], [-86.24144299966648, 40.04668999973862], [-86.2414510000624, 40.04835500004726], [-86.24145299971221, 40.048769000114966], [-86.24145299971221, 40.048829000284904], [-86.24145500026036, 40.04923500006997], [-86.24145500026036, 40.04931699988889], [-86.24145299971221, 40.05610199971556], [-86.24144500021461, 40.06140000025958], [-86.24144199984157, 40.06321900019428], [-86.24144000019174, 40.064897999736516], [-86.24144699986444, 40.06939799985472], [-86.24145799973509, 40.070709000247966], [-86.24145799973509, 40.07081900027922], [-86.24145899956001, 40.070872999667124], [-86.24152100038259, 40.07833900030946], [-86.24160099985023, 40.085328000229374], [-86.24162400031476, 40.08876299984023], [-86.24162400031476, 40.0887969996643], [-86.24163299963729, 40.08902199997207], [-86.24166100012467, 40.091788000233954], [-86.24165399955368, 40.0931309997147], [-86.24172200022404, 40.09985000005253], [-86.24172200022404, 40.10004699997183], [-86.24172200022404, 40.10005900018566], [-86.24172399987387, 40.10069699980359], [-86.24171499965304, 40.10264300014249], [-86.24168799988885, 40.105315000301204], [-86.24169100026191, 40.10550799999118], [-86.24168100021618, 40.10743099993147], [-86.24168000039126, 40.10886499983026], [-86.24167799984312, 40.111857999738405], [-86.24166399959942, 40.114370000310544], [-86.24166600014755, 40.114628999847056], [-86.24166699997248, 40.11473000008338], [-86.24168000039126, 40.11664600010746], [-86.2417049996073, 40.11789300029956], [-86.24172200022404, 40.11926899993436], [-86.24172300004896, 40.11968200020276], [-86.24172300004896, 40.1199769998399], [-86.24173599956946, 40.1205539998778], [-86.24174399996537, 40.121840999889095], [-86.24175700038415, 40.1226689999298], [-86.24177800030054, 40.12351399966913], [-86.241795000019, 40.12485599992502], [-86.24180199969167, 40.125319999755845], [-86.24180900026269, 40.125819999918754], [-86.24180900026269, 40.125869999938864], [-86.2418319998289, 40.12707999978886], [-86.24187200001188, 40.129214000334315], [-86.24190200014911, 40.1296209996994], [-86.24191800004263, 40.129998999726595], [-86.2419370003092, 40.130874999721726], [-86.24196099970034, 40.13193300024521], [-86.24198099979182, 40.133435000332696], [-86.24199199966249, 40.13547799988481], [-86.24198199961673, 40.13625500017954], [-86.24196499989829, 40.1368920002841], [-86.24196800027136, 40.13815200024591], [-86.2419580002256, 40.1397690002335], [-86.2419659997232, 40.14354300031963], [-86.24196300024848, 40.1441899997236], [-86.24196300024848, 40.14420499986807], [-86.24196999992117, 40.14612499994272], [-86.24198900018774, 40.14898699985967], [-86.24198699963961, 40.15001700030269], [-86.24201799960174, 40.152948000106115], [-86.24203000019563, 40.153530000200405], [-86.2420350002185, 40.154951000202495], [-86.24204299971609, 40.15774500032238], [-86.2420989997926, 40.16054799983668], [-86.24212100043222, 40.160901999902656], [-86.24213999980049, 40.16111500017581], [-86.24215599969399, 40.161290000154814], [-86.24215900006705, 40.161667000181524], [-86.24215400004418, 40.16176100014073], [-86.24213300012778, 40.16220299997155], [-86.24212999975474, 40.162475000285475], [-86.24212399990697, 40.16267200000654], [-86.24213200030287, 40.16311400008491], [-86.24217900015854, 40.165831999673934], [-86.24220099989985, 40.16779800007772], [-86.24221699979337, 40.16862000006395], [-86.24222400036439, 40.16967600010823], [-86.24224199990772, 40.17066299996001], [-86.24227100022006, 40.17339900011135], [-86.24229600033442, 40.17496500015143], [-86.24229600033442, 40.17540599975186], [-86.24232100044877, 40.176691999996514], [-86.24233700034229, 40.17850099981984], [-86.24233999981702, 40.1793469997879], [-86.24236499993138, 40.18072599995253], [-86.24236499993138, 40.18077800000661], [-86.25004900022552, 40.18055000000173], [-86.25148500032633, 40.18052499987029], [-86.25777199997941, 40.180314000068606], [-86.25893500026875, 40.180267000254396], [-86.25899100034525, 40.180264000308945], [-86.25916100022455, 40.180257999731374], [-86.25921800012597, 40.18025599976749], [-86.25965800034203, 40.18023800008992], [-86.25967000003759, 40.18023800008992], [-86.25972000026628, 40.18025399980355], [-86.26007099989558, 40.1802270002846], [-86.26097800009185, 40.1801890002572], [-86.26142900017857, 40.18017099987556], [-86.26155300002712, 40.18016699994261], [-86.26165299958625, 40.180112000154416], [-86.26173899979997, 40.180156000125784], [-86.26197800017458, 40.18015100020846], [-86.26361500011683, 40.180123999962234], [-86.26373200029269, 40.18011900004255], [-86.26431700027369, 40.18009699970526], [-86.26664499960384, 40.180064000215445], [-86.27363199976399, 40.179968000235725], [-86.2758019998087, 40.17993899994345], [-86.27595900016755, 40.17993699997017], [-86.27686899983857, 40.179897999793056], [-86.27959899974995, 40.179785999758245], [-86.2805100001442, 40.179750000148985], [-86.28059200015996, 40.17972499972278], [-86.28070500013786, 40.17973400031656], [-86.28099300001796, 40.179728999681785], [-86.28145800034837, 40.179710999864454], [-86.28260900004382, 40.179680000167814], [-86.28347100003425, 40.179675000215404], [-86.28421000000104, 40.17967700019642], [-86.28432999965163, 40.179675000215404], [-86.28438099970528, 40.179675000215404], [-86.28450399972891, 40.17968100015825], [-86.28463199977544, 40.17970199995397], [-86.28468799985194, 40.17971799979395], [-86.28476099964686, 40.17973900026461], [-86.28480199965475, 40.17975700007452], [-86.28486000027938, 40.1797819998026], [-86.28497999992997, 40.179849999702746], [-86.28502099993787, 40.179882999982986], [-86.28507100016657, 40.17992300015553], [-86.28605899965541, 40.179901999741865], [-86.2890229999185, 40.179843999774846], [-86.29001299995548, 40.17982699997631], [-86.2919090003638, 40.17978699974711], [-86.29761000021098, 40.17967300023434], [-86.29951199956878, 40.17963799986986], [-86.30090900020983, 40.17960900012288], [-86.30510000033638, 40.17952600009221], [-86.306285000367, 40.17950300025588], [-86.30649999955385, 40.1794990002836], [-86.30890700032334, 40.17945099991096], [-86.31612799993691, 40.17930599996613], [-86.31853599963301, 40.17925900013995], [-86.31854999987671, 40.1792580001433], [-86.31873900002259, 40.179254000156526], [-86.31934900011795, 40.17924100019793], [-86.31955300033246, 40.17923800020712], [-86.32162600029281, 40.179196000321916], [-86.32784699982366, 40.179072999822246], [-86.32992099960892, 40.17903299983489], [-86.33143500042584, 40.17900299982891], [-86.33597800000658, 40.178912999731395], [-86.33748199987942, 40.17888399967453], [-86.3375360003061, 40.17888199967016], [-86.33766500017754, 40.17887799966122], [-86.33770899966015, 40.17887699965895], [-86.33992100043596, 40.17879800011937], [-86.34656000044157, 40.17856500029007], [-86.34874100035694, 40.17848799971693], [-86.348773000144, 40.17848699970891], [-86.34881199960375, 40.17850499985101], [-86.34892899977963, 40.17856200026937], [-86.34896800013766, 40.17858099971187], [-86.34899400007694, 40.17859399979691], [-86.34907500026779, 40.1786330000372], [-86.34910200003196, 40.178647000118005], [-86.34978099972432, 40.17862299997772], [-86.35182100007269, 40.178553000206485], [-86.35250200031318, 40.17853100004777], [-86.35262299978868, 40.17856400028319], [-86.35295300039988, 40.17862299997772], [-86.35307800007335, 40.17863000001951], [-86.3532849997626, 40.17865100014056], [-86.35345899983986, 40.1786009998417], [-86.35354699970341, 40.17857699968518], [-86.35421600024833, 40.178574999671746], [-86.35622499973624, 40.178572999658265], [-86.3563279996684, 40.178572999658265], [-86.35634699993498, 40.17811299979476], [-86.3564540000651, 40.178108999740495], [-86.35836800001678, 40.178051000299845], [-86.36411200041998, 40.177880999689236], [-86.36601899980066, 40.17782500008929], [-86.36978099958179, 40.177727000334954], [-86.3749979997303, 40.17759199966415], [-86.38104699973204, 40.17750899991156], [-86.38480000019064, 40.17745900014389], [-86.38760999956963, 40.17740300019563], [-86.3960400004016, 40.17724200025861], [-86.3988499997806, 40.177190000239946], [-86.40067800041687, 40.177182000022334], [-86.40176399981497, 40.17718300004959], [-86.40450299994718, 40.17718500010405], [-86.4059740002081, 40.177180999995066], [-86.4082970004137, 40.17717799991318], [-86.40880700005164, 40.177171999749056], [-86.41050799956798, 40.177167000298205], [-86.4108749999891, 40.177167000298205], [-86.4128609999108, 40.17717699988585], [-86.4134249999754, 40.17716999969421], [-86.41352100023488, 40.17717099972163], [-86.41366099997697, 40.177175999858505], [-86.41380800029006, 40.17716899966676], [-86.41390399965121, 40.177167000298205], [-86.41395399987994, 40.17716899966676], [-86.41397999981919, 40.17716999969421], [-86.41422800041464, 40.17717799991318], [-86.41466100005967, 40.177171999749056], [-86.41501800043505, 40.17716800032563], [-86.41591100038764, 40.17716000010548], [-86.41673099964697, 40.17713900020934], [-86.41693400003658, 40.17713500009764], [-86.41755900020054, 40.17712399978932], [-86.41769200026994, 40.17711900033495], [-86.41789800013427, 40.17711900033495], [-86.4189569997682, 40.17710299988204], [-86.41990199959932, 40.177098999768226], [-86.42121300002664, 40.17709500034055], [-86.4221179996748, 40.17708700011174], [-86.4228650000375, 40.17707599979565], [-86.42375299996722, 40.17707399973797], [-86.42478499983697, 40.177056999931736], [-86.42653399993222, 40.17703900009188], [-86.42769300002358, 40.177027999768], [-86.42874499998484, 40.17702599970892], [-86.42883000037364, 40.17702599970892], [-86.42898699983417, 40.177024999679354], [-86.42966499970159, 40.17702400033609], [-86.42971300028047, 40.17702400033609], [-86.42995500012982, 40.177027999768], [-86.43004200016844, 40.17702899979753], [-86.43020200000203, 40.177031999885955], [-86.43030400010929, 40.17702400033609], [-86.43033099987345, 40.17701300000978], [-86.43048099966128, 40.17700899989066], [-86.43094000014389, 40.17700000030815], [-86.43109400012969, 40.17699800024823], [-86.43123499969668, 40.17699800024823], [-86.43129599979606, 40.17700299971153], [-86.43166099966903, 40.17700199968163], [-86.43180299995926, 40.17700199968163], [-86.43181600037805, 40.17700100033809], [-86.43456800003074, 40.17699200006814], [-86.44286900009294, 40.17696399990711], [-86.4456400000122, 40.17695599966286], [-86.44655899990406, 40.17695200022675], [-86.44932999982332, 40.176942999950306], [-86.45026399978377, 40.17694199991952], [-86.45375899960122, 40.17695899975456], [-86.46428099976177, 40.17701900018802], [-86.46778999982293, 40.177040000121245], [-86.4681349996044, 40.177047000326354], [-86.46835899991041, 40.17705299981521], [-86.46917800024315, 40.177060000018976], [-86.46952499967448, 40.17706300010609], [-86.46962900032985, 40.17706600019306], [-86.47013599959475, 40.17706800025096], [-86.47062900041256, 40.17707000030882], [-86.47196500005593, 40.177084000025694], [-86.47257500015128, 40.17709100022626], [-86.47546700044438, 40.177138000181436], [-86.4757450002787, 40.17714399966225], [-86.47689699979907, 40.17715700002266], [-86.47918800021762, 40.177180999995066], [-86.48039199961651, 40.17720599998596], [-86.48281699992937, 40.17724799973021], [-86.48414599990004, 40.17727199967045], [-86.48513299956396, 40.17729100016052], [-86.48628199960957, 40.17730599985729], [-86.48684300019946, 40.17730899993353], [-86.48703999984296, 40.17732000021185], [-86.49017300016047, 40.177323000287466], [-86.49280199978948, 40.177323000287466], [-86.49526100043752, 40.17732100023707], [-86.49741600041364, 40.1773250003378], [-86.49957899988735, 40.17733199982713], [-86.50247299983026, 40.17734400012666], [-86.50271600040281, 40.17734000002705], [-86.5027299997482, 40.17734000002705], [-86.5032720000715, 40.177342000076884], [-86.50494099980081, 40.17735000027563], [-86.50533099978816, 40.17735200032512], [-86.50549800019273, 40.17735799978706], [-86.50567700029288, 40.177354999712996], [-86.5059180003173, 40.17735299966355], [-86.50621399969499, 40.177347000201216], [-86.5063969999931, 40.17734800022603], [-86.50689499993545, 40.177354999712996], [-86.50726800020438, 40.17735799978706], [-86.50764099957496, 40.177360999860944], [-86.50833500023423, 40.17735999983631], [-86.50988900033579, 40.177376000228605], [-86.51076300002183, 40.17738799983398], [-86.51077600044061, 40.17738799983398], [-86.51094499959669, 40.1773899998824], [-86.51158700037742, 40.177392999954925], [-86.51258099971403, 40.177400000123555], [-86.51405899964763, 40.177416999843864], [-86.51457199965861, 40.17742299998637], [-86.51488300000322, 40.17742600005744], [-86.51600600010958, 40.17743700031684], [-86.51682000041946, 40.17743300022273], [-86.51745399990595, 40.17743600029333], [-86.51798399963538, 40.17743899967745], [-86.5196110004302, 40.17743899967745], [-86.52095799994423, 40.17744599984139], [-86.52251600024375, 40.17744799988805], [-86.52439400021044, 40.17746500028269], [-86.52516900016225, 40.17746999971158], [-86.52747700029923, 40.17748600007794], [-86.52772300034651, 40.177490000168895], [-86.52774300043801, 40.17749400025966], [-86.528032000143, 40.17749600030495], [-86.52890400017918, 40.17751199997881], [-86.52919600025723, 40.17751900013522], [-86.52920999960263, 40.17752000015751], [-86.53006099972242, 40.177530999715316], [-86.53207799960627, 40.17755400022005], [-86.53343599988925, 40.17757099990176], [-86.53507399965643, 40.17759199966415], [-86.53848300015846, 40.177645000081554], [-86.5399789996354, 40.17766499980092], [-86.54072500017318, 40.177671999941545], [-86.54189199976217, 40.1776850002008], [-86.5433799997415, 40.17770399988886], [-86.54360700042054, 40.177710000005945], [-86.54362999998676, 40.177710000005945], [-86.54391500039212, 40.17770499990837], [-86.54487699994166, 40.177713000064315], [-86.54554099956539, 40.177710000005945], [-86.54608999956139, 40.177708999986464], [-86.54846600036875, 40.177694999712166], [-86.54980200001212, 40.17769999981048], [-86.55134400041814, 40.17769399969246], [-86.5516869996515, 40.177692999672736], [-86.55212799969246, 40.17768900028007], [-86.55287300040536, 40.17769699975154], [-86.55327900028622, 40.177692999672736], [-86.55378700027434, 40.177692999672736], [-86.55452799989095, 40.177694999712166], [-86.5553139997134, 40.177692999672736], [-86.5554459999579, 40.177692999672736], [-86.55584400034115, 40.1777019998497], [-86.55708600027319, 40.177710000005945], [-86.55738099982597, 40.17773699984012], [-86.5579249997991, 40.1777399998973], [-86.55897099991256, 40.1777279996678], [-86.56122399979796, 40.17772000019999], [-86.56256000033963, 40.17772000019999], [-86.56352100006428, 40.177715000103156], [-86.56449199983467, 40.177715000103156], [-86.56641099980925, 40.177710000005945], [-86.56737800027999, 40.177710000005945], [-86.56774399997786, 40.177706999947446], [-86.56831200024045, 40.17769999981048], [-86.5700639998104, 40.17767800006151], [-86.57112099979453, 40.17767299996157], [-86.57205999977786, 40.17766999990144], [-86.57237399959722, 40.17766999990144], [-86.57314900044736, 40.17766399978076], [-86.57388400021618, 40.177662999760656], [-86.57613100025381, 40.177659999700076], [-86.57749700003441, 40.177654000264894], [-86.57931899992458, 40.17765200022425], [-86.57936499995533, 40.17765200022425], [-86.58014199955697, 40.177655000285185], [-86.58087899987395, 40.177654000264894], [-86.58105499960104, 40.177671999941545], [-86.58119100004348, 40.177700999830094], [-86.58138000018937, 40.17773599982103], [-86.5815590002895, 40.17776000027502], [-86.58184399979655, 40.177773999849585], [-86.58397299983338, 40.17777499986812], [-86.58473600008962, 40.17777599988663], [-86.59055099973962, 40.1777940002173], [-86.59212099973473, 40.17780499973068], [-86.59234000001783, 40.17780499973068], [-86.59370999999639, 40.177805999748756], [-86.5948930003772, 40.177807999784854], [-86.59512900037876, 40.177803999712594], [-86.59526999994576, 40.17780999982089], [-86.59611799969248, 40.17784099968553], [-86.59908100013068, 40.17795600023317], [-86.59961900025604, 40.17797699987647], [-86.60007100016763, 40.17799400013852], [-86.60181500024001, 40.178043000183756], [-86.60704900010697, 40.178193000144255], [-86.60867299963041, 40.178242000045785], [-86.60879200035443, 40.178241000034134], [-86.61064600003165, 40.17826100026419], [-86.61620799996166, 40.17831900021174], [-86.61820099955605, 40.17869699969657], [-86.61835000041728, 40.17858899976447], [-86.61846300039518, 40.17853500007717], [-86.6185760003731, 40.178489999732925], [-86.618653000366, 40.178489999732925], [-86.6187880000852, 40.178476000306084], [-86.61887799959858, 40.178476000306084], [-86.62037700034688, 40.17848099966053], [-86.62097200037363, 40.17848099966053], [-86.62125699988069, 40.17848499969283], [-86.62175399999813, 40.178492999756806], [-86.62176800024183, 40.178492999756806], [-86.62183799966373, 40.1784909997409], [-86.62209200010693, 40.178485999700875], [-86.62217699959743, 40.17848499969283], [-86.62528899999855, 40.17852500000324], [-86.62729699966157, 40.178534000069845], [-86.64265799967885, 40.17859699981619], [-86.6477800002911, 40.17861999995963], [-86.64792099985812, 40.17862900001358], [-86.64834799965537, 40.178665000217606], [-86.64849099977049, 40.17867800028661], [-86.65140200033015, 40.17871699979226], [-86.66013799968724, 40.17883400023373], [-86.6630500000718, 40.178874000338396], [-86.66378099964268, 40.17888399967453], [-86.66597400015193, 40.17891399973313], [-86.66670999974569, 40.17892399974973], [-86.66860399960588, 40.17893699976906], [-86.6743000003285, 40.17898199981685], [-86.67620000003647, 40.178999999827575], [-86.6765180000538, 40.17899099982284], [-86.67748499962623, 40.17896899980609], [-86.67756499999217, 40.17896699980422], [-86.67780699984151, 40.178960999798285], [-86.67786000044326, 40.17895999979724], [-86.67949700038552, 40.17893099976047], [-86.6834039999316, 40.1788650003169], [-86.68456999969567, 40.178840000250936], [-86.68475100034395, 40.1788370002424], [-86.68626100006459, 40.17882000019156], [-86.68816900016849, 40.178787000080646], [-86.69389500013003, 40.178689000343], [-86.69580400005884, 40.17865700017391], [-86.69580499988375, 40.17718300004959], [-86.69580999990663, 40.17275999965875], [-86.69581199955644, 40.17128699991328], [-86.69581300027967, 40.1697739998201], [-86.6958169995793, 40.16523700009241], [-86.69581900012746, 40.16372499991704], [-86.69581099973152, 40.162335999869995], [-86.6957870003404, 40.1581690001701], [-86.69577999976939, 40.156779999737296], [-86.69576999972365, 40.15646999968756], [-86.69576999972365, 40.155325999712176], [-86.69576999972365, 40.1552299997548], [-86.69574999963217, 40.152229999816406], [-86.69575800002808, 40.15096400028964], [-86.69575999967792, 40.150780000163415], [-86.69574999963217, 40.14955000024134], [-86.69574999963217, 40.14951000002066], [-86.69575999967792, 40.14914000012395], [-86.69575999967792, 40.147540000342886], [-86.69580300023392, 40.14644899968963], [-86.6957940000131, 40.14631099991006], [-86.69574299995948, 40.14531700030143], [-86.69586000013533, 40.14530000009528], [-86.69571000034752, 40.14416999975471], [-86.69570000030177, 40.14362000001982], [-86.69570000030177, 40.14360399991095], [-86.69570100012669, 40.14352700019258], [-86.69570100012669, 40.14344599966342], [-86.69570799979935, 40.14249899992717], [-86.69571000034752, 40.14231000026039], [-86.69572000039325, 40.14155000030726], [-86.69573999958641, 40.14091999972958], [-86.69573999958641, 40.13941599978052], [-86.69573999958641, 40.13929999996864], [-86.69574999963217, 40.13874999995298], [-86.69572000039325, 40.13839000031652], [-86.69573899976152, 40.13791300010947], [-86.69574999963217, 40.13763999969799], [-86.69573999958641, 40.13687999970122], [-86.69574799998233, 40.136483999880376], [-86.69575800002808, 40.136007999976016], [-86.69575999967792, 40.13591999977278], [-86.69575999967792, 40.13511900004305], [-86.69575999967792, 40.13475999967835], [-86.69576999972365, 40.13407000013533], [-86.69575999967792, 40.13376999994048], [-86.69574999963217, 40.13349000016632], [-86.69574999963217, 40.13345000010444], [-86.69574999963217, 40.13267999999019], [-86.69575300000521, 40.13245399983117], [-86.69575999967792, 40.13194000029384], [-86.69575999967792, 40.131566000121985], [-86.69575999967792, 40.13153099967921], [-86.69575999967792, 40.13142600030326], [-86.69575999967792, 40.13139199980334], [-86.69575999967792, 40.13059000024967], [-86.69576399987588, 40.13011600033922], [-86.69576999972365, 40.1296399997891], [-86.69573999958641, 40.12915999983544], [-86.69573999958641, 40.12820999999344], [-86.69573000043899, 40.12788000010071], [-86.69573000043899, 40.12719000008093], [-86.69574999963217, 40.12677000019347], [-86.69573999958641, 40.12629200007205], [-86.69573999958641, 40.12625999993234], [-86.69574999963217, 40.12537000014372], [-86.69574100030965, 40.12501699976474], [-86.69573000043899, 40.12456999982838], [-86.69574399978437, 40.12405500030701], [-86.69574999963217, 40.1238699999867], [-86.69573999958641, 40.12272999971318], [-86.69574999963217, 40.12165999967201], [-86.69574999963217, 40.12117100027005], [-86.69574999963217, 40.12021000015059], [-86.69575999967792, 40.11915000018324], [-86.69575700020317, 40.11875599981535], [-86.69573999958641, 40.11545999984085], [-86.69574700015743, 40.114393999805095], [-86.69574999963217, 40.11406999973107], [-86.69574999963217, 40.11294000014104], [-86.69573999958641, 40.11176000027023], [-86.69574200013456, 40.11147999983403], [-86.69574999963217, 40.11037999991621], [-86.69573999958641, 40.10893000032497], [-86.69573999958641, 40.10729000019632], [-86.6957379999366, 40.10709999980834], [-86.69573000043899, 40.105690000307916], [-86.69573000043899, 40.10563999987679], [-86.69573000043899, 40.1041909999736], [-86.69573000043899, 40.104089999890064], [-86.69572000039325, 40.10278999975585], [-86.69573000043899, 40.101620000109136], [-86.69571799984512, 40.09984799978188], [-86.69571000034752, 40.09840000001809], [-86.69572000039325, 40.098170000021426], [-86.69571600019529, 40.0977120000908], [-86.69571000034752, 40.09692999988082], [-86.69573000043899, 40.095769999686645], [-86.69572799989086, 40.09564799980254], [-86.69572000039325, 40.094960000225676], [-86.69573999958641, 40.09464999988316], [-86.69572000039325, 40.09401000016224], [-86.69573000043899, 40.09319000009936], [-86.69573000043899, 40.0929959999349], [-86.69573000043899, 40.09194000016038], [-86.69574999963217, 40.09097999995429], [-86.69574999963217, 40.08931000032533], [-86.69576999972365, 40.088300000020126], [-86.69576999972365, 40.087570000193], [-86.69576200022604, 40.08710399988121], [-86.69574999963217, 40.08637000032716], [-86.69575999967792, 40.08514099970446], [-86.69575999967792, 40.08487999990298], [-86.69575999967792, 40.08410000006249], [-86.69575999967792, 40.08383999973345], [-86.69575999967792, 40.0835950002462], [-86.69575999967792, 40.08309999981223], [-86.6957520001803, 40.082863000054935], [-86.69574999963217, 40.082780000011525], [-86.69575999967792, 40.08261999989081], [-86.6957520001803, 40.08220900013395], [-86.69574999963217, 40.08208000031578], [-86.69575999967792, 40.081209999666925], [-86.69575999967792, 40.0809789999306], [-86.69575999967792, 40.08081999977279], [-86.69573999958641, 40.08067999995328], [-86.69563599982935, 40.08064500012524], [-86.69564900024814, 40.07725899976952], [-86.69569000025602, 40.06710200001622], [-86.6957039996014, 40.06371699967623], [-86.69570799979935, 40.062677999750505], [-86.69572000039325, 40.059562999864696], [-86.6957239996929, 40.05866399983376], [-86.6957379999366, 40.0585259999567], [-86.69574100030965, 40.05849200014338], [-86.69574899980725, 40.0583920000279], [-86.69575300000521, 40.05835899986128], [-86.69578999981513, 40.058310000126184], [-86.69580200040902, 40.05810799977968], [-86.69580999990663, 40.05799000003542], [-86.69580599970867, 40.05782500013199], [-86.69579300018817, 40.057320000049245], [-86.6957870003404, 40.05705799976946], [-86.69577999976939, 40.056790000062904], [-86.69578200031752, 40.05659300009652], [-86.69578999981513, 40.05606000002705], [-86.69577499974653, 40.055198999676996], [-86.69576999972365, 40.05487999986897], [-86.69574999963217, 40.05484000033297], [-86.69575999967792, 40.05473999967139], [-86.69577399992161, 40.05323199995837], [-86.6957940000131, 40.05116800028039], [-86.6958169995793, 40.04870999974733], [-86.69583199964792, 40.04720299990116], [-86.69582999999811, 40.0458540001673], [-86.69582400015032, 40.04180800030634], [-86.69582199960219, 40.0404599997054], [-86.69582099977728, 40.0403570000211], [-86.69582099977728, 40.04005099998128], [-86.69582099977728, 40.039948999662826], [-86.6958169995793, 40.03697800004487], [-86.69581099973152, 40.031771000022985], [-86.69580599970867, 40.0280680002316], [-86.69580200040902, 40.025099000026536], [-86.69579800021106, 40.023020000227746], [-86.6957870003404, 40.01678699971052], [-86.69578399996735, 40.014709000176026], [-86.69578300014244, 40.01388300023464], [-86.6957809995943, 40.01140600000176], [-86.6957809995943, 40.010580999718115], [-86.69566299959352, 40.007634999774126], [-86.695357999995, 40.000003000309576], [-86.69541999991928, 39.99879900006166], [-86.69557399990506, 39.995856000077254], [-86.69553299989718, 39.993914000148514], [-86.69540999987355, 39.988091000260304], [-86.69536999969057, 39.98614999988073], [-86.69536899986566, 39.98610799978527], [-86.69536600039092, 39.98598300011863], [-86.69536600039092, 39.9859420000074], [-86.69534700012436, 39.98500600031189], [-86.69529199987277, 39.98219900014059], [-86.6952740003294, 39.98126400025744], [-86.69526099991063, 39.979804000030164], [-86.69522199955256, 39.97542599990079], [-86.695209999857, 39.97396699980381], [-86.69520800020717, 39.9736590002639], [-86.69511699997058, 39.968638000018935], [-86.69508400035862, 39.966780000129106], [-86.69512000034364, 39.96497399984507], [-86.69512399964327, 39.96475900020703], [-86.69529900044377, 39.95580400021985], [-86.69532799985778, 39.95572399993715], [-86.6953449995762, 39.95567599999803], [-86.69534299992638, 39.95564900014662], [-86.6953439997513, 39.95560100015485], [-86.69534100027656, 39.955588000136935], [-86.69533799990351, 39.955566999996854], [-86.69533899972842, 39.95554800022525], [-86.69533999955334, 39.95553399966535], [-86.6953360002537, 39.95549500025458], [-86.69532799985778, 39.955429000194734], [-86.6953239996598, 39.95539000003552], [-86.69533000040592, 39.95532100033497], [-86.69535100032232, 39.955118000213524], [-86.695357999995, 39.95505000008899], [-86.69536100036805, 39.955012000253255], [-86.69520300018429, 39.952413999943396], [-86.6952020003594, 39.952353999692775], [-86.69516700019929, 39.94921400012503], [-86.69516499965114, 39.948040000063045], [-86.69516200017642, 39.944519000206064], [-86.6951610003515, 39.9433460001735], [-86.69515899980337, 39.942162000266265], [-86.69515600032865, 39.93861199970724], [-86.6951549996054, 39.937428999956204], [-86.6951400004351, 39.93460099979305], [-86.69509900042723, 39.926543999772], [-86.69509600005418, 39.92611799972697], [-86.69508199981048, 39.92329100030461], [-86.69508299963539, 39.92318600026151], [-86.69508699983334, 39.92287200017571], [-86.69508799965826, 39.92283500001151], [-86.69507099993983, 39.92276999976774], [-86.69488099996903, 39.92276999976774], [-86.69457999967014, 39.92276999976774], [-86.69431000023172, 39.92278000023322], [-86.69412199991075, 39.92278000023322], [-86.69326999996603, 39.92278000023322], [-86.69168999992522, 39.92276999976774], [-86.6914990001295, 39.92277100008992], [-86.69032999999239, 39.92278000023322], [-86.68846999956905, 39.92278000023322], [-86.68695999984841, 39.922790000008284], [-86.68569000032727, 39.922790000008284], [-86.68416999966259, 39.92278000023322], [-86.68363200043555, 39.92278000023322], [-86.68276000039937, 39.92278000023322], [-86.68157000034587, 39.9227999997819], [-86.68100999958091, 39.922790000008284], [-86.68054599997372, 39.922790000008284], [-86.67980000033423, 39.922790000008284], [-86.67925999966074, 39.92278000023322], [-86.6791579995535, 39.92278000023322], [-86.67898000017657, 39.92278000023322], [-86.67883000038874, 39.92278000023322], [-86.67869499977121, 39.922780999866305], [-86.6782210001183, 39.92278400014342], [-86.67751999978633, 39.922790000008284], [-86.67690999969096, 39.922790000008284], [-86.67680199973594, 39.92279100033018], [-86.67632999973281, 39.9227999997819], [-86.6753000004112, 39.92281000024299], [-86.6741599996881, 39.92282999978297], [-86.6739489998009, 39.92283199973662], [-86.67317999969688, 39.92284000023969], [-86.67244999995093, 39.92284000023969], [-86.67098999956067, 39.92287000022318], [-86.67039999955679, 39.92287000022318], [-86.66998000033054, 39.92288999974563], [-86.66873000000257, 39.92291999970721], [-86.66717000005322, 39.922930000150785], [-86.66680799965498, 39.9229370003226], [-86.66567000037831, 39.92296000009484], [-86.66447000027907, 39.922980000279885], [-86.66442800044628, 39.92298099991011], [-86.66312000039201, 39.92299999977021], [-86.66298800014752, 39.92300100008903], [-86.66230000023435, 39.92301000020209], [-86.66098999963194, 39.9230400001111], [-86.65981999966992, 39.923060000272784], [-86.65866899997447, 39.92307500021798], [-86.6583400000865, 39.923079999739734], [-86.65723000039894, 39.92309000015993], [-86.65630999978387, 39.92309000015993], [-86.65580000014593, 39.923079999739734], [-86.65563500028948, 39.92307700016452], [-86.65331999958148, 39.9230400001111], [-86.65216999971096, 39.92301000020209], [-86.65102999988616, 39.92299999977021], [-86.65085300033417, 39.92299599987262], [-86.64952000016552, 39.92296999984363], [-86.64925999987453, 39.922967999894006], [-86.64821999960884, 39.92296000009484], [-86.64723499959476, 39.9229430001741], [-86.64639000022106, 39.922930000150785], [-86.64519000012181, 39.92290000019358], [-86.64355999985226, 39.922879999985106], [-86.64178999984063, 39.922850000005994], [-86.64116399985173, 39.92283899991852], [-86.63998999969175, 39.922820000013736], [-86.63914000029519, 39.92281200019728], [-86.63905499990638, 39.9228109998757], [-86.63879999963825, 39.9228080002887], [-86.63871599997265, 39.9228080002887], [-86.63863300013199, 39.922806999967065], [-86.63856199998688, 39.922806000334354], [-86.63838500043487, 39.92280399969095], [-86.6383030004191, 39.92280399969095], [-86.63788999996721, 39.9227999997819], [-86.63749900015497, 39.92280300005819], [-86.63660200000443, 39.92281000024299], [-86.63603000044222, 39.9227999997819], [-86.63508999973565, 39.9227999997819], [-86.63441199986823, 39.9227999997819], [-86.63428700019475, 39.9227999997819], [-86.63417699969158, 39.9227999997819], [-86.63384899962851, 39.9227999997819], [-86.63373999984857, 39.9227999997819], [-86.63357499999215, 39.9227999997819], [-86.63308000042282, 39.9227999997819], [-86.63291600039129, 39.9227999997819], [-86.6326140002675, 39.9227999997819], [-86.63224600002145, 39.9227999997819], [-86.63207000029436, 39.9227999997819], [-86.63171100026916, 39.92280500001263], [-86.63140999997027, 39.92281000024299], [-86.6313129998859, 39.9228129998299], [-86.63112999958781, 39.922820000013736], [-86.63108399955705, 39.922808999921386], [-86.63101300031026, 39.922814000151455], [-86.63080499989779, 39.92282199996768], [-86.63058599961468, 39.922825000243], [-86.63028000019123, 39.92282999978297], [-86.62999999980876, 39.922820000013736], [-86.62954000039953, 39.922820000013736], [-86.6293200002915, 39.92281000024299], [-86.62900399992401, 39.92281499978411], [-86.62898700020557, 39.92281499978411], [-86.62879600040986, 39.922806000334354], [-86.62857700012675, 39.922795999872676], [-86.62834899962279, 39.92278499977646], [-86.62818999961414, 39.92277800027804], [-86.62817700009366, 39.92277800027804], [-86.6281389995605, 39.92277800027804], [-86.62812699986495, 39.92277800027804], [-86.6280590000929, 39.92277800027804], [-86.62785599970329, 39.92277800027804], [-86.62778899975615, 39.922778999911166], [-86.62773900042575, 39.922778999911166], [-86.62759200011266, 39.922778999911166], [-86.62754299970887, 39.92278000023322], [-86.62728400014107, 39.92277600032276], [-86.62651000001418, 39.92276399990113], [-86.62625200027132, 39.922761000312065], [-86.62600200002606, 39.922761999945436], [-86.62525200018862, 39.9227650002234], [-86.62500299976827, 39.92276700017894], [-86.62437599995447, 39.9227650002234], [-86.62314099969514, 39.922761000312065], [-86.6224979999878, 39.92275899966741], [-86.6218719999989, 39.92275699971157], [-86.6217160003633, 39.92275800003399], [-86.62124699983491, 39.92276399990113], [-86.62109200002422, 39.92276700017894], [-86.61947799964821, 39.92265099990352], [-86.61942699959457, 39.92264699998553], [-86.61921999990534, 39.92263900014886], [-86.61912000034621, 39.92262899966279], [-86.61893000037543, 39.92264899994453], [-86.61878700026028, 39.92267900001176], [-86.61869000017592, 39.92269999991317], [-86.61854399968773, 39.92269999991317], [-86.61834200002136, 39.92269999991317], [-86.61813000030925, 39.92269999991317], [-86.6179930000419, 39.92269799995566], [-86.6165429996974, 39.92268600020925], [-86.61603999973217, 39.9226820002933], [-86.6156899999278, 39.92268000033527], [-86.6156060002622, 39.92268000033527], [-86.61480799984585, 39.92267900001176], [-86.61377799962592, 39.922688999801586], [-86.61291900000855, 39.922709000065794], [-86.61282399957399, 39.922712999980156], [-86.61228200014898, 39.92272900032416], [-86.61225000036194, 39.92272999995805], [-86.61198199967501, 39.92273700015032], [-86.6103530001287, 39.92271499993722], [-86.60704400008409, 39.92270799974271], [-86.6003289999105, 39.92269999991317], [-86.59949000038459, 39.92268000033527], [-86.5991599997734, 39.92268000033527], [-86.59825000010237, 39.92268000033527], [-86.59806599997937, 39.9226820002933], [-86.59762800031146, 39.922684999885824], [-86.59631699988412, 39.92269599999804], [-86.59588000004112, 39.92269999991317], [-86.59538999959635, 39.92269999991317], [-86.59511000011219, 39.92269999991317], [-86.5941400001667, 39.92272000017416], [-86.59392400025664, 39.922716999894284], [-86.59343499963678, 39.922712999980156], [-86.59309999990103, 39.922709999699926], [-86.59228899996421, 39.922718999851234], [-86.59220000027574, 39.92272000017416], [-86.58974999984855, 39.92272000017416], [-86.58885100004817, 39.92273100028081], [-86.58820999999068, 39.922739999740436], [-86.58770600020053, 39.922733999871134], [-86.5876340002305, 39.92273300023736], [-86.58742099979516, 39.92272999995805], [-86.58734999965006, 39.92272999995805], [-86.58713000044034, 39.922739999740436], [-86.58631000028268, 39.922750000210286], [-86.58469000005887, 39.922750000210286], [-86.58432000016303, 39.922750000210286], [-86.58366599968672, 39.92275800003399], [-86.58319000038396, 39.92276900013448], [-86.58158400040386, 39.922820000013736], [-86.58138199983918, 39.92281600010563], [-86.58127999973193, 39.92281200019728], [-86.57615700019306, 39.92269200008275], [-86.56261899989087, 39.922731999914625], [-86.55883700001826, 39.92274400034187], [-86.5474910004004, 39.922778999911166], [-86.54371000035269, 39.92279199996316], [-86.54182900001298, 39.92279799982731], [-86.53618900026517, 39.92281600010563], [-86.53497999994508, 39.922820000013736], [-86.53430899975035, 39.92282199996768], [-86.5334469997599, 39.92282399992162], [-86.53086099978859, 39.92283100010428], [-86.52999999962304, 39.92283399969027], [-86.52711300025116, 39.922842999825285], [-86.51845200033883, 39.92287200017571], [-86.51556599989354, 39.9228830002579], [-86.51374599965318, 39.92288799979362], [-86.50828699965534, 39.92290499972806], [-86.50706099961681, 39.92290900031987], [-86.50683700020915, 39.92290999995112], [-86.50661299990315, 39.922911000271256], [-86.5064680001382, 39.922911000271256], [-86.50638000027466, 39.922911000271256], [-86.50611499996079, 39.922911000271256], [-86.50602799992215, 39.92291199990244], [-86.50414099973466, 39.92291700012499], [-86.50000800023275, 39.92292800019994], [-86.49848500009332, 39.922861000091714], [-86.49660100027887, 39.922778999911166], [-86.49496400033661, 39.92278299982144], [-86.49005599998459, 39.92279700019447], [-86.48841999986725, 39.92280199973648], [-86.48816600032234, 39.92280199973648], [-86.48740600043915, 39.92280500001263], [-86.48715299982085, 39.922806999967065], [-86.4861929999211, 39.9228080002887], [-86.48331599969666, 39.9228129998299], [-86.48235699962183, 39.92281600010563], [-86.48051299999035, 39.92280199973648], [-86.47498299984738, 39.922763000267736], [-86.47314000004081, 39.922750000210286], [-86.47294000002427, 39.922756000078124], [-86.47281000032794, 39.922759999989744], [-86.47233999997465, 39.92276700017894], [-86.4721399999581, 39.92276999976774], [-86.47149999972551, 39.92278000023322], [-86.4713220003486, 39.92277800027804], [-86.46972999971386, 39.92276999976774], [-86.46886799972343, 39.92276999976774], [-86.4688500001801, 39.92276999976774], [-86.46867000025503, 39.92278000023322], [-86.46855999975186, 39.922820000013736], [-86.468450000147, 39.92290000019358], [-86.46833999964383, 39.9230499998482], [-86.46817300013755, 39.92311699977149], [-86.4681399996273, 39.923129999759304], [-86.46726900031432, 39.923129999759304], [-86.46700999984824, 39.923129999759304], [-86.46657999967793, 39.9231400001722], [-86.4664859999666, 39.9231400001722], [-86.46543999985315, 39.9231400001722], [-86.4650499998658, 39.92316000030467], [-86.46469000001568, 39.92316000030467], [-86.4640299996916, 39.92317000002425], [-86.46324999971694, 39.92317000002425], [-86.46214000002938, 39.9231999998632], [-86.46156000007123, 39.9231999998632], [-86.46142000032916, 39.9232010001791], [-86.46096400021958, 39.92320500006472], [-86.46049999971406, 39.923210000265875], [-86.45973200033328, 39.923210000265875], [-86.45965500034038, 39.923210000265875], [-86.4594260000115, 39.923210000265875], [-86.45934999984352, 39.923210000265875], [-86.45745000013555, 39.923231000004414], [-86.4549400003322, 39.92326000019051], [-86.45370000004999, 39.92326999989548], [-86.45174900028837, 39.923277999658424], [-86.45143000044615, 39.923280000287924], [-86.45025999958581, 39.92328999999003], [-86.4498500004053, 39.92329700012504], [-86.44905000033914, 39.92331000007868], [-86.44818999999853, 39.92331999977635], [-86.44735999979513, 39.92331999977635], [-86.44605299956577, 39.92332600028317], [-86.44537999972121, 39.9233300001615], [-86.44315000030035, 39.923350000238464], [-86.44191000001813, 39.92337000030959], [-86.44005999964054, 39.9233799999985], [-86.43664000016618, 39.923409999745445], [-86.43466500011512, 39.92343899985571], [-86.43460999986353, 39.923440000168114], [-86.43355999955213, 39.923460000212955], [-86.43223999980226, 39.923460000212955], [-86.43124999976531, 39.92348000025195], [-86.43101999961154, 39.92348999992479], [-86.43086999982371, 39.92348999992479], [-86.43050599977563, 39.923522999868226], [-86.42941600017956, 39.92362400022254], [-86.4290529999564, 39.92365799972167], [-86.42564000015473, 39.9236710002957], [-86.4154019996763, 39.92371100024459], [-86.41198999969953, 39.92372499973894], [-86.4114599999701, 39.92372600004717], [-86.40987200043166, 39.92373100021027], [-86.40934299962883, 39.923733000137645], [-86.40701600012359, 39.92374000022737], [-86.40362800043627, 39.92375199978906], [-86.40343799956715, 39.923753000096895], [-86.40003599963615, 39.92376400003754], [-86.39985499988617, 39.92376499965631], [-86.39770999995581, 39.92377199974276], [-86.39679500026192, 39.9237739996689], [-86.39405100010684, 39.9237820000619], [-86.39313700023784, 39.92378599991357], [-86.39287899959668, 39.923787000220905], [-86.39144800041707, 39.92379100007229], [-86.39056499961191, 39.92379299999787], [-86.38638199988131, 39.923807999782476], [-86.38518699980492, 39.92381299993959], [-86.38469399988541, 39.92382000002119], [-86.38445799988388, 39.92382300025273], [-86.38374900005431, 39.92383299987553], [-86.38351399987768, 39.92383699972418], [-86.38061300026206, 39.92384599972735], [-86.37497599998899, 39.92386500003634], [-86.37190999961862, 39.923897999799024], [-86.36900999982795, 39.923929999929506], [-86.36890600007087, 39.92393199985103], [-86.36859399990134, 39.92393800030422], [-86.36849000014428, 39.92394000022555], [-86.36819700024131, 39.92394099984171], [-86.3680290000118, 39.92394099984171], [-86.36664800016261, 39.923942999762914], [-86.36618799985507, 39.92394400006795], [-86.36615100004514, 39.92394400006795], [-86.36609599979356, 39.923944999684096], [-86.36603999971706, 39.923944999684096], [-86.36600399973204, 39.923945999989115], [-86.36435300044441, 39.92396000012434], [-86.36221600001164, 39.92398000001728], [-86.35996200030134, 39.92399900028908]]]}, "properties": {"GEOID": "18011", "NAME": "Boone County", "BASENAME": "Boone", "STATE": "18", "COUNTY": "011", "AREALAND": "1095260019", "AREAWATER": "876741", "INTPTLAT": "+40.0508916", "INTPTLON": "-086.4690137"}}], "_auspice": {"source_url": "https://tigerweb.geo.census.gov/arcgis/rest/services/TIGERweb/State_County/MapServer/1/query?where=GEOID%3D%2718011%27&outFields=GEOID%2CNAME%2CBASENAME%2CSTATE%2CCOUNTY%2CAREALAND%2CAREAWATER%2CINTPTLAT%2CINTPTLON&returnGeometry=true&outSR=4326&f=geojson", "fetched_at": "2026-08-26T23:13:23.411095+00:00", "service": "Census TIGERweb State_County layer 1"}}