{"type": "FeatureCollection", "features": [{"type": "Feature", "geometry": {"type": "Polygon", "coordinates": [[[-91.71443800043784, 42.29654400032187], [-91.72793800020689, 42.296701999689255], [-91.72893599974145, 42.29671299976925], [-91.73204700031765, 42.29678700025734], [-91.74391400034241, 42.297084000012454], [-91.7502710003157, 42.29719500005802], [-91.75847100009558, 42.297424000198305], [-91.75939199963726, 42.29744200012179], [-91.77352099976825, 42.29770999970303], [-91.77696600025529, 42.29777999972318], [-91.77718200016535, 42.29778900029912], [-91.7772280001961, 42.297791000279275], [-91.77724499991454, 42.29779200026933], [-91.78598199999485, 42.29798600003335], [-91.78763499983063, 42.298024000191106], [-91.79306799988919, 42.29814599973835], [-91.79376699967301, 42.29816300013572], [-91.79428700025501, 42.29816300013572], [-91.79623299999376, 42.29822199983784], [-91.79938300002968, 42.29829899982761], [-91.80197599967373, 42.29836999983835], [-91.80500299968601, 42.29844499968782], [-91.807683000267, 42.298500999853836], [-91.81030600004824, 42.29854400025599], [-91.81134200011597, 42.298577000189326], [-91.8123029998406, 42.298597999715106], [-91.81245900037453, 42.29859899969234], [-91.81529600041603, 42.29867000002918], [-91.81933199983355, 42.29877000021818], [-91.82212200001939, 42.29883999972442], [-91.82414200027628, 42.29888999970378], [-91.82896400041456, 42.29901000028955], [-91.83108900025346, 42.29906300004358], [-91.83132199988196, 42.28903099969309], [-91.83138499963115, 42.28452900029689], [-91.8314519995783, 42.27932399971274], [-91.83149900033227, 42.27571800031554], [-91.83152699992137, 42.27352300032718], [-91.83157299995213, 42.269943999738686], [-91.83162900002861, 42.26781999996001], [-91.83173600015874, 42.263801999677405], [-91.83176399974784, 42.262751000023954], [-91.83199899992447, 42.25002999979867], [-91.83207500009246, 42.24459500032936], [-91.83208799961292, 42.24329900026189], [-91.8320990003819, 42.24170999967557], [-91.8321770001997, 42.2395459998396], [-91.83239399993468, 42.228177000284376], [-91.83242800026986, 42.224801000207805], [-91.8324020003306, 42.224716000329494], [-91.83240599963025, 42.224513000110036], [-91.83242200042208, 42.2235460000796], [-91.83242400007191, 42.22345199995889], [-91.83242400007191, 42.223429000325574], [-91.83242900009478, 42.223144999998105], [-91.83242999991968, 42.22306300008745], [-91.83245000001118, 42.22193599992845], [-91.83261300021779, 42.21203200006967], [-91.83282199955686, 42.20473599970706], [-91.832824000105, 42.2045279997741], [-91.83282900012786, 42.204359000031324], [-91.8328390001736, 42.20399399987519], [-91.8328459998463, 42.20374499996069], [-91.83286099991491, 42.20318899990733], [-91.83293299988495, 42.200994999872144], [-91.83294100028085, 42.20034700007489], [-91.83297600044095, 42.19871400011823], [-91.8330349999922, 42.19672399971764], [-91.8330779996499, 42.19426800028949], [-91.83314399977213, 42.19192399998917], [-91.83313299990148, 42.19110499973921], [-91.83327299964357, 42.18300000024238], [-91.83348899955364, 42.1769169999429], [-91.83349000027685, 42.176779000209216], [-91.8335000003226, 42.176498000254796], [-91.83350799982021, 42.17630400012625], [-91.83353200010964, 42.17571799978236], [-91.83364799956229, 42.172310999769955], [-91.83368600009544, 42.17149499974751], [-91.8336910001183, 42.17109000012303], [-91.83370000033914, 42.17070600008145], [-91.83375700024055, 42.16924599967699], [-91.8339150004243, 42.16288999996254], [-91.83395800008199, 42.161192000243226], [-91.83398099964822, 42.160351999827085], [-91.83403699972473, 42.15823000008661], [-91.83404599994554, 42.15739200007704], [-91.83407299970973, 42.15633799974461], [-91.83420599977912, 42.14495100019122], [-91.83422300039587, 42.14287699982018], [-91.83422500004569, 42.14257800031868], [-91.83422900024365, 42.142105000132794], [-91.834254000358, 42.139042999756605], [-91.83432100030515, 42.13552099970365], [-91.83452499962135, 42.12499500017786], [-91.83453200019237, 42.12460699997442], [-91.8345220001466, 42.12382700010306], [-91.83449200000939, 42.12185200020845], [-91.83447000026807, 42.11877000020607], [-91.8344500001766, 42.11584199993818], [-91.83441300036667, 42.10995500005523], [-91.83441800038955, 42.109276999729175], [-91.83454700026095, 42.10360899969042], [-91.83467000028463, 42.0983649997746], [-91.83473300003381, 42.09528099974323], [-91.83472600036112, 42.08799300018293], [-91.83474800010244, 42.08425099982326], [-91.83475700032325, 42.0832829997737], [-91.83471999961502, 42.08277299988758], [-91.83475800014817, 42.082488999763655], [-91.83475999979798, 42.08235599986015], [-91.8347609996229, 42.0823020000303], [-91.83477900006457, 42.08099000019056], [-91.83478400008744, 42.080370000106676], [-91.8347880002854, 42.07986999990638], [-91.83483500014106, 42.07388300024916], [-91.83489600024042, 42.06612799995585], [-91.83492399982953, 42.06416300003322], [-91.83494300009609, 42.06287699981446], [-91.83494999976878, 42.062405999682305], [-91.83505299970095, 42.05520700004527], [-91.83505400042418, 42.055095000164506], [-91.83507199996752, 42.05353800020743], [-91.83510200010475, 42.050942999949754], [-91.83514300011262, 42.04735300033324], [-91.83516700040208, 42.04526500007179], [-91.8351690000519, 42.045060000239936], [-91.83523799964888, 42.039014000306636], [-91.83526199993833, 42.03695400019708], [-91.83517099970173, 42.030632000112575], [-91.83515700035635, 42.02962999988724], [-91.83506699994466, 42.025736999869245], [-91.83498900012684, 42.02233499993173], [-91.83498699957872, 42.02223600004143], [-91.83493200022544, 42.01986400002564], [-91.83482199972225, 42.01507400025923], [-91.83472100033825, 42.010017999927655], [-91.83467500030748, 42.00773500021765], [-91.83452999964422, 42.00051400021375], [-91.83441099981853, 41.99548300020529], [-91.8344080003438, 41.99534900023412], [-91.83435499974203, 41.993129999915894], [-91.83435300009221, 41.99306399996669], [-91.83426500022867, 41.98933099970337], [-91.83419800028152, 41.986509000306484], [-91.83401099978545, 41.97859400002177], [-91.8337539998675, 41.96806799992629], [-91.83366699982886, 41.964503000037716], [-91.83366099998108, 41.96425300032281], [-91.83365400030839, 41.96400999980407], [-91.83345799959149, 41.95616199980096], [-91.83343199965222, 41.955093999735226], [-91.8332890004354, 41.9493730000281], [-91.83321400009234, 41.94637400031413], [-91.83319300017594, 41.94553700032454], [-91.83299499980922, 41.93894699999449], [-91.8329589998242, 41.93747099987653], [-91.83293299988495, 41.93643399994171], [-91.83292000036445, 41.93589799985956], [-91.83274100026432, 41.93095099999432], [-91.83267099994413, 41.92898900011507], [-91.83261599969254, 41.927260000156146], [-91.83255499959317, 41.92531100000559], [-91.83250699991258, 41.92350499991925], [-91.83243800031562, 41.92092000023328], [-91.83240800017838, 41.919218999839096], [-91.83239700030772, 41.91891200011185], [-91.8323320000104, 41.917099000072184], [-91.83233100018549, 41.91706100016475], [-91.83233000036057, 41.9170230002347], [-91.83223400010112, 41.91272800004501], [-91.83216200013109, 41.90953400024241], [-91.83211600010033, 41.90749800009341], [-91.83208900033615, 41.90675000022696], [-91.83208299959007, 41.90657900014931], [-91.83197100033537, 41.901883999817116], [-91.83182800022024, 41.89670500024596], [-91.83180999977859, 41.89568699998643], [-91.83180899995367, 41.895587000070954], [-91.83173199996078, 41.89119100018633], [-91.83172699993791, 41.89091799988852], [-91.83171600006725, 41.89040299998612], [-91.83170099999865, 41.8896900000383], [-91.83168900030307, 41.88805099998964], [-91.83168599993003, 41.88756399988885], [-91.83168400028019, 41.887269999751545], [-91.83167699970919, 41.88662300020966], [-91.83167300040954, 41.886263000189736], [-91.8316709998614, 41.88607499990065], [-91.83166699966344, 41.88569600020799], [-91.83166199964057, 41.8852419998787], [-91.83166099981567, 41.88518200016832], [-91.83165999999075, 41.885117999746406], [-91.83165800034094, 41.88492699993465], [-91.83165400014298, 41.88459999971929], [-91.83164599974705, 41.88387899974912], [-91.83164300027232, 41.88358099996013], [-91.8316420004474, 41.883508999766704], [-91.83164099972419, 41.88345100014643], [-91.83163900007435, 41.883266999711026], [-91.83163499987639, 41.88295399978852], [-91.83163200040167, 41.88262399990216], [-91.83162800020371, 41.882248000094535], [-91.8316199998078, 41.881576000064534], [-91.8316199998078, 41.88153300031867], [-91.8316199998078, 41.88150299973229], [-91.8316199998078, 41.88142999998542], [-91.83161800015797, 41.88067200009477], [-91.83161800015797, 41.88051399980214], [-91.83161800015797, 41.88017799991302], [-91.83160999976204, 41.87969099999519], [-91.83160999976204, 41.87942699998407], [-91.8315999997163, 41.87933300021843], [-91.83157799997501, 41.879123999881116], [-91.83157299995213, 41.878627999909746], [-91.83157100030229, 41.87841700007357], [-91.83157100030229, 41.877933999880035], [-91.83157100030229, 41.87729299981898], [-91.83156899975417, 41.87636600023436], [-91.8315649995562, 41.87610099989421], [-91.83156000043164, 41.87575599976107], [-91.83155600023369, 41.87553599999304], [-91.83155500040878, 41.87549400017621], [-91.83154700001285, 41.87500300006333], [-91.83153500031729, 41.87426300018183], [-91.83151799970052, 41.87318999995152], [-91.83150799965479, 41.87279599975599], [-91.83149900033227, 41.87197600032911], [-91.83149699978414, 41.87182899968538], [-91.8314790002408, 41.870172999944636], [-91.83147000001996, 41.86942000002939], [-91.831465999822, 41.869129999676396], [-91.831465999822, 41.869113999738566], [-91.83146099979913, 41.86857900026466], [-91.83145400012644, 41.86802800011749], [-91.83142099961616, 41.86502700028445], [-91.83140800009569, 41.86385000016556], [-91.83140399989772, 41.86353499980853], [-91.83139300002708, 41.86251899988654], [-91.83139200020214, 41.86245100011608], [-91.83137899978335, 41.86185099991235], [-91.83008199959976, 41.861846000282846], [-91.82989199962894, 41.8618439998957], [-91.82759000023805, 41.861849999718885], [-91.82710900001413, 41.86185300029928], [-91.8258269998991, 41.861860999839216], [-91.82459800038585, 41.861859000121584], [-91.82257800012896, 41.861862000032566], [-91.82164400016849, 41.86186799985402], [-91.81727800013978, 41.861870999764534], [-91.81700799980304, 41.86187499986804], [-91.81681299980936, 41.861870000240415], [-91.81642700002, 41.86188000016432], [-91.81557599990019, 41.86187199995772], [-91.81516499999645, 41.86187600006112], [-91.81498900026936, 41.86188099968828], [-91.81470899988689, 41.86187899997126], [-91.81409499959355, 41.86188300007428], [-91.81363199981129, 41.86188000016432], [-91.813309999596, 41.86187300015084], [-91.81303199976166, 41.86187700025424], [-91.81225299961189, 41.86187300015084], [-91.81059899995121, 41.86187600006112], [-91.80969299957982, 41.86187799977823], [-91.80871500013676, 41.8618910002795], [-91.80758700000752, 41.86189199980334], [-91.80695500017084, 41.861897000098274], [-91.80615000008181, 41.861895999905485], [-91.80578900040679, 41.86189899981474], [-91.80496099985322, 41.86189499971273], [-91.80277200044023, 41.86189400018893], [-91.80080099968885, 41.861904000109085], [-91.80005599987426, 41.861897000098274], [-91.79854100013074, 41.86190299991645], [-91.79739499955986, 41.86190100020012], [-91.79717000032726, 41.861904000109085], [-91.79658000032337, 41.86190100020012], [-91.79450700036305, 41.86190500030175], [-91.79364100017463, 41.86190000000744], [-91.79353200039469, 41.86189899981474], [-91.79240300044056, 41.86190299991645], [-91.79048000026805, 41.86189899981474], [-91.7890419996191, 41.86191299983519], [-91.78843999991965, 41.86190800021053], [-91.7879219998858, 41.86191200031173], [-91.78693600004681, 41.86191200031173], [-91.7852320001574, 41.86191200031173], [-91.78484800001783, 41.861908999734105], [-91.78433699965667, 41.861914000027724], [-91.76331099977722, 41.861932999667985], [-91.75539899987744, 41.86193699976762], [-91.74375500033376, 41.86197899979492], [-91.73682900027298, 41.86198400008306], [-91.73457899986232, 41.861978000272444], [-91.73397799998779, 41.86198500027444], [-91.73286300027736, 41.86199200027565], [-91.73073800043845, 41.86198699998814], [-91.72586100004858, 41.86199299979786], [-91.72479999986652, 41.861995999702565], [-91.72202200027456, 41.862002999702526], [-91.72120700013978, 41.8620079999888], [-91.71972099981026, 41.862016999700266], [-91.71451799990547, 41.862034999788385], [-91.70955400037526, 41.86202300017621], [-91.70650700027147, 41.86198299989163], [-91.70546799983073, 41.8619710002697], [-91.69990800044886, 41.861935000052355], [-91.6983140001643, 41.86192699985263], [-91.69675199966682, 41.86192600032934], [-91.6957230001701, 41.861909999926645], [-91.69543100009207, 41.86190599982532], [-91.69525600018989, 41.861907000017965], [-91.6947509996765, 41.86190599982532], [-91.69440900026805, 41.86190299991645], [-91.68973199989472, 41.86184699980739], [-91.67706800017683, 41.861709999907205], [-91.67671900019737, 41.86170500026663], [-91.67541699999089, 41.86169000000462], [-91.66946500007354, 41.861585000079124], [-91.66923900011773, 41.861580999957525], [-91.66907799956093, 41.861579000231124], [-91.66876299991667, 41.861580999957525], [-91.66823499983707, 41.86157099998687], [-91.6658360003618, 41.861529999890045], [-91.66564899986572, 41.86153699994108], [-91.664977999671, 41.86156399993955], [-91.66485999967021, 41.86156900026014], [-91.65607400008443, 41.86141499970677], [-91.65556600009631, 41.86140700011098], [-91.64634500031734, 41.86130800026382], [-91.6365989999335, 41.86122200023162], [-91.6363179997261, 41.86122100002832], [-91.63630400038073, 41.86121900029066], [-91.63597499959444, 41.86121100000136], [-91.6356830004147, 41.8612069998563], [-91.63435100007098, 41.861189999738954], [-91.63405899999293, 41.86117999970714], [-91.63318699995675, 41.861159000103555], [-91.63286999976434, 41.86114600012251], [-91.6325640003409, 41.861140999768836], [-91.63234500005778, 41.861137000288444], [-91.63069800006978, 41.861118999947536], [-91.6299380001866, 41.861117999742575], [-91.62709899959697, 41.8610829999195], [-91.62580300013657, 41.861075000282234], [-91.62332400029536, 41.86103800002327], [-91.61913700036678, 41.86100099974289], [-91.61753200021158, 41.860981000287644], [-91.61719099972974, 41.86098400023977], [-91.61151900019486, 41.86089799977182], [-91.6113740004299, 41.8608930000678], [-91.61057500018866, 41.860881999780936], [-91.60933599973136, 41.860850999996224], [-91.6087890002835, 41.86084200012064], [-91.60858300041916, 41.86084600028853], [-91.60820199975434, 41.8608330002438], [-91.60673899988937, 41.86082399969669], [-91.60621099980978, 41.860816000027015], [-91.60434899973662, 41.860800000015566], [-91.60404800033606, 41.860791000132814], [-91.60335000037715, 41.8607850002103], [-91.60316100023125, 41.8607799998284], [-91.60305599975096, 41.8607799998284], [-91.60231099993638, 41.86077600032544], [-91.60157899964229, 41.860766999770306], [-91.6014179999838, 41.86076099984549], [-91.6007640004058, 41.8607579998829], [-91.59789499967896, 41.860725999827025], [-91.59776699963244, 41.860725000284965], [-91.59747600027761, 41.860725000284965], [-91.59681199975557, 41.86070999979311], [-91.59576800019025, 41.86069799993228], [-91.59551499957195, 41.860690999789405], [-91.59417399990569, 41.86068000013679], [-91.5939839999349, 41.86067899992501], [-91.59218799998399, 41.86065500018947], [-91.59195899965513, 41.86065500018947], [-91.59172100000376, 41.86064900025414], [-91.59125800022149, 41.86064399986166], [-91.59074799968523, 41.86063199998844], [-91.58868499977062, 41.86061499971817], [-91.58849700034797, 41.86060999999203], [-91.58827999971467, 41.86061100020489], [-91.58805999960664, 41.86060400005249], [-91.58578099978197, 41.86058600023059], [-91.58534399993898, 41.860586999774775], [-91.58419499989334, 41.860579000075454], [-91.58302499993134, 41.86056400021835], [-91.58261099965455, 41.860554000088634], [-91.58024300014142, 41.86053800001164], [-91.57999700009414, 41.86053000030618], [-91.57973099995534, 41.860530999851235], [-91.57890900014789, 41.860536000252615], [-91.57875599998701, 41.86053500003858], [-91.57861000039712, 41.86053300027947], [-91.57826399989241, 41.86053000030618], [-91.57714400015911, 41.86052099971637], [-91.57667600035396, 41.860518999956824], [-91.57527200004021, 41.860486999781344], [-91.5750739996735, 41.860486999781344], [-91.57140099958082, 41.860449000304875], [-91.57087300039953, 41.860446999874014], [-91.57067400020792, 41.86044299968117], [-91.57064599972051, 41.86044299968117], [-91.56963999979003, 41.86043699972601], [-91.56946900008579, 41.86043900015717], [-91.56900999960317, 41.86043000022361], [-91.56559599997657, 41.86040299974631], [-91.56512899999635, 41.86040299974631], [-91.56307600012748, 41.86038600008422], [-91.56256599959123, 41.86038199988756], [-91.56150600013238, 41.86038300010404], [-91.55959600037866, 41.860365999767566], [-91.55937999957028, 41.860362999786446], [-91.5592399998282, 41.86036100002195], [-91.55887300030538, 41.860359000257404], [-91.55860399979356, 41.86035699982373], [-91.55839000043164, 41.860359000257404], [-91.55663799996334, 41.860337000167064], [-91.55645100036558, 41.86034199991455], [-91.55462899957709, 41.860324000018906], [-91.55423699993995, 41.86031500006915], [-91.5529389999314, 41.86031099986805], [-91.55235800014836, 41.860300000150126], [-91.5519039996886, 41.860303999682856], [-91.55140699957113, 41.8602940001815], [-91.5507999998488, 41.860292999963676], [-91.5505239996643, 41.86028599977646], [-91.54947799955083, 41.860276999821366], [-91.54914899966286, 41.86026900008326], [-91.54913100011952, 41.86026900008326], [-91.54815399960302, 41.860260999675106], [-91.54688200043208, 41.86026199989342], [-91.54628800023025, 41.860257000139676], [-91.54619199997076, 41.86025100016706], [-91.54490300018306, 41.86024399997525], [-91.54362299971788, 41.86023000025838], [-91.54057700033731, 41.86021200033121], [-91.54029799977975, 41.86021400010032], [-91.53775500036444, 41.860193999729866], [-91.53728400018623, 41.86018400021135], [-91.53695399957503, 41.86018499976187], [-91.53672900034246, 41.8601800000021], [-91.53606999984329, 41.86017599979256], [-91.53529400006657, 41.86016699982198], [-91.53508599965411, 41.86016800004181], [-91.53484399980478, 41.86016200006081], [-91.53470300023777, 41.86015600007928], [-91.53346100030573, 41.86015600007928], [-91.53186500037137, 41.86014100012295], [-91.53149299992738, 41.860139999902685], [-91.53128100021527, 41.860139999902685], [-91.53093499971054, 41.86013299969873], [-91.5307129999527, 41.860139999902685], [-91.53048600017198, 41.860136999910964], [-91.53046299970744, 41.860136999910964], [-91.53032100031554, 41.860141999674084], [-91.53028600015544, 41.860139999902685], [-91.52739399986235, 41.86012699971448], [-91.52699399982929, 41.860121999950174], [-91.52684099966841, 41.86012000017814], [-91.52627199958091, 41.86011700018548], [-91.52522800001559, 41.860111999751346], [-91.52414799956695, 41.860105999765075], [-91.52381100018137, 41.86010399999255], [-91.52337500016328, 41.860087999803], [-91.5231109996743, 41.86009000024509], [-91.52255199963258, 41.86008700025097], [-91.52227299997332, 41.86009000024509], [-91.52213700042921, 41.86008499980885], [-91.521193000423, 41.86008300003565], [-91.52042299959574, 41.86006999983581], [-91.51976499981978, 41.86006900028354], [-91.51826199977184, 41.860044000097346], [-91.51769000020961, 41.860056000080895], [-91.51719899993994, 41.86005000008937], [-91.51701300016711, 41.86006300029323], [-91.51662800020263, 41.86006099985036], [-91.51633899959933, 41.8600600002979], [-91.51592600004577, 41.8600549998593], [-91.51550000007342, 41.86005300008519], [-91.51547999998195, 41.86005000008937], [-91.51499399973511, 41.86002600011776], [-91.51470800040317, 41.86001599990392], [-91.51444700028726, 41.86001499968175], [-91.51392900025341, 41.860002999690494], [-91.51352199964931, 41.86000200013713], [-91.513287000371, 41.859996999694005], [-91.51227999971728, 41.86000699991082], [-91.51141199987904, 41.85999999969235], [-91.51104000033337, 41.86000200013713], [-91.51049100033737, 41.85999900013894], [-91.51008299990836, 41.85999000014345], [-91.50950499960004, 41.85998799969828], [-91.50925199988006, 41.859991999919544], [-91.50887600013642, 41.859988999920866], [-91.50849100017196, 41.859993999695575], [-91.50799599970433, 41.859990999697], [-91.50739900002775, 41.85998199970038], [-91.50666000006095, 41.85998799969828], [-91.50607599990487, 41.85997800014751], [-91.5048330001479, 41.85997299970255], [-91.50459399977329, 41.859963999703396], [-91.5042339999232, 41.85994299970047], [-91.50402800005887, 41.85994200014621], [-91.50361799998004, 41.859949999925234], [-91.50342600035943, 41.85994099992285], [-91.501931999634, 41.8599369996984], [-91.50171900009697, 41.85993900014516], [-91.49976999998518, 41.85992400013793], [-91.49843000014386, 41.859909000127175], [-91.4977299996368, 41.859909000127175], [-91.49642400013066, 41.859886999882015], [-91.49613399970242, 41.8598770003155], [-91.49333500019408, 41.85985099982946], [-91.49232699971546, 41.859858000064285], [-91.48986399976779, 41.85983500024567], [-91.4878949995645, 41.85981700020725], [-91.48717200038955, 41.85980999996793], [-91.48691299992345, 41.85980800018614], [-91.4867670003336, 41.859806999960725], [-91.48655200024844, 41.859806999960725], [-91.48586099996223, 41.85979799993821], [-91.48193599997445, 41.85976199983559], [-91.47459999983487, 41.85971399966718], [-91.4675259996361, 41.859669999704174], [-91.46349299969332, 41.85959399975756], [-91.4601069996558, 41.85963700021382], [-91.45775599986112, 41.85963199974215], [-91.45084999989182, 41.85960599982556], [-91.44410200010628, 41.85960599982556], [-91.443631999753, 41.85960700005412], [-91.43139300018257, 41.859611999858735], [-91.43132500041051, 41.859611999858735], [-91.4311200003711, 41.859611999858735], [-91.43086699975278, 41.85961100029926], [-91.43021200034988, 41.859611999858735], [-91.42555900026599, 41.859614000315666], [-91.42452999987098, 41.85961999967903], [-91.41351099959294, 41.859687999783915], [-91.41314499989505, 41.859687999783915], [-91.41264199992983, 41.85969300025121], [-91.4122269998281, 41.85969699982191], [-91.41210200015465, 41.85969800004905], [-91.41198800035183, 41.859701000061364], [-91.40683800015049, 41.85973299996117], [-91.40597000031227, 41.85973499974525], [-91.40513099988804, 41.859748000013205], [-91.40058699958408, 41.85979300014819], [-91.39967699991307, 41.859802000171406], [-91.39361399966764, 41.85986800030284], [-91.39310900005258, 41.85987199986259], [-91.38592600007384, 41.85995199970258], [-91.38577999958567, 41.85995199970258], [-91.38570500014092, 41.85995299992573], [-91.3854230001086, 41.85995400014891], [-91.38531400032866, 41.859954999702985], [-91.38522200026715, 41.859954999702985], [-91.3836630001427, 41.85996099970342], [-91.3830089996664, 41.85997200014871], [-91.38198500019257, 41.85997699992474], [-91.3817280002746, 41.85998199970038], [-91.3810510002321, 41.859981000146746], [-91.3800650003931, 41.859991999919544], [-91.37815399991614, 41.860002999690494], [-91.37686799960316, 41.86001499968175], [-91.37665699971598, 41.86001599990392], [-91.37526599982102, 41.86002499989575], [-91.37111499987745, 41.860044000097346], [-91.36954400005745, 41.86005000008937], [-91.36798800030606, 41.860065000067046], [-91.36767199993855, 41.86006399984565], [-91.36727500027852, 41.8600680000622], [-91.36622099976915, 41.86006900028354], [-91.36621999994425, 41.86027500005424], [-91.36620800024866, 41.86593100011869], [-91.36619700037804, 41.86959799976517], [-91.3661670002408, 41.87875499971623], [-91.3661670002408, 41.87892199968322], [-91.36616600041587, 41.87900600013447], [-91.36616600041587, 41.87907299976231], [-91.36616499969266, 41.87930200001634], [-91.36615700019506, 41.881261000104836], [-91.36612299985987, 41.889172000299986], [-91.36611899966191, 41.893896999883204], [-91.36613799992847, 41.90316799996176], [-91.36611700001208, 41.905698999864384], [-91.36606799960828, 41.91090000007103], [-91.36606699978336, 41.91095800017152], [-91.36606400030863, 41.91139299991348], [-91.36605799956253, 41.91204300012782], [-91.36605199971476, 41.912662999748875], [-91.36604900024001, 41.91293299982556], [-91.36604900024001, 41.91297900001196], [-91.36601400007991, 41.91677700014004], [-91.366013000255, 41.91686600028377], [-91.36601200043009, 41.917024000233134], [-91.36600599968398, 41.91827100014415], [-91.3659990000113, 41.91847400021744], [-91.36597800009491, 41.92599300030246], [-91.36597800009491, 41.92601999980161], [-91.36597700027, 41.92605900024614], [-91.36597399989695, 41.92699600026316], [-91.36597600044509, 41.927056999963355], [-91.36597100042219, 41.92818000023801], [-91.36596300002628, 41.931087000028214], [-91.36592899969109, 41.938102000049646], [-91.36587699981256, 41.9474100001029], [-91.36586699976682, 41.94809000027461], [-91.36580200036781, 41.9521969997463], [-91.36580700039067, 41.95413800004677], [-91.36580599966744, 41.95637900024005], [-91.36577999972819, 41.96182999993693], [-91.36577100040567, 41.96366900011091], [-91.36564500000898, 41.96921499969627], [-91.36567799962094, 41.97103000009119], [-91.36563800033628, 41.97269199990885], [-91.3655980001533, 41.97550000013599], [-91.36558499973451, 41.976410000071134], [-91.36547900032762, 41.98375599986602], [-91.36547900032762, 41.98376999988463], [-91.36534799990805, 41.99286699985302], [-91.36532600016675, 41.99468899997618], [-91.3652600000445, 42.00001900027999], [-91.36519100044752, 42.0055630000055], [-91.3651610003103, 42.00844100007964], [-91.36515700011233, 42.008785000026826], [-91.36515200008948, 42.00926899975975], [-91.36513700002087, 42.010665999678416], [-91.36512100012732, 42.01212899988783], [-91.36512000030243, 42.01225499984576], [-91.36511699992936, 42.01253600025142], [-91.36509199981502, 42.01488899978982], [-91.36508000011945, 42.01621999979046], [-91.36504099976138, 42.02008799967585], [-91.36503800028666, 42.02014399979878], [-91.36502900006582, 42.02026299989626], [-91.36500399995145, 42.022677999802056], [-91.36499999975351, 42.02300800010211], [-91.3649930000808, 42.02371300028308], [-91.36498899988285, 42.02404400020437], [-91.36498200021016, 42.024803000311984], [-91.36497999966203, 42.024960000043755], [-91.36493399963125, 42.02932000003457], [-91.36489699982134, 42.03165299972777], [-91.36487400025511, 42.03443400028725], [-91.36487300043022, 42.03452099998511], [-91.36487199970699, 42.03460999987491], [-91.36486199966124, 42.03615700008113], [-91.36487099988207, 42.03692199972954], [-91.36481200033086, 42.048816000280056], [-91.3648380002701, 42.04904800006912], [-91.3648440001179, 42.04912000019941], [-91.36485499998855, 42.04916299971945], [-91.36486199966124, 42.049786000204065], [-91.36485599981347, 42.05469799983016], [-91.36485099979059, 42.0581360000029], [-91.36482900004928, 42.06302700023597], [-91.36480399993492, 42.068256000318776], [-91.3648089999578, 42.07001899974302], [-91.36481099960761, 42.07009600009068], [-91.36480499975984, 42.070155999881166], [-91.36477999964548, 42.070529000107065], [-91.36480099956188, 42.072335999814335], [-91.36483599972198, 42.0732600001011], [-91.36485800036161, 42.07520299980308], [-91.36488500012578, 42.076699999740725], [-91.36489900036948, 42.077457000059056], [-91.36489799964626, 42.07825500023522], [-91.36489699982134, 42.078561000177714], [-91.364879000278, 42.08015300031297], [-91.3648370004452, 42.08275299993927], [-91.36486300038446, 42.08549900025846], [-91.36486800040734, 42.08576799999364], [-91.36487799955476, 42.08699999996645], [-91.36491000024013, 42.09224999988405], [-91.36492500030876, 42.092774000269166], [-91.36484199956975, 42.10023299980575], [-91.36480300011002, 42.10424399981091], [-91.36478999969121, 42.10547899993723], [-91.36477200014788, 42.10714900008667], [-91.36478200019361, 42.1124900000352], [-91.36478899986632, 42.113260999941055], [-91.36479700026223, 42.11547200019561], [-91.36479499971409, 42.115875000159726], [-91.36479999973696, 42.11662099995622], [-91.3648020002851, 42.117103999786835], [-91.36479999973696, 42.11718000011061], [-91.3648020002851, 42.117352000191254], [-91.36480300011002, 42.117486999710614], [-91.36480300011002, 42.117579999997055], [-91.36479800008713, 42.11773600012798], [-91.36481700035371, 42.12190599968075], [-91.36482800022436, 42.12539600009423], [-91.36485300033873, 42.13291999974666], [-91.3648590001865, 42.135020000063896], [-91.36486000001142, 42.13533399980039], [-91.3648590001865, 42.13693400006057], [-91.36484800031585, 42.137454999902374], [-91.36460800011635, 42.1515410003197], [-91.36446900019916, 42.16194799987301], [-91.36442900001619, 42.16389999994046], [-91.36441300012268, 42.16499400012736], [-91.36440899992472, 42.16561300023154], [-91.36439800005405, 42.16604800010287], [-91.36439200020628, 42.166639999924264], [-91.36436799991684, 42.16893799990047], [-91.36437200011478, 42.16944100017824], [-91.36431100001542, 42.17445899994993], [-91.36428799955088, 42.17581500015405], [-91.36428599990106, 42.17593200022607], [-91.36421499975596, 42.18015199998683], [-91.36420700025835, 42.18078900015363], [-91.36420600043343, 42.1809439998453], [-91.36420499971021, 42.181169000181825], [-91.36419300001465, 42.18251699972298], [-91.36419300001465, 42.182773000129814], [-91.36419399983956, 42.183917000057455], [-91.36417200009825, 42.18503099981569], [-91.36416500042556, 42.18611000016861], [-91.36413600011323, 42.18750000005938], [-91.3641400003112, 42.188359000257535], [-91.36412799971733, 42.18922900029706], [-91.36410000012823, 42.190324999745464], [-91.36409599993027, 42.1917250002234], [-91.36406900016608, 42.193559999973886], [-91.36406300031831, 42.19464099976066], [-91.36406300031831, 42.194715000279075], [-91.36401899993739, 42.20200599974989], [-91.36401200026468, 42.20485599989436], [-91.36398899980014, 42.2060159999351], [-91.36398700015033, 42.20612999967185], [-91.36397999957931, 42.206503000326464], [-91.36398499960218, 42.20794999974898], [-91.36395899966293, 42.20913200032651], [-91.36396899970866, 42.210205000153124], [-91.36393299972366, 42.213693000285225], [-91.36393199989874, 42.21379100026597], [-91.36390199976151, 42.21665800009632], [-91.36388900024103, 42.21783299988913], [-91.36389300043899, 42.219101999857564], [-91.36385699955568, 42.22072199991501], [-91.36384400003519, 42.223745000078594], [-91.36381200024813, 42.23095999974303], [-91.36381200024813, 42.23101899984505], [-91.363781000286, 42.235585000248484], [-91.36377399971498, 42.23656400033165], [-91.36376299984434, 42.23832899980709], [-91.36374000027813, 42.24166300018854], [-91.36376399966925, 42.24192899985181], [-91.36376899969211, 42.241975000259856], [-91.3637679998672, 42.24201200007223], [-91.36376899969211, 42.24226500023866], [-91.36374299975286, 42.24379600025653], [-91.36375600017165, 42.24555500001288], [-91.36374500030098, 42.24649900015298], [-91.36374299975286, 42.246674000328824], [-91.36374100010302, 42.246896999765895], [-91.36373199988219, 42.24772600007353], [-91.36367800035383, 42.25001200029321], [-91.36367699963063, 42.25009399977188], [-91.36367699963063, 42.25014800019749], [-91.3636549998893, 42.25290900009668], [-91.36365200041458, 42.2532750001484], [-91.3636470003917, 42.253797999960895], [-91.36362200027735, 42.256798000330896], [-91.36360800003364, 42.258510000317976], [-91.36360300001077, 42.2590650000143], [-91.36353699988852, 42.267000999988284], [-91.3635350002387, 42.267242999738436], [-91.36355199995714, 42.267477000107775], [-91.36345300022293, 42.278065000042574], [-91.36342399991062, 42.27891799971047], [-91.36341200021505, 42.279260000161045], [-91.36340600036728, 42.282054000066914], [-91.36336399963616, 42.286146000260054], [-91.36330300043511, 42.29240699970811], [-91.36329900023716, 42.29278299975095], [-91.36326300025215, 42.29644499993172], [-91.37733899978137, 42.29643099977002], [-91.37976599974404, 42.29642799973497], [-91.38325800008676, 42.29642499969978], [-91.39131300010166, 42.29638899993069], [-91.3979139995741, 42.296359000218175], [-91.40253300022113, 42.29636200025651], [-91.4075290004367, 42.296339999972034], [-91.42217800025138, 42.29627799979335], [-91.4262210002399, 42.29626900033039], [-91.42651199959472, 42.29626800031615], [-91.43186600001057, 42.296257000158434], [-91.44178899994641, 42.29623499983727], [-91.44572300015498, 42.296224999688725], [-91.44596500000434, 42.29622399967379], [-91.45113299974903, 42.296211000142584], [-91.46133600006736, 42.296185999758734], [-91.46642699981916, 42.29617900031393], [-91.4664770000479, 42.29617800029826], [-91.4687790003371, 42.29618099968079], [-91.47016600003408, 42.29616500009313], [-91.47109599979659, 42.29617000017235], [-91.4737920002711, 42.29617100018815], [-91.47520599973227, 42.29617000017235], [-91.47585799966042, 42.29616900015654], [-91.4760950003852, 42.29616800014072], [-91.47838000005765, 42.29616600010901], [-91.47915599983438, 42.29616500009313], [-91.47963700005832, 42.29616400007725], [-91.47999000023573, 42.29616400007725], [-91.49640400003918, 42.296182999712016], [-91.49694999966212, 42.2961839997276], [-91.49772399978902, 42.296182999712016], [-91.4979189997827, 42.296182999712016], [-91.49837300024245, 42.296181999696415], [-91.49948999960272, 42.2961879997898], [-91.5151970001247, 42.296261000215985], [-91.51572900040227, 42.29622999976317], [-91.51919800028045, 42.296219000263285], [-91.52896100038272, 42.296261000215985], [-91.529171000445, 42.29626400025899], [-91.53461000035136, 42.29628499989162], [-91.53579700003182, 42.29630200012697], [-91.5359490003678, 42.29630400015436], [-91.53885400018135, 42.29632699980031], [-91.54084599995083, 42.29632499977366], [-91.54094899988299, 42.29632399976031], [-91.54298400020852, 42.29630500016802], [-91.55836500031728, 42.296320999720116], [-91.56806499977203, 42.296349000089315], [-91.57303500004834, 42.29635200012813], [-91.57353700018868, 42.29635400015397], [-91.57815500011246, 42.29638099983159], [-91.57882200010923, 42.29638199984404], [-91.59698099980996, 42.29640800016206], [-91.60202700025424, 42.29641500024588], [-91.60729299990824, 42.29642200032887], [-91.60864799981819, 42.296423999688024], [-91.61456700012356, 42.296437999851236], [-91.6156190000848, 42.296439999874345], [-91.61593399972908, 42.29644099988585], [-91.61635600040178, 42.29644199989735], [-91.61764799966423, 42.296443999920285], [-91.63273900024309, 42.29648000032235], [-91.63611199986178, 42.2964869997337], [-91.63615700006763, 42.2964869997337], [-91.63772100021497, 42.296490999776644], [-91.64150599956228, 42.296487999744464], [-91.64687500004678, 42.29648399970132], [-91.64698499965162, 42.29648399970132], [-91.64892899974053, 42.2964829996905], [-91.6506939997293, 42.29648199967961], [-91.65081699975296, 42.29648199967961], [-91.6526010000083, 42.29648000032235], [-91.65420299979046, 42.296475000267755], [-91.65740999972779, 42.29647700028964], [-91.65853200000923, 42.296479000311464], [-91.65952200004621, 42.2964700002127], [-91.66041599982371, 42.296479000311464], [-91.66314900010813, 42.29649199978734], [-91.66445899981224, 42.296490999776644], [-91.66486300004327, 42.296488999755205], [-91.66539600014575, 42.296489999765924], [-91.66560600020803, 42.296489999765924], [-91.66636299971817, 42.296490999776644], [-91.67507800005716, 42.29650499992501], [-91.67605899987329, 42.29650599993549], [-91.6768840000538, 42.29650699994595], [-91.67716799973594, 42.29650799995639], [-91.67722399981244, 42.29650799995639], [-91.67728599973672, 42.29650799995639], [-91.67775899956473, 42.29650899996682], [-91.6788259995946, 42.296509999977225], [-91.6813549996645, 42.29651400001872], [-91.6826419998024, 42.29650799995639], [-91.68496199963495, 42.296510999987625], [-91.68512800021462, 42.296510999987625], [-91.68770099976716, 42.29651400001872], [-91.68848699958961, 42.2965150000291], [-91.69098300004758, 42.29651800006], [-91.69363400031624, 42.29652100009075], [-91.69422000012216, 42.29652200010098], [-91.69749900002954, 42.296526000141704], [-91.69966999989916, 42.29652400012137], [-91.69977500037946, 42.29652400012137], [-91.70236499965046, 42.29652200010098], [-91.7028960001031, 42.29652200010098], [-91.70309799976945, 42.29652200010098], [-91.70315999969375, 42.29652200010098], [-91.70421199965497, 42.29652100009075], [-91.70494099957604, 42.29652000008052], [-91.70498400013206, 42.29652000008052], [-91.70767100038573, 42.29653200020237], [-91.70854599989666, 42.29653300021241], [-91.71443800043784, 42.29654400032187]]]}, "properties": {"GEOID": "19113", "NAME": "Linn County", "BASENAME": "Linn", "STATE": "19", "COUNTY": "113", "AREALAND": "1857054772", "AREAWATER": "19828878", "INTPTLAT": "+42.0760741", "INTPTLON": "-091.5962062"}}], "_auspice": {"source_url": "https://tigerweb.geo.census.gov/arcgis/rest/services/TIGERweb/State_County/MapServer/1/query?where=GEOID%3D%2719113%27&outFields=GEOID%2CNAME%2CBASENAME%2CSTATE%2CCOUNTY%2CAREALAND%2CAREAWATER%2CINTPTLAT%2CINTPTLON&returnGeometry=true&outSR=4326&f=geojson", "fetched_at": "2026-08-26T23:13:23.772629+00:00", "service": "Census TIGERweb State_County layer 1"}}