{"type": "FeatureCollection", "features": [{"type": "Feature", "geometry": {"type": "Polygon", "coordinates": [[[-82.46276300030183, 40.24515200029921], [-82.47418400026275, 40.24571599992327], [-82.47642499955428, 40.24578099973229], [-82.47645600041473, 40.2457820001192], [-82.47727300019933, 40.24580999997511], [-82.47704600041861, 40.25083300014352], [-82.47704499969538, 40.25085500015261], [-82.47702399977898, 40.25132000029202], [-82.47700100021277, 40.25184600031266], [-82.47700000038786, 40.25186299987889], [-82.47699799983972, 40.251908000202164], [-82.47663100031691, 40.25888900025299], [-82.47666499975378, 40.25979099980967], [-82.47669200041628, 40.26050099966501], [-82.4766940000661, 40.26055099988569], [-82.47611400010796, 40.26470299996306], [-82.47819499956591, 40.26473499995808], [-82.47821899985536, 40.26473700017147], [-82.48496699964089, 40.265076999944554], [-82.4911839998721, 40.26539600008904], [-82.49134999955346, 40.265404000178606], [-82.49416599967857, 40.265524000037814], [-82.49822100026097, 40.2657259997427], [-82.49827899998729, 40.26572900001883], [-82.49839199996521, 40.265687000253884], [-82.49853599990524, 40.265685000068586], [-82.49947900008654, 40.265726999834776], [-82.49991099990667, 40.26574600021004], [-82.50018100024342, 40.26575699984763], [-82.50030000006909, 40.26576200030542], [-82.50031699978754, 40.2657629997115], [-82.5003360000541, 40.26576399980302], [-82.50040100035145, 40.265767000077425], [-82.50044200035933, 40.26576900026031], [-82.50069199970625, 40.26578200007665], [-82.50071699982064, 40.26578200007665], [-82.50352899974776, 40.265929999707936], [-82.50463199976264, 40.265990000225806], [-82.50465199985412, 40.26599100031393], [-82.50478300027369, 40.265994999980954], [-82.50479800034229, 40.26599600006901], [-82.50513899992583, 40.266008999841716], [-82.5051649998651, 40.26601100001744], [-82.5051849999566, 40.26601200010531], [-82.50541900030831, 40.26602200029741], [-82.50579400022704, 40.26602000012201], [-82.50642100004086, 40.266015999771035], [-82.50729599955177, 40.26611400007628], [-82.510218999807, 40.26625599984702], [-82.51030199964767, 40.26626100026794], [-82.51419400002345, 40.26645399978271], [-82.51432100024506, 40.266460000270214], [-82.51537099965816, 40.26651299975532], [-82.51540800036639, 40.266513999835716], [-82.5154219997118, 40.26651499991615], [-82.51546600009273, 40.2665170000769], [-82.51556800019996, 40.2665219997931], [-82.51562199972832, 40.26652500003388], [-82.51565900043657, 40.26652600011415], [-82.51675099968246, 40.26657399983555], [-82.5167799999948, 40.26657499991504], [-82.51909599962939, 40.2666969999087], [-82.51991900016006, 40.26673700026322], [-82.5199490002973, 40.26673800034035], [-82.52062200014186, 40.26677100013468], [-82.52143200025377, 40.26680299983686], [-82.52462199957436, 40.26695599966014], [-82.52469400044271, 40.266958999881666], [-82.52574100038107, 40.26701000020059], [-82.52631299994329, 40.26703700011189], [-82.5263410004307, 40.26703900025721], [-82.52638999993617, 40.26704099971701], [-82.52935900022216, 40.267183000283495], [-82.52942000032154, 40.267185999809556], [-82.52971800024736, 40.26720100017951], [-82.52974599983646, 40.26720200024978], [-82.53041600020627, 40.26722499980502], [-82.53045499966602, 40.26722599987488], [-82.53346400013497, 40.267374999841614], [-82.53557300008032, 40.26747499968124], [-82.53606199980186, 40.267505999670064], [-82.53610799983261, 40.26750999993291], [-82.53847600024406, 40.267617000022], [-82.54193400025159, 40.26779600029229], [-82.54195299961982, 40.26779999985254], [-82.54253099992815, 40.26783099969241], [-82.54467699968343, 40.2679249998717], [-82.54584400017072, 40.26797099985353], [-82.5459499995776, 40.267980999756006], [-82.54599599960835, 40.26798600004945], [-82.55151800025372, 40.268247999827594], [-82.55416299977627, 40.26839200002167], [-82.55424599961695, 40.26839700028472], [-82.55519999966891, 40.26845000030836], [-82.5553400003093, 40.26845800003679], [-82.55670899956462, 40.268545999728154], [-82.55731500036035, 40.26857499981171], [-82.55765900031695, 40.26859099992337], [-82.55769500030193, 40.26859300002273], [-82.55774499963236, 40.26859500012205], [-82.55778900001329, 40.268597000221305], [-82.55888399963223, 40.2686469999417], [-82.5589599998002, 40.26865000008828], [-82.56021500015103, 40.26870600005771], [-82.5606419999483, 40.26874199971989], [-82.56066700006267, 40.268743999814795], [-82.56125600024163, 40.2687660001694], [-82.56128899985357, 40.26876700021653], [-82.56204600026206, 40.268805999985794], [-82.56208100042215, 40.268808000078856], [-82.56374000010571, 40.26888300009699], [-82.56661099958409, 40.2690390001426], [-82.56810600013442, 40.269138000222135], [-82.56970500044184, 40.26920600027592], [-82.57131100042196, 40.26927200018211], [-82.57146500040773, 40.26929999991515], [-82.5715049996924, 40.269307000189336], [-82.57157900021055, 40.269339000062566], [-82.57180599999128, 40.269333999869154], [-82.57186500044082, 40.26933599994655], [-82.57266799998172, 40.2693560000319], [-82.57268100040051, 40.2693560000319], [-82.57381500037752, 40.26938499976811], [-82.57387099955571, 40.269386999843995], [-82.57388300014958, 40.269386999843995], [-82.57392300033256, 40.26938799988195], [-82.58037800021513, 40.26978500006109], [-82.5805170001323, 40.26976700016725], [-82.58110399976314, 40.26969499985868], [-82.58396699974392, 40.26981599967655], [-82.58572500006, 40.26994300014191], [-82.58573900030369, 40.26994400017158], [-82.5895570001613, 40.270170000336385], [-82.59124099995924, 40.270271000181026], [-82.59397500006857, 40.27035800023164], [-82.59583999961646, 40.27041700022593], [-82.59874000030544, 40.27053700010201], [-82.59883800021476, 40.270539000143835], [-82.59942400002065, 40.27056900007866], [-82.59937200014211, 40.27054400024811], [-82.6000890003676, 40.27058499971864], [-82.60358500000997, 40.27074900009377], [-82.60361000012432, 40.27075000011159], [-82.60367899972128, 40.27075400018258], [-82.60370800003362, 40.270756000217986], [-82.60382600003437, 40.27076300034142], [-82.60437900022835, 40.27079300017692], [-82.6048970002622, 40.27081599988186], [-82.6056920003055, 40.27086700003414], [-82.60770499999137, 40.27095500001821], [-82.61055499955336, 40.271095999894285], [-82.61064599978997, 40.2710999999448], [-82.61072899963062, 40.27110399999509], [-82.61075100027027, 40.27110500000761], [-82.61083900013381, 40.27111000007008], [-82.6109239996243, 40.27111400011977], [-82.61096899983015, 40.27111600014454], [-82.61533300020905, 40.27131500025632], [-82.61542199989749, 40.27131900029389], [-82.61749200038311, 40.27140399966565], [-82.6190690000509, 40.27146200011096], [-82.61958600025986, 40.27148100024605], [-82.62053000026606, 40.271531999896844], [-82.62222599975954, 40.27162299971574], [-82.62224800039917, 40.27162499972545], [-82.62236100037705, 40.2716359997778], [-82.62503299966379, 40.2717640002553], [-82.62594400005804, 40.271816999696654], [-82.62681799974406, 40.27184999975462], [-82.62745399977871, 40.27187399978664], [-82.62925999977534, 40.27196299983111], [-82.62983800008365, 40.271993999819095], [-82.63191299969382, 40.27208199970759], [-82.6319810003642, 40.27208499970174], [-82.6353949999908, 40.272240999901065], [-82.63548600022739, 40.27224499988386], [-82.63564400041113, 40.272251999853225], [-82.63670899989286, 40.272301000303706], [-82.63886499969388, 40.2724009997141], [-82.63890499987686, 40.27240299970085], [-82.63905499966467, 40.272410000339214], [-82.63909300019782, 40.27241200032565], [-82.639119999962, 40.27241300031882], [-82.6391540002972, 40.272414000312025], [-82.63918400043443, 40.272415000305166], [-82.6392329999399, 40.27241800028459], [-82.64039299985619, 40.27246499994458], [-82.64121499966366, 40.272509000282106], [-82.64129500002961, 40.272513000249056], [-82.64146999993179, 40.272521000182245], [-82.64151500013763, 40.2725230001654], [-82.64156700001615, 40.27252600013998], [-82.64244599972504, 40.27256599978884], [-82.6431820002171, 40.27260700008974], [-82.64420800023908, 40.27266400019927], [-82.64500900013014, 40.272682999996654], [-82.64552100031622, 40.27269499986592], [-82.64570899973889, 40.27269999981085], [-82.64592600037217, 40.27270499975535], [-82.64763699993428, 40.27276999968601], [-82.64912699956345, 40.2728480000687], [-82.65159399970908, 40.27293700020215], [-82.65238100025478, 40.2729709996985], [-82.65612200011951, 40.27313499977078], [-82.6561770003711, 40.273136999735776], [-82.65622400022676, 40.27313599975326], [-82.65634300005243, 40.27313499977078], [-82.65870899991575, 40.273241999870976], [-82.66203800005184, 40.27338799967053], [-82.66318500044763, 40.27344099989536], [-82.66377000042864, 40.2734610001375], [-82.6667749998013, 40.27359899965958], [-82.6672469998044, 40.273614999953466], [-82.6674009997902, 40.27361999983032], [-82.66776499983827, 40.27363400016901], [-82.66828500042027, 40.27365399966869], [-82.6702870002355, 40.27375799971328], [-82.67105899981425, 40.2737789998347], [-82.67140699996882, 40.273789000249224], [-82.671433999733, 40.273790000222036], [-82.67169800022195, 40.273798000004156], [-82.671730000009, 40.27379899997688], [-82.67178299971243, 40.273801999894864], [-82.6723080003173, 40.27382999980864], [-82.67237600008937, 40.27383199975308], [-82.67296100007039, 40.273845000075845], [-82.67299899970523, 40.273847000019835], [-82.67333099996624, 40.27386300025504], [-82.67351000006639, 40.273871000028535], [-82.673665999702, 40.27387799982959], [-82.67423700033761, 40.273903999769594], [-82.67485800030363, 40.27393300029716], [-82.67586099986107, 40.273980000275024], [-82.68667900029764, 40.274378000192385], [-82.68917999988015, 40.27448900023203], [-82.69076499994388, 40.274564000118644], [-82.69078099983739, 40.27456500007998], [-82.69768799963158, 40.274852999991275], [-82.70482999960244, 40.275124000160744], [-82.70485700026492, 40.27512500011386], [-82.70525200027514, 40.27513500032934], [-82.70618500041071, 40.27518500001377], [-82.70634799971901, 40.27519199967876], [-82.70645400002421, 40.275197000124436], [-82.70646999991774, 40.27519800007642], [-82.71259599991237, 40.275469000234004], [-82.717547999747, 40.275673000283575], [-82.71771500015157, 40.275679999898045], [-82.72144599997057, 40.27586700029728], [-82.73111100016354, 40.27624899972178], [-82.7316490002889, 40.27626999975499], [-82.73166400035751, 40.2762709996911], [-82.73183900025968, 40.276277999929036], [-82.7318750002447, 40.276278999865085], [-82.73191100022972, 40.276279999801126], [-82.73193399979593, 40.2762809997371], [-82.73195700026046, 40.276281999673095], [-82.7346699995551, 40.276389000276616], [-82.74701600015395, 40.276868999978284], [-82.74711099969021, 40.27687199976007], [-82.75074699997296, 40.27699600022023], [-82.75092799972292, 40.274629000318576], [-82.7509689997308, 40.274157000219276], [-82.75099300002026, 40.27379600005872], [-82.75105599976945, 40.27296599977367], [-82.7510730003862, 40.27284100016108], [-82.75108000005888, 40.27274799994847], [-82.7510879995565, 40.272636999792624], [-82.75119700023475, 40.27110299998252], [-82.75134299982462, 40.269207999671714], [-82.75142300019056, 40.268284999787696], [-82.75150600003123, 40.2672220002807], [-82.75152799977255, 40.266934000087666], [-82.7516159996361, 40.2658040000238], [-82.75174500040585, 40.264299000009515], [-82.7518209996755, 40.26329699984803], [-82.751840999767, 40.26311400017367], [-82.75184400014004, 40.26307899970381], [-82.751848000338, 40.26305799968745], [-82.75187900030015, 40.26259699987217], [-82.7519970003009, 40.261167000148625], [-82.75200899999649, 40.26109299996165], [-82.75202200041527, 40.26101099977105], [-82.7520180002173, 40.26080999986166], [-82.75203999995861, 40.26057300016307], [-82.75206099987501, 40.26022199983907], [-82.75210299970782, 40.25975400000206], [-82.75212799982216, 40.25938800018515], [-82.75213799986791, 40.25928200029174], [-82.75216299998226, 40.25900099985468], [-82.75218700027172, 40.25885600004119], [-82.75220499981506, 40.25875100019502], [-82.7522149998608, 40.25838400023605], [-82.75224400017314, 40.257931999915776], [-82.75225300039395, 40.257841000186865], [-82.75227900033323, 40.25756599984041], [-82.75231100012029, 40.257086999781414], [-82.75235399977797, 40.25655699982478], [-82.75239499978586, 40.25589699994774], [-82.75247199977875, 40.25497899999742], [-82.75258399993174, 40.25342300025264], [-82.75267500016834, 40.25233100013322], [-82.75275299998614, 40.251295000203626], [-82.75298399996483, 40.24821399975975], [-82.75304800043725, 40.24750199984217], [-82.75311799985913, 40.24681800010179], [-82.75313399975265, 40.24662599979831], [-82.75314999964618, 40.246450999875805], [-82.75315300001922, 40.246406999730084], [-82.75316700026293, 40.24624700014343], [-82.7531859996312, 40.24613299992434], [-82.75319400002711, 40.24589400015902], [-82.7532490002787, 40.24519199967847], [-82.75326699982205, 40.24490500004311], [-82.75329199993641, 40.244654000014414], [-82.75333799996716, 40.24419999973194], [-82.75335600040883, 40.24397199974951], [-82.75336499973133, 40.243864000247655], [-82.75341499996006, 40.24318899980024], [-82.75344500009727, 40.242987000007666], [-82.75345699979285, 40.24277399966853], [-82.75348600010517, 40.242500000242636], [-82.75351500041748, 40.24209800025406], [-82.75355700025028, 40.24141799982705], [-82.75356899994584, 40.2412829997868], [-82.75357700034176, 40.24108099979271], [-82.7536019995578, 40.240701000173395], [-82.75364599993873, 40.24014699981226], [-82.75373399980226, 40.23886199994847], [-82.75378300020607, 40.237974000018646], [-82.7538269996887, 40.2373830002781], [-82.75395100043558, 40.234949999807284], [-82.75406199986533, 40.23296300033678], [-82.7540860001548, 40.23257699967068], [-82.7541370002084, 40.23189000028987], [-82.75416599962242, 40.23141599981959], [-82.75419099973678, 40.23107100003466], [-82.75435200029357, 40.228873000317414], [-82.75439199957822, 40.22842299966376], [-82.75439800032431, 40.22836799991989], [-82.75443799960898, 40.227926999710405], [-82.75446699992129, 40.22765799971557], [-82.75447799979196, 40.22751399993708], [-82.75449200003565, 40.22739399988783], [-82.75452899984558, 40.22707700024976], [-82.75453999971623, 40.22682100006505], [-82.75457800024937, 40.226418000278706], [-82.75457700042448, 40.22638000007134], [-82.7546150000593, 40.22584099976167], [-82.75464299964838, 40.22543600031449], [-82.7546569998921, 40.225227000338386], [-82.75482199974853, 40.222870999713166], [-82.75498400013024, 40.22054999999311], [-82.75515200035974, 40.218147999761904], [-82.7552629997895, 40.21655700008824], [-82.75530200014755, 40.215988999854254], [-82.75551800005762, 40.21289499967525], [-82.75570999967826, 40.210153000180874], [-82.75571800007417, 40.21002300001886], [-82.7558200001814, 40.20857199984679], [-82.75585299979338, 40.20810000000795], [-82.75586700003709, 40.20789599999643], [-82.75593700035728, 40.206903000222006], [-82.75594300020508, 40.20681300009553], [-82.75594700040303, 40.20666500017659], [-82.75600099993139, 40.205931999819676], [-82.75601299962695, 40.205907999728275], [-82.75601400035018, 40.20588800010297], [-82.75601699982491, 40.205862999705474], [-82.75613900002364, 40.20429799969083], [-82.75623399955988, 40.20290800028699], [-82.75627299991794, 40.202489000334005], [-82.75631899994869, 40.201872999917526], [-82.75636699962926, 40.20132800010737], [-82.75639599994159, 40.20083099971934], [-82.75640400033751, 40.20072399971417], [-82.75640799963716, 40.200647000279226], [-82.75643699994947, 40.20017000033392], [-82.75647200010957, 40.19969600023573], [-82.75648299998024, 40.19957000007771], [-82.75649800004884, 40.19943199986466], [-82.75651200029253, 40.199234000112455], [-82.75652599963794, 40.19903500007698], [-82.75653400003385, 40.19892399978273], [-82.75668899984456, 40.196752999905996], [-82.75672400000464, 40.19630800010448], [-82.756749000119, 40.195981000253084], [-82.7567690002105, 40.19572299972328], [-82.75683399960951, 40.19463700023124], [-82.7569030001048, 40.193835000196], [-82.75692800021915, 40.19342300032832], [-82.75697800044786, 40.19273100018112], [-82.75699799964104, 40.19240100014114], [-82.75702199993049, 40.19199999975295], [-82.75707700018206, 40.19132199970626], [-82.7571369995582, 40.19046199977213], [-82.75716099984766, 40.189934000212425], [-82.75717900028934, 40.18965400002573], [-82.75722299977194, 40.18936099997747], [-82.7575080001773, 40.184545000239154], [-82.75751999987286, 40.184422999749295], [-82.75752700044387, 40.18432799968278], [-82.75752800026876, 40.18429400026961], [-82.75758099997223, 40.18335599996957], [-82.75759199984289, 40.183201000063704], [-82.75759500021591, 40.183155000129794], [-82.7576560003153, 40.182286000023154], [-82.75771900006448, 40.181393999884854], [-82.75782100017175, 40.17993400001013], [-82.75787700024824, 40.17936699969195], [-82.7579170004312, 40.17869699969657], [-82.75799299970087, 40.17772600031571], [-82.75807999973951, 40.17632400003745], [-82.75813800036414, 40.17551700010097], [-82.75814699968666, 40.17551099978992], [-82.75817900037202, 40.17512800011505], [-82.75839399955886, 40.17179400028422], [-82.75841000035071, 40.17153300008697], [-82.75847200027498, 40.170502999945505], [-82.75860500034437, 40.168838000212354], [-82.75876799965268, 40.16648900003633], [-82.75883700014796, 40.1655989999468], [-82.7589099999429, 40.164543000317586], [-82.7589169996156, 40.164357999697195], [-82.75894599992792, 40.16400600024542], [-82.75895199977569, 40.163931000073646], [-82.75895400032384, 40.163892000308614], [-82.75897400041532, 40.16345500026485], [-82.75898899958563, 40.16325300028051], [-82.75903100031674, 40.16269600029591], [-82.75907300014953, 40.16229800012175], [-82.7591429995714, 40.16129199999112], [-82.75918600012743, 40.16079300021673], [-82.75940100021258, 40.157964000004384], [-82.75940500041055, 40.15781900014974], [-82.75944700024334, 40.157358000041576], [-82.75950900016761, 40.156373000327], [-82.75953900030485, 40.15615899994534], [-82.75956699989393, 40.15569899989634], [-82.75970599981112, 40.15418700014617], [-82.7597629997125, 40.153388999941704], [-82.759782999804, 40.15310499984185], [-82.75987700041365, 40.151875000142155], [-82.76004800011788, 40.14963099967203], [-82.76010500001928, 40.148725000105685], [-82.76012699976057, 40.148492000036356], [-82.76023999973849, 40.14700000033913], [-82.76028599976925, 40.14654799976179], [-82.76031599990647, 40.146155999858195], [-82.76042800005946, 40.14471900002486], [-82.76048099976292, 40.143951000225265], [-82.76048199958782, 40.14390499978282], [-82.76051099990013, 40.14351000022519], [-82.76052299959571, 40.14334299983445], [-82.76052699979367, 40.14329000010166], [-82.76060899980943, 40.14234199971047], [-82.7606549998402, 40.14169400001147], [-82.76069300037334, 40.14116400031945], [-82.76085599968164, 40.13885999990025], [-82.76086999992535, 40.13874399982592], [-82.76090300043562, 40.13808499969478], [-82.76091799960591, 40.13806799973918], [-82.76105800024632, 40.13610400031748], [-82.76108199963745, 40.13583499999119], [-82.76109500005624, 40.13557700014837], [-82.7611839997447, 40.13433200009209], [-82.76122300010276, 40.13365900001351], [-82.76133000023287, 40.132063000343166], [-82.76142599959402, 40.13096899971687], [-82.76143200034012, 40.130832000111695], [-82.76142999979199, 40.13076299985003], [-82.7614580002794, 40.13049699975847], [-82.76163599965632, 40.128079000017586], [-82.76179800003803, 40.12597900003373], [-82.76178399979433, 40.12596399998694], [-82.76180899990868, 40.12589799987907], [-82.76182700035035, 40.12585499986798], [-82.76191100001593, 40.124622000310104], [-82.76199200020679, 40.123587000252776], [-82.76219999972092, 40.120771999766525], [-82.76288500015937, 40.11112500022466], [-82.76294100023586, 40.11033999999616], [-82.76344199965297, 40.102530999798574], [-82.763521000194, 40.10131700032631], [-82.76375399982251, 40.09770099997354], [-82.76376300004333, 40.09756099982507], [-82.76377100043926, 40.097528000081894], [-82.76377300008907, 40.09750599978611], [-82.76377599956382, 40.09742400024513], [-82.76378399995973, 40.09737300009535], [-82.76379400000549, 40.09726100000949], [-82.76380400005122, 40.09713999988132], [-82.7638169995717, 40.09700799999589], [-82.76383400018845, 40.09675600025328], [-82.76384099986113, 40.096502999736536], [-82.7638529995567, 40.096287000080146], [-82.76387000017345, 40.09600299978129], [-82.76387099999837, 40.09597199966727], [-82.76387400037143, 40.095934999756494], [-82.76387699984615, 40.09588300001503], [-82.76387900039428, 40.09585299969681], [-82.76388199986903, 40.095837000025625], [-82.76389299973967, 40.09579100000513], [-82.76389699993764, 40.09577600017097], [-82.76453899982008, 40.08841600026035], [-82.76454800004089, 40.08828799979445], [-82.76457700035319, 40.0879120001264], [-82.76470600022463, 40.0862099997089], [-82.76490700006609, 40.08358800003188], [-82.76514200024272, 40.08049700002514], [-82.76518400007552, 40.07992500016201], [-82.76519999996904, 40.07971999972029], [-82.76520599981684, 40.07964499999125], [-82.76523000010627, 40.0793510001193], [-82.76525699987045, 40.079013000184815], [-82.76588200003444, 40.071198000120184], [-82.76591200017165, 40.070822000246366], [-82.76605699993661, 40.06901600026316], [-82.76613499975443, 40.06802699995004], [-82.76638199962663, 40.06490299988706], [-82.7669139999042, 40.05820699990862], [-82.76748299999167, 40.05102800002161], [-82.76758400027401, 40.05009100026293], [-82.76765600024403, 40.04922500021947], [-82.76789800009338, 40.04627299975003], [-82.76798900032996, 40.04511699986034], [-82.76811200035363, 40.043565999987344], [-82.76820000021716, 40.042255999923825], [-82.76828499970766, 40.04123800009312], [-82.76838500016508, 40.03977700019622], [-82.76847200020373, 40.038722999755215], [-82.76851700040957, 40.03825300012421], [-82.76852599973208, 40.038108000110974], [-82.76854300034884, 40.03787900004074], [-82.76855300039458, 40.03774500009649], [-82.76860100007517, 40.03719100000622], [-82.76862100016665, 40.03695600013046], [-82.76864899975574, 40.036619000335186], [-82.76873699961928, 40.03563000024765], [-82.7688000002668, 40.0349689996923], [-82.76885299997022, 40.03441599981223], [-82.76887600043476, 40.034174000212886], [-82.76888399993238, 40.03408099998495], [-82.7688859995822, 40.03406300010369], [-82.76889099960506, 40.03399600019823], [-82.76889900000099, 40.03390900016113], [-82.7689700001461, 40.033128999898956], [-82.76904899978882, 40.03237700025121], [-82.76910300021548, 40.03174500007659], [-82.76910700041344, 40.03169799998965], [-82.76913400017762, 40.031386999754275], [-82.76916900033774, 40.0309260001316], [-82.76932400014843, 40.02906900026421], [-82.76946100041579, 40.02752599987612], [-82.76953300038579, 40.026745000043654], [-82.76971699961051, 40.024525000330925], [-82.76977600006005, 40.02380100005465], [-82.76977699988495, 40.023780000237885], [-82.76978399955766, 40.023708999663164], [-82.76985499970276, 40.02287599970626], [-82.76994199974139, 40.0217989999276], [-82.77008800022958, 40.0197659998154], [-82.7701250000395, 40.01929899974218], [-82.77022600032184, 40.018250000115216], [-82.7702370001925, 40.017949999727705], [-82.77061299993615, 40.0130520001028], [-82.7706460004464, 40.01263399975445], [-82.7710120001443, 40.008164999993916], [-82.77122999970419, 40.00550300004965], [-82.7712659996892, 40.005057999972294], [-82.77128499995577, 40.004830000232985], [-82.77130500004728, 40.00458699977216], [-82.77130800042032, 40.00454199987229], [-82.77131199971994, 40.00449200017808], [-82.77141600037535, 40.0044969999427], [-82.77137899966709, 40.00444800003155], [-82.77137899966709, 40.00438199975857], [-82.7713779998422, 40.00429000002224], [-82.77139000043607, 40.004217999992555], [-82.77139499956064, 40.00418799990046], [-82.7714349997436, 40.00389700011181], [-82.77157000036112, 40.00293399967152], [-82.77159499957716, 40.00276000008533], [-82.77160600034614, 40.002612000104065], [-82.7716599998745, 40.0018150002597], [-82.77177600022546, 40.00013199998638], [-82.77182300008113, 39.99942700031568], [-82.7718780003327, 39.99863099966759], [-82.7718780003327, 39.99857199996774], [-82.77187900015761, 39.99845299982316], [-82.77181100038555, 39.99844800030411], [-82.7718130000354, 39.998423999854836], [-82.77181800005825, 39.998338999686815], [-82.77183899997465, 39.99811399994575], [-82.77192400036347, 39.997033999815336], [-82.77230400030507, 39.99246599967834], [-82.77239399981843, 39.99148499965612], [-82.77244200039732, 39.99078900033156], [-82.77248500005501, 39.990273999790304], [-82.77253699993355, 39.9896300001835], [-82.77261599957627, 39.98820100008115], [-82.7726609997821, 39.98738500010905], [-82.77266300033025, 39.987348999794705], [-82.7726669996299, 39.987293000185716], [-82.77267699967565, 39.987112000176744], [-82.77268300042174, 39.98700099990742], [-82.77270900036102, 39.986760000158974], [-82.77271299966067, 39.98672400020351], [-82.77272500025454, 39.98661600022337], [-82.77273000027742, 39.986581000269624], [-82.77277700013306, 39.9861669999284], [-82.77291900042329, 39.98492499968243], [-82.77296700010388, 39.98451199973821], [-82.7729760003247, 39.98443099989964], [-82.77300300008888, 39.98419100014556], [-82.77301300013464, 39.98411100004012], [-82.77302599965509, 39.983991000050594], [-82.77306699966299, 39.983632999747066], [-82.77308099990668, 39.98351399972876], [-82.77308799957939, 39.98345199967757], [-82.77310799967087, 39.983267000000886], [-82.77311600006679, 39.98320599985258], [-82.77312100008966, 39.983155999679106], [-82.77313799980809, 39.98300900001716], [-82.7731450003791, 39.982959999830136], [-82.77314600020401, 39.98294299967273], [-82.77315100022689, 39.982895000258274], [-82.77315399970162, 39.98287999965996], [-82.77316000044772, 39.982827000226976], [-82.77317700016614, 39.9826689997513], [-82.77318399983885, 39.98261700029028], [-82.77320099955728, 39.98246199974268], [-82.77325400015904, 39.98199700012004], [-82.77327300042563, 39.98184299968958], [-82.7734049997718, 39.980686999688416], [-82.77341399999263, 39.980608999940294], [-82.77346699969607, 39.98000999965738], [-82.77358600042007, 39.978699000174515], [-82.77362900007778, 39.97821299965603], [-82.77368400032937, 39.977614999918046], [-82.77371199991843, 39.97731699967659], [-82.77379599958404, 39.97642199987805], [-82.77382499989636, 39.976125000172104], [-82.77945899979636, 39.976293000164326], [-82.77948200026091, 39.97602599998326], [-82.77950800020018, 39.975713000278525], [-82.77952999994147, 39.97544899992991], [-82.77954599983502, 39.97526399992539], [-82.77960699993439, 39.9745509996889], [-82.77961100013233, 39.97449699973681], [-82.77962500037604, 39.97433500031291], [-82.77963000039892, 39.97428199975936], [-82.77964999959208, 39.97404299972709], [-82.77966800003375, 39.973815999968124], [-82.77968800012523, 39.97359499968466], [-82.77969300014811, 39.97354699989934], [-82.77969999982079, 39.973459999901316], [-82.77970099964571, 39.97344399971552], [-82.77970499984367, 39.973395000241986], [-82.77970700039181, 39.9733800003118], [-82.77971300023958, 39.9733069997786], [-82.77973099978296, 39.973089000051395], [-82.77973800035394, 39.97301700017196], [-82.77975400024748, 39.97282100015403], [-82.77980100010313, 39.97226299984199], [-82.77980299975296, 39.97223399976911], [-82.77982000036971, 39.97203899986153], [-82.77987800009605, 39.971358999997236], [-82.7800510003484, 39.969318999744516], [-82.78010999989962, 39.96864000001087], [-82.78011099972454, 39.96861899974833], [-82.78011599974741, 39.96855699995193], [-82.78011900012046, 39.968537000005604], [-82.78013400018908, 39.96835399988074], [-82.78018100004473, 39.967807000025545], [-82.78019699993828, 39.96762499967848], [-82.78028200032708, 39.966614000213134], [-82.78032800035783, 39.96609100031841], [-82.78040100015275, 39.96543399976197], [-82.7803960001299, 39.965421999935174], [-82.78039500030498, 39.96540399984678], [-82.78043299993982, 39.964893000256154], [-82.78047099957465, 39.964402999787254], [-82.78047300012278, 39.964380999886174], [-82.78056799965903, 39.963249000304195], [-82.78064600037516, 39.9623160002176], [-82.78082600030021, 39.96016200020362], [-82.78082799995003, 39.96014300033156], [-82.7809819999358, 39.9577599996716], [-82.7809879997836, 39.95771899984173], [-82.78124399987664, 39.95587600032542], [-82.7812480000746, 39.955818999875106], [-82.78125100044764, 39.95577599989056], [-82.78125700029543, 39.955696000263664], [-82.7812620003183, 39.95562300012654], [-82.78134599998388, 39.954443999902], [-82.7814949999468, 39.9523620001883], [-82.7814949999468, 39.951515000200594], [-82.7814949999468, 39.95136199985677], [-82.7815159998632, 39.951149999836396], [-82.78152799955876, 39.951032000326514], [-82.78152799955876, 39.95101499980259], [-82.78153299958164, 39.950927000142094], [-82.78155299967311, 39.95061199999907], [-82.78156199989395, 39.95047800019798], [-82.78156199989395, 39.9504659998124], [-82.78156299971884, 39.95043299977424], [-82.78156400044209, 39.95042299990559], [-82.78156500026701, 39.9504030001639], [-82.78157000028986, 39.950345000053645], [-82.78157199993969, 39.95032600020865], [-82.78157699996258, 39.950263999663], [-82.78158199998543, 39.95021799986603], [-82.78160399972674, 39.95008000028955], [-82.78161499959741, 39.950019000133516], [-82.78163800006193, 39.94985899971415], [-82.78171000003195, 39.94937900034255], [-82.78172699975039, 39.94926900001219], [-82.78172900029853, 39.94921899980354], [-82.7818049995682, 39.947048000333076], [-82.78180799994125, 39.947005000343715], [-82.78180899976616, 39.94698099972929], [-82.78180899976616, 39.946971000044705], [-82.78181899981189, 39.94677900030764], [-82.78187999991127, 39.94589599994521], [-82.78195899955398, 39.94509800028768], [-82.78201200015575, 39.9447460001333], [-82.78206300020938, 39.94415399970264], [-82.78213299963126, 39.94332799978382], [-82.78216899961627, 39.94294900012149], [-82.7822769995713, 39.94181100020277], [-82.78231400027956, 39.94143299976304], [-82.78232299960204, 39.941344000122875], [-82.78235000026454, 39.94107799987374], [-82.78245800021959, 39.94001599969705], [-82.7824950000295, 39.93966200010792], [-82.78210500004216, 39.93976999989653], [-82.78105499973076, 39.93972299985642], [-82.78073099986564, 39.939709000189936], [-82.77972199956211, 39.93966400025865], [-82.77969300014811, 39.939663000183266], [-82.77960899958421, 39.939659999957186], [-82.7795519996828, 39.93965699973097], [-82.77889100043211, 39.93962700021642], [-82.77828999965926, 39.939601000305046], [-82.77821100001655, 39.93959699999995], [-82.77813499984856, 39.93959299969457], [-82.7779609997713, 39.939585999848376], [-82.77788700015147, 39.93958300030768], [-82.7776379997311, 39.93957100007719], [-82.77743199986679, 39.939559999921485], [-82.77614899992686, 39.939494000327535], [-82.7757580001146, 39.93947400014585], [-82.775334999617, 39.93945299987986], [-82.77530200000504, 39.939450999723014], [-82.77526799966985, 39.939449000254825], [-82.77525099995141, 39.93944800017635], [-82.77519999989778, 39.93944600001936], [-82.77515700024009, 39.939443999862306], [-82.77509199994276, 39.93944000023674], [-82.77507100002636, 39.93943900015813], [-82.7750469997369, 39.93943800007951], [-82.77501499994985, 39.93943700000087], [-82.77499900005633, 39.93943599992223], [-82.77496300007131, 39.93943399976489], [-82.77491700004056, 39.939431000217475], [-82.77477499975035, 39.93942399966595], [-82.77438499976302, 39.93940400015252], [-82.77423499997518, 39.939396000207765], [-82.77415799998228, 39.93939199989068], [-82.77290900037755, 39.939328000295205], [-82.7728700000195, 39.9393260001347], [-82.77176100015683, 39.93926000031506], [-82.76880500028966, 39.93908500033906], [-82.7684410002416, 39.93906600012191], [-82.76828200023293, 39.93905800013764], [-82.76805700010203, 39.93904599981508], [-82.76801400044432, 39.93904400033511], [-82.76586899961565, 39.93892800008993], [-82.76502599989176, 39.93888200024704], [-82.76470100020175, 39.93886600023455], [-82.76167300036455, 39.93871399992925], [-82.76091400030627, 39.93867599997232], [-82.75414700025415, 39.93833600028901], [-82.74989099983028, 39.938122999752366], [-82.74834299957651, 39.93804500034071], [-82.74743799992835, 39.93799600029395], [-82.74557699968011, 39.937893999690516], [-82.74445899959663, 39.937833999791266], [-82.74435999986243, 39.93782899996947], [-82.74239800023018, 39.93772199997629], [-82.74160999985956, 39.93767900032458], [-82.74085699964908, 39.93763800016697], [-82.74076499958757, 39.93763300033089], [-82.73966499994575, 39.93755400025458], [-82.73915899960745, 39.93752899966211], [-82.73889500001681, 39.937516000342285], [-82.73521799972617, 39.9373180002768], [-82.73071299978028, 39.93707100030695], [-82.72890799960855, 39.936963999817394], [-82.7288619995778, 39.936961000161716], [-82.72312300009577, 39.93664900012786], [-82.72184199980568, 39.93658899982585], [-82.71605899994275, 39.93625600029292], [-82.7133659998413, 39.93612599974386], [-82.70741499974886, 39.935795000288245], [-82.70730599996891, 39.93578900018554], [-82.70662399990353, 39.935750999982], [-82.69718399984144, 39.93526700025691], [-82.69288099956191, 39.93506399986003], [-82.69068799995098, 39.93496000010882], [-82.69063900044549, 39.934957999820604], [-82.68773399973361, 39.93482099991638], [-82.68768100003017, 39.93481900031297], [-82.68443999975764, 39.93466599982482], [-82.68429599981758, 39.93465900016348], [-82.68118299959156, 39.93445999994646], [-82.68116099985026, 39.93445899979503], [-82.68104299984948, 39.934457000181034], [-82.68102799978087, 39.934458000332455], [-82.68098900032112, 39.93446100009783], [-82.68092599967362, 39.934453999726706], [-82.67814800008166, 39.934340000273174], [-82.6777920004295, 39.934326000194275], [-82.67496600025866, 39.93418999986907], [-82.6727019996043, 39.9340810000718], [-82.67171900013834, 39.93403099978441], [-82.6716389997724, 39.93402599968483], [-82.67121100015022, 39.93400499981342], [-82.67050099959742, 39.93397600004608], [-82.66836800026095, 39.93387200001921], [-82.6683010003138, 39.93386800006803], [-82.6679149996261, 39.93384899978001], [-82.66530299971551, 39.93372199996706], [-82.66483200043561, 39.93369300007983], [-82.66140600021515, 39.93351300019587], [-82.65986999965692, 39.93344499994813], [-82.65881600004587, 39.93339300023987], [-82.65652299997751, 39.93328500003066], [-82.65601199961633, 39.93326100011409], [-82.65286900015138, 39.933109999929464], [-82.64961100016042, 39.93294199990732], [-82.6490260001794, 39.93291600021147], [-82.64902700000432, 39.93294300008087], [-82.63941899971275, 39.93243800012198], [-82.63660099993783, 39.93229199972599], [-82.630488000362, 39.931975000200254], [-82.62974799967198, 39.9319680002637], [-82.62965899998352, 39.93196400020121], [-82.62013699990567, 39.93155200009152], [-82.62003700034656, 39.931548000004724], [-82.61525200001817, 39.93136299969631], [-82.61042700040515, 39.93115499980987], [-82.60924999987213, 39.93110399993992], [-82.60886499990767, 39.931088999687326], [-82.60112700008516, 39.930779000159795], [-82.60110100014587, 39.93077699974943], [-82.59142099988429, 39.93045199979438], [-82.58962099973542, 39.930392000259246], [-82.58935100029699, 39.93038200021678], [-82.5818129995927, 39.93015599969447], [-82.58178800037666, 39.930136000227996], [-82.58130100030495, 39.930105999984086], [-82.58128200003837, 39.93010400024287], [-82.5692300000657, 39.929600000226216], [-82.5678519996912, 39.92954299992511], [-82.56779899998776, 39.929541000167504], [-82.56221299976832, 39.929288999928126], [-82.55848399959913, 39.9291240001709], [-82.55710500029808, 39.9290619997001], [-82.55708199983353, 39.929059999928384], [-82.54509500015817, 39.92855400001614], [-82.54502800021102, 39.92855099999187], [-82.54395399961015, 39.928492999956525], [-82.5437169997837, 39.928491000168194], [-82.54351199974427, 39.92847100021532], [-82.54335500028375, 39.928454999835445], [-82.54262499963949, 39.92842299975337], [-82.53775900001855, 39.92820500021698], [-82.53378600035025, 39.928024000121866], [-82.5333040003014, 39.92800200022988], [-82.532698000404, 39.92797499978926], [-82.53263499975648, 39.927971999739604], [-82.52831200028379, 39.92774999983603], [-82.52679400016723, 39.92768500012522], [-82.526327000187, 39.927664999936816], [-82.52272900043738, 39.927494000257504], [-82.52226599975681, 39.927462999979824], [-82.52197200002894, 39.92744399998052], [-82.5219269998231, 39.9274409999076], [-82.52067800021837, 39.92738599969611], [-82.51919899956155, 39.92732100032853], [-82.51859600003718, 39.927301000033836], [-82.51798099991893, 39.92727400000552], [-82.51746500043322, 39.927251000304736], [-82.51295299991632, 39.92703799971326], [-82.5128730004487, 39.927035000311484], [-82.51113000020122, 39.92695300030779], [-82.50915199977713, 39.92685899981308], [-82.50865499965967, 39.92683499971009], [-82.50856799962104, 39.926831000036536], [-82.50844799997043, 39.9268249998369], [-82.50814400019682, 39.92680899976121], [-82.50806200018107, 39.92680500008614], [-82.50799299968577, 39.92680300024849], [-82.5071009995581, 39.92675399973081], [-82.50694499992248, 39.92674599968511], [-82.50674300025611, 39.92673500022357], [-82.50640299959917, 39.92672400007137], [-82.50606299984055, 39.92672599991132], [-82.5056379996931, 39.9267049998669], [-82.50553399993605, 39.926699999921006], [-82.50490100027446, 39.926667000131104], [-82.50320300023284, 39.926579999731956], [-82.50002200023475, 39.92642000030084], [-82.49823299995653, 39.92633099973641], [-82.4976749997397, 39.92629900003928], [-82.49760799979255, 39.92629500033442], [-82.49678299961205, 39.92624799999591], [-82.49614999995045, 39.92621199986137], [-82.49417499989941, 39.92610099990144], [-82.49405000022593, 39.92609500032673], [-82.49343400028279, 39.92606400010446], [-82.4934069996203, 39.92606299983039], [-82.48843800006722, 39.925814000021134], [-82.48820500043871, 39.92580200013192], [-82.48738699993089, 39.92576099974837], [-82.48656900032138, 39.92572000002918], [-82.48341199971442, 39.92556199983991], [-82.48214100036837, 39.9254989999941], [-82.4814459998842, 39.92546500003141], [-82.4807499995751, 39.92542999976846], [-82.47945999996249, 39.925366000205855], [-82.47817000034988, 39.925301000298205], [-82.477616000331, 39.92527400017002], [-82.4773910002001, 39.925262999783065], [-82.47342299965634, 39.92506500009357], [-82.47018499975684, 39.92672599991132], [-82.47006000008336, 39.926790000269236], [-82.47001400005261, 39.92681399969915], [-82.46984400017331, 39.92690099980089], [-82.46977800005108, 39.92693499973938], [-82.46917899982635, 39.92723099998953], [-82.46281299963222, 39.93037999979482], [-82.45132800009722, 39.92968700023164], [-82.44390400009405, 39.92923900027333], [-82.43320299983334, 39.92859300031938], [-82.4287709996824, 39.92832599986527], [-82.42668500020157, 39.92824800031005], [-82.42490400031927, 39.928182999694315], [-82.41817900009994, 39.92793599982276], [-82.4185349997521, 39.923920000320884], [-82.41857900013304, 39.92342399999027], [-82.41866600017168, 39.92244700034399], [-82.41720800032957, 39.92236299970035], [-82.41414399960904, 39.922218999833404], [-82.41295699992858, 39.92216400024924], [-82.4128880003316, 39.92216099994495], [-82.41265499980479, 39.92209399977513], [-82.40901900042034, 39.92196999982254], [-82.40898400026026, 39.92196799984371], [-82.4089669996435, 39.92196700019869], [-82.40866200004497, 39.92195000003141], [-82.40740900024228, 39.9218809996737], [-82.406101000188, 39.921807999968415], [-82.40598999985993, 39.9218020000175], [-82.40443499993343, 39.92171599997417], [-82.40327599984207, 39.92165199969558], [-82.40266999994465, 39.92161500025002], [-82.40262899993678, 39.92161199992172], [-82.40120500042985, 39.92152299999646], [-82.40041600023434, 39.92147399983347], [-82.39995099990395, 39.92144500026877], [-82.39859199979604, 39.92136800010594], [-82.39855900018408, 39.921366000109536], [-82.39671100035461, 39.921260999870164], [-82.39650799996504, 39.92125000021631], [-82.39649600026947, 39.921248999871914], [-82.39473700012849, 39.92114899980479], [-82.39453700011194, 39.92113800013299], [-82.39442300030913, 39.9211309997772], [-82.393803000168, 39.92109499970787], [-82.39358899990778, 39.921082999680515], [-82.39346199968617, 39.921076000008064], [-82.3934430003179, 39.921074999661116], [-82.39122899989225, 39.92095000027017], [-82.39118500040964, 39.920946999912736], [-82.39114900042462, 39.92094499990398], [-82.38965300004936, 39.92085999982338], [-82.38957400040665, 39.92085599980077], [-82.38868999977659, 39.92080600018745], [-82.38861000030897, 39.920802000161686], [-82.38857699979869, 39.92080000014869], [-82.38801799975694, 39.92077100029859], [-82.38744000034694, 39.92073999973252], [-82.3854660001208, 39.920638000282246], [-82.38371200000269, 39.920546000093914], [-82.38111400033578, 39.920411000305194], [-82.38094199990833, 39.92040199985051], [-82.37875199977212, 39.9202830000045], [-82.37775400023756, 39.9202280002432], [-82.3767990003607, 39.9201760001401], [-82.37477499990584, 39.92008299965858], [-82.37475200033963, 39.920081999986046], [-82.37315800005507, 39.92000899974076], [-82.37314200016155, 39.9200080000672], [-82.37311399967413, 39.92000699970461], [-82.37278099958822, 39.91999199977628], [-82.37256300002834, 39.919974999807565], [-82.37205699969003, 39.919936000106574], [-82.37126300036996, 39.919895000344], [-82.36981899987325, 39.91982100022301], [-82.36977200001758, 39.91981900018141], [-82.36958399969662, 39.91981100001434], [-82.3691109998686, 39.91977999970261], [-82.3686749998505, 39.919751999786826], [-82.3684849998797, 39.91974299993449], [-82.36711099970317, 39.919680000246], [-82.36514499987295, 39.919581000323205], [-82.36201199955545, 39.91940999974359], [-82.35899899978685, 39.91924500029042], [-82.3575590003864, 39.919153000297406], [-82.35599299969097, 39.91907000012277], [-82.35345100010055, 39.91892400015254], [-82.3512860000787, 39.918799999971085], [-82.35031899960796, 39.918744000015565], [-82.34997999967423, 39.918724999663475], [-82.34947000003632, 39.91869700000524], [-82.34929299958598, 39.918687000321405], [-82.3491949996767, 39.91868199978995], [-82.34899399983524, 39.918670999721805], [-82.34897200009394, 39.91867000002871], [-82.34891400036761, 39.91866700026031], [-82.34880200021462, 39.91866100003418], [-82.34855399961918, 39.918647000193424], [-82.34811699977618, 39.91862399966138], [-82.343590000089, 39.91837899983556], [-82.34192999968221, 39.9182820001854], [-82.33812400041845, 39.91805999986516], [-82.33710800044223, 39.91801300007437], [-82.33709500002344, 39.918011999682676], [-82.33706800025925, 39.918010999979906], [-82.33692900034208, 39.9180049996963], [-82.33689800037995, 39.91800399999348], [-82.32694600013178, 39.91730599991565], [-82.32682800013099, 39.917296000028635], [-82.32553400032043, 39.917192999867645], [-82.32052899988403, 39.916951999995995], [-82.31895899988893, 39.9168769997314], [-82.31694700002795, 39.91678000002069], [-82.31688699975349, 39.91677599975975], [-82.30732399966776, 39.916493000341845], [-82.30727299961414, 39.91649400006677], [-82.30719499979634, 39.91648699992523], [-82.30662599970886, 39.916464000045714], [-82.30653600019548, 39.91645600017569], [-82.30642800024044, 39.91644600016462], [-82.30628799960003, 39.91643300028582], [-82.30616799994944, 39.916416999848586], [-82.3059460001916, 39.916398999955135], [-82.30584800028231, 39.91639300021923], [-82.30519499963091, 39.91635199971334], [-82.30480600036681, 39.91632500019027], [-82.30457500038814, 39.91631500016002], [-82.30433099999065, 39.916303999711715], [-82.30402899986686, 39.916292000222796], [-82.30368499991027, 39.91629000007808], [-82.30343399984011, 39.91628099977075], [-82.30316299967846, 39.91626799986063], [-82.30263899979681, 39.91624999992797], [-82.30211499991518, 39.91622900011542], [-82.30194599986079, 39.91621999980008], [-82.30187600043888, 39.9162190000712], [-82.30178000017943, 39.916221000217945], [-82.30167499969912, 39.91622699996891], [-82.30155699969835, 39.91624600032508], [-82.30144999956822, 39.916287000205415], [-82.30142899965183, 39.91628599978852], [-82.29498800001295, 39.91597600006313], [-82.29323600044296, 39.9158889998591], [-82.28960199981005, 39.91570999974908], [-82.2895709998479, 39.915708000276425], [-82.2874450001841, 39.915588999852396], [-82.28739300030557, 39.91558599994903], [-82.27522499998194, 39.915060999680406], [-82.27520300024062, 39.91505999993461], [-82.27397100035432, 39.91499499988943], [-82.26603000014222, 39.91469399966053], [-82.26362699957068, 39.914603000196166], [-82.26080100029816, 39.91449700016797], [-82.25538199958497, 39.914191000336075], [-82.25525699991151, 39.914183999959185], [-82.25337599957177, 39.914097999994716], [-82.24986599968572, 39.913942999834106], [-82.24781500036501, 39.913866000192954], [-82.24360800034495, 39.91369700003271], [-82.24357900003264, 39.91369600026696], [-82.2435000003899, 39.91369199982587], [-82.24319599971797, 39.91367099991802], [-82.2412619996748, 39.91357699979213], [-82.2412180001922, 39.91357500025715], [-82.24117499963619, 39.91357300003313], [-82.23416099971186, 39.9132679999792], [-82.2339740001141, 39.91325999973586], [-82.23393200028131, 39.91402899999321], [-82.23380599988462, 39.916335999946185], [-82.23376400005182, 39.91710500011575], [-82.23379500001396, 39.9171519998407], [-82.23381799958017, 39.917228999921434], [-82.23382699980101, 39.91732900020132], [-82.23382299960305, 39.917513999851835], [-82.2338050000597, 39.917791999965985], [-82.23377499992249, 39.91827599992547], [-82.23373800011255, 39.91870300022828], [-82.2336569999217, 39.91988900022546], [-82.23364600005104, 39.92006399967797], [-82.23362500013465, 39.92031299973044], [-82.23362500013465, 39.92035799998364], [-82.23363099998242, 39.92040199985051], [-82.23364400040121, 39.92044599968909], [-82.23366000029473, 39.92047499967682], [-82.23368799988383, 39.920507999695495], [-82.23373899993747, 39.92054699975962], [-82.23373499973951, 39.92057700005887], [-82.23347000032395, 39.924158999866876], [-82.23333100040676, 39.92602900014774], [-82.23266900043288, 39.934995000320896], [-82.2324030002941, 39.93860800003305], [-82.23232499957797, 39.93953500006193], [-82.23207400040612, 39.942371999831906], [-82.2320650001853, 39.942474999993294], [-82.23205000011667, 39.94261499982365], [-82.23193700013877, 39.94391899977265], [-82.2317849998028, 39.94638200020395], [-82.23174700016797, 39.9468139999842], [-82.23173200009936, 39.94696600020188], [-82.23169199991638, 39.94742899993906], [-82.23168000022082, 39.94758599996554], [-82.23172600025157, 39.948079000281325], [-82.23176499971133, 39.94819099967201], [-82.2317780001301, 39.94822799990387], [-82.23178599962772, 39.94829999972071], [-82.2317630000615, 39.94863000003511], [-82.23173999959697, 39.94910600009262], [-82.23169500028943, 39.95107499985048], [-82.22582799986259, 39.95104900015755], [-82.2254970003248, 39.95104700033969], [-82.22450499973971, 39.95104399992414], [-82.22417500002682, 39.95104300001514], [-82.22404500033048, 39.95104200010613], [-82.22365500034313, 39.951037999781285], [-82.22352499974848, 39.951037999781285], [-82.22321099992912, 39.95102800000108], [-82.22227000029596, 39.95099899987275], [-82.2219570003015, 39.95098999999664], [-82.22192999963902, 39.95098900008685], [-82.22184900034648, 39.95098599966875], [-82.221821999684, 39.95098599966875], [-82.22161400016985, 39.95097900029948], [-82.22147899955232, 39.950975999880946], [-82.22099200037891, 39.950959999941986], [-82.22078499979136, 39.950953999791714], [-82.2207530000043, 39.9509529998814], [-82.22065799956974, 39.95095000015038], [-82.2206269996076, 39.95094900024001], [-82.22034999959818, 39.950981000119334], [-82.22018499974175, 39.95100099969202], [-82.21952299976783, 39.95108899994592], [-82.21936999960695, 39.95110900017567], [-82.21924800030655, 39.951125999987575], [-82.21793100003143, 39.95114199988771], [-82.21774500025859, 39.95097499997096], [-82.21751299955667, 39.95093300029468], [-82.21638600015069, 39.9507339998877], [-82.21629699956391, 39.95071999971962], [-82.21616600004265, 39.950724999976764], [-82.21550200041892, 39.95075400022126], [-82.2152820003109, 39.950764000041524], [-82.21521700001358, 39.95076599986766], [-82.21502299984482, 39.95077399986027], [-82.21495900027072, 39.95077700028767], [-82.21466499964453, 39.95076300012838], [-82.2137829995626, 39.950724999976764], [-82.21365399969118, 39.95071999971962], [-82.21352200034501, 39.950716000064595], [-82.21340099997117, 39.95071300032318], [-82.21331700030558, 39.95071300032318], [-82.21290399985371, 39.95071500015081], [-82.21275999991367, 39.95071699997837], [-82.2126200001716, 39.95071500015081], [-82.21220300042008, 39.95070999989293], [-82.21206399960458, 39.95070899997905], [-82.21200599987827, 39.95070999989293], [-82.21192100038778, 39.950738000230324], [-82.21189799992324, 39.95075699996089], [-82.21184500021978, 39.950764000041524], [-82.21171100032548, 39.950724999976764], [-82.2116069996701, 39.95069499980584], [-82.21119699959127, 39.950581999778635], [-82.20854700004584, 39.95054400021502], [-82.20849699981713, 39.950543000298715], [-82.20834899967912, 39.95053999986106], [-82.20830000017364, 39.95053899994468], [-82.20819700024147, 39.95053899994468], [-82.20794500034638, 39.95053999986106], [-82.20794500034638, 39.95059400014381], [-82.2079460001713, 39.95064599986575], [-82.20771000016975, 39.950669999882926], [-82.20718799993794, 39.95061199999907], [-82.20700399981492, 39.95059099970838], [-82.20676899963827, 39.95056499983148], [-82.20672199978262, 39.95056000025134], [-82.20644099957522, 39.95052900009154], [-82.20582800000511, 39.95046200014253], [-82.20545800010926, 39.95044999975415], [-82.20513000004621, 39.95043999988798], [-82.20387200022063, 39.95037999997174], [-82.20010000039376, 39.95020099982845], [-82.19884300039311, 39.95014200031337], [-82.198772000248, 39.950139999780326], [-82.19872799986706, 39.95019600022166], [-82.1987510003316, 39.95146500025639], [-82.19872200001929, 39.95208800024321], [-82.19872100019437, 39.95211600001652], [-82.19870699995066, 39.952409999698794], [-82.19862999995777, 39.954077000289416], [-82.19863099978268, 39.95413499998954], [-82.19862900013285, 39.95419599991795], [-82.19862499993489, 39.95427199978652], [-82.19861700043731, 39.95437499993565], [-82.19859499979766, 39.954530000141844], [-82.19857700025433, 39.95490100017718], [-82.19857399988128, 39.954930000028334], [-82.19857100040655, 39.95494899997163], [-82.19856399983554, 39.9550070003095], [-82.1985620001857, 39.95502700008221], [-82.19854200009424, 39.955205999990774], [-82.19854000044441, 39.955231000321554], [-82.19850000026143, 39.955848000025554], [-82.19848799966755, 39.9560540002419], [-82.19848199981976, 39.95614300002644], [-82.19847099994911, 39.95635099970557], [-82.1984490002078, 39.95678200005301], [-82.1984140000477, 39.95724199999784], [-82.19840499982688, 39.957377000135324], [-82.19839499978114, 39.95753799999675], [-82.19836800001694, 39.95795699998917], [-82.19836800001694, 39.95796899974902], [-82.19831299976538, 39.95884800001392], [-82.19828400035136, 39.959208000285074], [-82.19827099993257, 39.959385000004545], [-82.19826000006192, 39.959625000117846], [-82.19825599986396, 39.95969500007826], [-82.19824599981823, 39.95990399975016], [-82.1982449999933, 39.95993499979205], [-82.19824099979535, 39.959977999915765], [-82.19823900014552, 39.96000100032308], [-82.19823199957452, 39.96008500021825], [-82.19822900009979, 39.96011799973078], [-82.19822699955164, 39.96015099991593], [-82.19822599972672, 39.96015999996365], [-82.19821900005402, 39.960302000330515], [-82.19821599968098, 39.96035400024558], [-82.19821499985608, 39.96038599985588], [-82.19820900000829, 39.96049699998036], [-82.19820800018339, 39.96052799975341], [-82.19818499971885, 39.960994999698066], [-82.19818499971885, 39.96101300025875], [-82.19815600030485, 39.9614339998177], [-82.19809100000751, 39.96238000034101], [-82.19808699980955, 39.96244099980034], [-82.19806900026622, 39.962841999970834], [-82.1980680004413, 39.962854000250466], [-82.19806500006825, 39.96293500018947], [-82.19802900008324, 39.963486000067284], [-82.19802200041053, 39.9636049998477], [-82.19788299959507, 39.96541700006409], [-82.19783400008957, 39.96604999997587], [-82.19783400008957, 39.966061000003016], [-82.19782900006669, 39.96612000024358], [-82.19782599969365, 39.96616599967229], [-82.19781800019605, 39.966299000031675], [-82.19781399999809, 39.96636000012553], [-82.19780999980011, 39.96643699992921], [-82.19779899992947, 39.96663899981566], [-82.19779800010456, 39.966670999926954], [-82.19779700027965, 39.96675000011607], [-82.19779499973151, 39.966855999781934], [-82.19779300008169, 39.96689599996387], [-82.19777399981513, 39.96733399970182], [-82.19776799996733, 39.967479999679306], [-82.19775799992158, 39.96770000010336], [-82.19774899970075, 39.967852999696106], [-82.19772799978435, 39.96827399982278], [-82.19771400043896, 39.96845599981892], [-82.19770400039323, 39.96868300016766], [-82.19768000010377, 39.968973000262665], [-82.19765699963925, 39.9692580002257], [-82.19764900014164, 39.96934300009333], [-82.19762700040033, 39.96956899992383], [-82.19758499966923, 39.970021000097034], [-82.19757200014875, 39.970242000233114], [-82.19755899972995, 39.97046700022011], [-82.19755700008014, 39.97048799991488], [-82.19755299988218, 39.97055399989718], [-82.19755299988218, 39.970570999694544], [-82.197526000118, 39.971043000033795], [-82.19749500015587, 39.97159099976361], [-82.19744599975206, 39.972443999947636], [-82.19741999981278, 39.97291200001096], [-82.19741800016295, 39.972930000187674], [-82.197413999965, 39.97300000029449], [-82.1974130001401, 39.97302299976323], [-82.19738999967556, 39.97342099970007], [-82.19732399955332, 39.97423600028474], [-82.19730299963692, 39.974504999706916], [-82.19729699978915, 39.97461999994809], [-82.19728199972052, 39.97496500019888], [-82.19728199972052, 39.975016999975914], [-82.19728400026865, 39.97515399992717], [-82.19727800042088, 39.97533499994913], [-82.19728099989561, 39.975407999693026], [-82.19726300035225, 39.975623000258615], [-82.19716100024502, 39.97569999995409], [-82.19708799955175, 39.97704700009138], [-82.19697399974895, 39.97928399973248], [-82.19678799997612, 39.98298599977924], [-82.19675500036413, 39.98364499981839], [-82.1965970001804, 39.986658000006514], [-82.19647499998167, 39.98897100006195], [-82.19628900020882, 39.99252099987351], [-82.19612000015442, 39.995909999666075], [-82.1960060003516, 39.99822400014116], [-82.19591400029009, 39.9989769996923], [-82.19581800003064, 39.99976699975271], [-82.19578200004563, 40.000064999789934], [-82.19545599963237, 40.004415999719505], [-82.19534000017975, 40.00596700019099], [-82.19533000013399, 40.00615399989765], [-82.19529900017186, 40.00671800010901], [-82.19528999995103, 40.00690600029084], [-82.1952520003162, 40.007597000272746], [-82.1951400001632, 40.009670000222336], [-82.19510300035328, 40.010362000164754], [-82.19509599978227, 40.010799999944965], [-82.19507499986588, 40.01211299991882], [-82.1950690000181, 40.0125519998565], [-82.19505899997236, 40.012874999706476], [-82.1950280000102, 40.013845999761756], [-82.19501899978938, 40.01417000004153], [-82.19500399972077, 40.01464199983699], [-82.19496100006305, 40.01605899992284], [-82.19494699981935, 40.01653200005248], [-82.19494699981935, 40.01660200020188], [-82.1949490003675, 40.016812999854174], [-82.19495000019242, 40.01685400000762], [-82.19495000019242, 40.01688499967103], [-82.19491699968212, 40.01764600021864], [-82.19481799994792, 40.019931000341046], [-82.19478600016087, 40.02069399978487], [-82.19477100009226, 40.02101100012046], [-82.19472699971134, 40.02196499991203], [-82.19471300036595, 40.022283000088684], [-82.19466300013723, 40.02331900011046], [-82.1945130003494, 40.02642800020987], [-82.1944639999456, 40.0274650000526], [-82.1943509999677, 40.02916400004357], [-82.19401299985888, 40.034261999978945], [-82.19396600000323, 40.03497800020177], [-82.19392199962229, 40.03596299994754], [-82.19391300029977, 40.03614100033056], [-82.19388900001033, 40.03667700013081], [-82.19388200033764, 40.03685600005477], [-82.19388099961441, 40.036871999829096], [-82.19387800013968, 40.03692299990159], [-82.19387800013968, 40.036939999687995], [-82.19387700031477, 40.03695300004779], [-82.19387499976663, 40.03699099970962], [-82.19387499976663, 40.03700500008649], [-82.19386700026902, 40.0371779996918], [-82.19386600044412, 40.037208999749666], [-82.19386300007108, 40.037281000051465], [-82.1938439998045, 40.03769800001774], [-82.1938370001318, 40.03787199994242], [-82.19382999956078, 40.03802599987691], [-82.19382899973587, 40.038053000191304], [-82.19380899964439, 40.038488999661936], [-82.1938029997966, 40.03864400026906], [-82.19380100014678, 40.038670000336396], [-82.19379699994882, 40.03874799979116], [-82.19379699994882, 40.03877499981972], [-82.19379000027612, 40.038918999791434], [-82.19377100000955, 40.03935099994513], [-82.19376500016176, 40.03949600006622], [-82.19363000044257, 40.042570999891005], [-82.19356000012236, 40.044189999899416], [-82.1931409998227, 40.051793999678445], [-82.19307499970047, 40.05300400028244], [-82.19297299959322, 40.05482699994586], [-82.1929709999434, 40.054867999941884], [-82.19296099989765, 40.05505600016108], [-82.19293099976042, 40.05561999976982], [-82.19292099971469, 40.0558079999773], [-82.19287499968394, 40.05654899985518], [-82.1927390001398, 40.058774999771174], [-82.19269999978174, 40.05943700024541], [-82.19269499975886, 40.05951700008523], [-82.19265700012403, 40.06026399968582], [-82.19254199959799, 40.06250500022708], [-82.19251700038195, 40.063007999717584], [-82.19250499978807, 40.063252999711416], [-82.19250200031333, 40.06329800007754], [-82.19249499974234, 40.06343500027581], [-82.1924939999174, 40.06346200015189], [-82.19249300009251, 40.06348100016013], [-82.19248600041982, 40.063604999902914], [-82.19246799997816, 40.0639760002085], [-82.19246200013035, 40.06410100005469], [-82.19244600023684, 40.064407000074304], [-82.19239900038117, 40.0653250001363], [-82.19238400031257, 40.065631999764925], [-82.19201100004365, 40.07244999980194], [-82.19199199977707, 40.073976000046386], [-82.19199099995218, 40.07405700016953], [-82.19197800043169, 40.07425799980437], [-82.19195900016513, 40.07500200021602], [-82.19195800034021, 40.07565800022957], [-82.19194999994428, 40.07591499975385], [-82.19192200035519, 40.07638000021797], [-82.1918930000429, 40.07675099968429], [-82.19189100039306, 40.076764000012474], [-82.19187600032444, 40.07706000030941], [-82.1918450003623, 40.077619000019766], [-82.19182500027082, 40.07788000016239], [-82.19181299967694, 40.077982000080624], [-82.19180600000423, 40.078050000170315], [-82.19185299985992, 40.07833100013421], [-82.1916339995768, 40.08005299985657], [-82.19149800003268, 40.08247099991282], [-82.19147499956814, 40.08282499984887], [-82.19142699988757, 40.08355300032408], [-82.19140799962099, 40.083855000136275], [-82.19136499996327, 40.08450499998487], [-82.19117499999248, 40.087365000090465], [-82.1911139998931, 40.088318999972294], [-82.19111100041837, 40.088365000232415], [-82.1910920001518, 40.088832000112276], [-82.19108999960366, 40.088909999887385], [-82.19101299961078, 40.09022299975226], [-82.19100500011317, 40.09034599967165], [-82.19100299956504, 40.090371000013604], [-82.19099800044047, 40.090468000126386], [-82.19097599980087, 40.09084400010721], [-82.19097400015103, 40.09088399980747], [-82.19096999995307, 40.09093599993246], [-82.19096099973224, 40.09109100014856], [-82.19095900008242, 40.091144000035065], [-82.1909239999223, 40.09171599978864], [-82.19082099999015, 40.09343500010139], [-82.19078800037819, 40.09398899998137], [-82.19078699965497, 40.09400799971991], [-82.19078500000515, 40.09407700017243], [-82.19077800033244, 40.09428600017012], [-82.19077699960921, 40.09435600021329], [-82.19077599978431, 40.09440500013196], [-82.19076699956348, 40.0945490000673], [-82.1907330001266, 40.09512900032965], [-82.19072300008087, 40.095322999911346], [-82.19059500003434, 40.09756799997675], [-82.19040900026151, 40.10087500014172], [-82.19025199990269, 40.10430699992541], [-82.19015200034356, 40.10650899983017], [-82.19014999979541, 40.10655500016267], [-82.19009399971893, 40.10769300018844], [-82.18992800003757, 40.11110799970917], [-82.1898739996109, 40.11224700011828], [-82.18986899958801, 40.11239400027598], [-82.18985299969451, 40.11283799970647], [-82.18984900039486, 40.11298600024653], [-82.18982699975523, 40.113404000227376], [-82.18976300018113, 40.11465900013019], [-82.18974200026473, 40.11507799970105], [-82.18973100039408, 40.11529599997176], [-82.18970000043194, 40.11594899978361], [-82.18969000038621, 40.11616800024896], [-82.18968100016536, 40.116266999785594], [-82.189656000051, 40.116567000290736], [-82.18964900037831, 40.116667000164995], [-82.18958699955573, 40.117759999933405], [-82.18940300033101, 40.12103900030068], [-82.18934300005657, 40.12213300000917], [-82.18933999968351, 40.122222999816856], [-82.1893320001859, 40.12249600033651], [-82.18932999963776, 40.1225869998082], [-82.18925699984283, 40.12432899977115], [-82.18922699970561, 40.125066000267424], [-82.18902599986416, 40.12955799983392], [-82.18894899987127, 40.1313009997553], [-82.1889370001757, 40.13152200024927], [-82.18890200001559, 40.13218800017645], [-82.18889100014493, 40.132409999846566], [-82.18884199974114, 40.133343000286686], [-82.1886979998011, 40.13614600008086], [-82.18865000012052, 40.137079999982326], [-82.18863199967886, 40.13745900034249], [-82.1885789999754, 40.13845200032504], [-82.18836399989027, 40.14257100018517], [-82.18829299974513, 40.14394400004052], [-82.18827199982873, 40.14434199998139], [-82.1882400000417, 40.14500000003877], [-82.1882119995543, 40.14553799984771], [-82.18819200036113, 40.145936999864276], [-82.18809000025387, 40.14788800023739], [-82.18778499975704, 40.153748000058265], [-82.18768600002284, 40.15570299989829], [-82.18767599997709, 40.15586299978169], [-82.18765199968763, 40.15634899986218], [-82.18764500001494, 40.156511000260366], [-82.18763999999209, 40.156594999933255], [-82.18762699957328, 40.156846999701564], [-82.18762300027363, 40.15693199997098], [-82.18761900007568, 40.156977000191745], [-82.18760900002992, 40.15711500027073], [-82.18760599965688, 40.1571610000059], [-82.18739700031783, 40.16003700016143], [-82.18740300016562, 40.16017899993848], [-82.18740499981543, 40.16021900005411], [-82.1874099998383, 40.160582000163636], [-82.18738300007412, 40.16133899990335], [-82.18737100037856, 40.16161999980982], [-82.18733500039355, 40.16219500004679], [-82.18730899955595, 40.16267399980213], [-82.1872680004464, 40.16319100025313], [-82.18723499993612, 40.163493000052], [-82.18723199956307, 40.16352000005042], [-82.18722499989036, 40.163606999972316], [-82.18721400001972, 40.16375100028453], [-82.18718800008045, 40.16421899970466], [-82.18717100036201, 40.164463999880574], [-82.1871629999661, 40.164523000163484], [-82.18714299987461, 40.16462300018849], [-82.18710299969165, 40.16484299986228], [-82.18710199986673, 40.16489599993924], [-82.18710400041486, 40.16493000014814], [-82.1871079997145, 40.16495199991082], [-82.18720899999686, 40.16559499984139], [-82.18723199956307, 40.165726999763294], [-82.1872259997153, 40.165809000001595], [-82.18721900004259, 40.16589200033449], [-82.18721200036991, 40.16597499987941], [-82.18713600020192, 40.16687599975639], [-82.18710500023978, 40.16687999978632], [-82.18703800029263, 40.16715099972064], [-82.18704099976735, 40.16719600003313], [-82.18660499974926, 40.17755900032875], [-82.18657899981, 40.178411999751894], [-82.18648500009867, 40.180073000077904], [-82.18642399999929, 40.181404000222216], [-82.18640499973272, 40.181949000252146], [-82.18639399986208, 40.182144999776824], [-82.18639300003716, 40.18231499999851], [-82.18641800015152, 40.18239800004887], [-82.18645800033448, 40.18249000022584], [-82.18651299968776, 40.18256900027077], [-82.18657499961203, 40.18260900023237], [-82.18679499972006, 40.182773000308806], [-82.18678499967432, 40.18281400009439], [-82.18673899964357, 40.1830160001995], [-82.18621099956397, 40.18979899981329], [-82.18619800004349, 40.18997099974624], [-82.1851140002952, 40.20387399986886], [-82.18510599989926, 40.20398900019274], [-82.18502100040877, 40.205080000290046], [-82.18501999968555, 40.205103999988516], [-82.18492199977626, 40.20671099994493], [-82.18484999980623, 40.20788199977805], [-82.18484700033152, 40.207936999688215], [-82.18483100043798, 40.20820299969648], [-82.18482800006493, 40.208251999872985], [-82.18481999966902, 40.208386999896106], [-82.18470300039147, 40.2103470000751], [-82.18470199966823, 40.21036399977062], [-82.18448900013122, 40.21389099998628], [-82.18448699958307, 40.21390800016479], [-82.18389599975428, 40.223712000267554], [-82.18373799957054, 40.22507400013087], [-82.18370499995856, 40.225287999912375], [-82.18368700041523, 40.22540400025493], [-82.18361100024725, 40.22589100021137], [-82.18360299985133, 40.225974999731555], [-82.18354000010214, 40.22661400021556], [-82.18349200042157, 40.227259999981705], [-82.1834880002236, 40.22745900014096], [-82.1835519997977, 40.22758899977417], [-82.18354099992705, 40.22773200011133], [-82.18319699997045, 40.23262299968077], [-82.18318699992471, 40.232751999795795], [-82.18318699992471, 40.23280799998723], [-82.18318699992471, 40.23293599985895], [-82.18285999968657, 40.23803700008705], [-82.18282299987665, 40.23862399969184], [-82.19539799990606, 40.23905200004256], [-82.1955059998611, 40.23905599993056], [-82.19591099991705, 40.23907099967979], [-82.19714600017639, 40.23911600027903], [-82.1972170003215, 40.23911899967794], [-82.2069109999285, 40.23948500008754], [-82.21527399991498, 40.23957700029153], [-82.21624200021063, 40.23961499995174], [-82.21667499985568, 40.23963199984698], [-82.21684100043535, 40.239634000116716], [-82.21734199985245, 40.23964000023988], [-82.2182249997593, 40.23964700015434], [-82.22782999967782, 40.2397420001952], [-82.2398039998327, 40.23992499999203], [-82.23986999995496, 40.23992599977968], [-82.24071100002901, 40.23994000023447], [-82.2423019999405, 40.23996099988259], [-82.24669899993135, 40.240015999811774], [-82.24680199986351, 40.240017000283814], [-82.24865600043906, 40.240050999868096], [-82.24921799995552, 40.240060999782926], [-82.24986999988369, 40.24007299995306], [-82.25259300012237, 40.240129000261696], [-82.26223200037607, 40.240161000221306], [-82.26256899976167, 40.24016200000552], [-82.2628030001134, 40.24016200000552], [-82.26297800001558, 40.24016299978973], [-82.26299599955892, 40.24016299978973], [-82.26304400013781, 40.24016299978973], [-82.26308900034367, 40.24016299978973], [-82.26312399960544, 40.24016299978973], [-82.26314399969694, 40.2401640002596], [-82.26315999959046, 40.2401640002596], [-82.26390399958012, 40.2401680000819], [-82.26497700035608, 40.240187999875474], [-82.26828300002762, 40.240184999838235], [-82.26850599961038, 40.240184999838235], [-82.26882199997787, 40.240184999838235], [-82.26925100032328, 40.240184000054406], [-82.26931800027043, 40.240184000054406], [-82.26936199975306, 40.240184000054406], [-82.2693929997152, 40.240184000054406], [-82.26941600017972, 40.240184000054406], [-82.26943299989816, 40.240184000054406], [-82.26944600031696, 40.240184000054406], [-82.2694990000204, 40.240184000054406], [-82.26951400008903, 40.24018700009169], [-82.26954599987606, 40.240184000054406], [-82.26956099994467, 40.240184000054406], [-82.2696339997396, 40.240184000054406], [-82.26976199978613, 40.240184000054406], [-82.26997900041943, 40.240183000270505], [-82.2700549996891, 40.240183000270505], [-82.27017400041309, 40.240183000270505], [-82.27840699980493, 40.24012499975136], [-82.2786019997986, 40.24012399996659], [-82.2788279997544, 40.240133999870636], [-82.27906999960373, 40.240135000341], [-82.27968100042233, 40.240136999910135], [-82.28043799993247, 40.2401700003358], [-82.28089499986696, 40.24017299968797], [-82.28094199972263, 40.23925099984019], [-82.281952999676, 40.23927399998237], [-82.28200999957741, 40.239274999779695], [-82.28263999976424, 40.23928000013744], [-82.28443099969229, 40.23928799988626], [-82.29090700038958, 40.239315999685275], [-82.29834899993608, 40.23938500002219], [-82.2985680002192, 40.23938700029923], [-82.30106299995394, 40.2394089999142], [-82.30128399988686, 40.239412999781095], [-82.30249599968168, 40.239429999727044], [-82.30275299959963, 40.239432999797735], [-82.30597999962848, 40.23947800015638], [-82.30888500034033, 40.23951800014532], [-82.30959900019278, 40.23952500007234], [-82.30961699973612, 40.23952500007234], [-82.30984199986702, 40.23952699965955], [-82.31247300004419, 40.23956899989119], [-82.3125440001893, 40.23956999968414], [-82.31256599993063, 40.23957100016278], [-82.31264600029657, 40.23957199995572], [-82.3129650001388, 40.23957700029153], [-82.31409699956765, 40.2395949999889], [-82.31412900025303, 40.2395949999889], [-82.3175050002448, 40.239627000200905], [-82.3193439998534, 40.2396479999461], [-82.32240500020087, 40.23968300019271], [-82.3260249996918, 40.23972500032758], [-82.32826800042976, 40.23977999976274], [-82.32863499995256, 40.23978899992789], [-82.32867500013553, 40.2397899997176], [-82.32930100012443, 40.23980499998996], [-82.32934100030741, 40.23980599977944], [-82.32940200040676, 40.23980800004403], [-82.32955600039254, 40.23981199988736], [-82.32976899992957, 40.239817000205456], [-82.33005799963458, 40.23982400010162], [-82.33014600039644, 40.239825999679944], [-82.33075200029384, 40.23984099994433], [-82.33100400018891, 40.239847000049146], [-82.33102000008245, 40.239847000049146], [-82.33105000021968, 40.239847999838005], [-82.33142900033636, 40.2398569999941], [-82.33199300040097, 40.23987099977738], [-82.33350700031957, 40.23990800017036], [-82.33656799976875, 40.23998299999678], [-82.33659899973088, 40.239983999783576], [-82.3463169996273, 40.24021299995203], [-82.352666000103, 40.24045400013419], [-82.35269500041531, 40.240454999914085], [-82.35648599961046, 40.240599000291404], [-82.36061599963762, 40.240793000096446], [-82.3606430003001, 40.240793999871336], [-82.36204599989064, 40.240853000277056], [-82.36317300019495, 40.24091599972374], [-82.36334999974696, 40.24092499973787], [-82.36434399998187, 40.240957000007036], [-82.36944399995451, 40.24118300031993], [-82.37107400022408, 40.2412199999959], [-82.37487299981512, 40.24127500027372], [-82.3801229995756, 40.241704999846], [-82.3802359995535, 40.24168300029142], [-82.380299000201, 40.241670999720945], [-82.38034299968363, 40.24166300025371], [-82.38036500032324, 40.24165899983406], [-82.38041100035399, 40.241649999917506], [-82.38056100014184, 40.241620999949646], [-82.38129500008576, 40.241620999949646], [-82.3817140003854, 40.241635000053925], [-82.38277800004222, 40.241669999959015], [-82.3828340001187, 40.24167200016854], [-82.38292000033245, 40.241675999901744], [-82.38314000044046, 40.24168600026228], [-82.38510500044578, 40.241778999978536], [-82.38515200030145, 40.241781000184886], [-82.3863180000655, 40.241836000006955], [-82.38796099985554, 40.241896999707535], [-82.38805100026723, 40.24189999966891], [-82.39116699996798, 40.242023000027835], [-82.391238999938, 40.24202599998362], [-82.39526699985792, 40.24218699970163], [-82.39536099956923, 40.242191999844366], [-82.39540400012525, 40.242194999792666], [-82.39655099962275, 40.24224900021072], [-82.39887600037648, 40.24234000033528], [-82.39903799985987, 40.24234600021863], [-82.39915000001287, 40.24234999991202], [-82.40051599979347, 40.24240100026745], [-82.40291799964177, 40.242520000033025], [-82.40297799991623, 40.242522999966795], [-82.40638599969505, 40.24270899971485], [-82.40692999966818, 40.24273799990232], [-82.40749000043314, 40.24275900005398], [-82.40773800013027, 40.242769000254484], [-82.4083680003171, 40.242783000121314], [-82.40954900014977, 40.24283499989529], [-82.41111699959673, 40.242903000330564], [-82.41189300027176, 40.242920999829344], [-82.41203499966367, 40.24292399974534], [-82.41706600003936, 40.24331400003534], [-82.41708600013082, 40.243319999832366], [-82.41713899983428, 40.24331300029766], [-82.41732999962998, 40.243306000076586], [-82.41814499976476, 40.24327700013244], [-82.41819800036653, 40.24327499997033], [-82.41921900036564, 40.24323000007834], [-82.4193719996282, 40.24325199981596], [-82.41939699974256, 40.24324199968675], [-82.41953999985768, 40.243256999879975], [-82.41977900023228, 40.243261999943634], [-82.41990300008084, 40.24325999978109], [-82.42006499956423, 40.243267000006924], [-82.42101199994349, 40.243306000076586], [-82.42330500001187, 40.24340099978297], [-82.42336699993614, 40.24340399967769], [-82.42388800034304, 40.243426999780425], [-82.42479600036424, 40.2434529997679], [-82.42510500016073, 40.243470999806135], [-82.42581900001318, 40.2434969997767], [-82.42689600008876, 40.243532999825], [-82.427511000207, 40.243576000048016], [-82.42782599985128, 40.243591000167235], [-82.42822000003657, 40.24360900016872], [-82.42827299974002, 40.24361100032101], [-82.42854899992456, 40.24362500001372], [-82.42881000004046, 40.24362700016548], [-82.42886500029203, 40.24362700016548], [-82.42898199956959, 40.24362700016548], [-82.42917999993631, 40.24362799989852], [-82.42919199963188, 40.24362799989852], [-82.42957199957347, 40.243630000050196], [-82.42960799955848, 40.243630000050196], [-82.42975099967362, 40.24362799989852], [-82.42976499991731, 40.24362799989852], [-82.42993599962153, 40.243625999746776], [-82.42994800021542, 40.243625999746776], [-82.42998400020043, 40.24362500001372], [-82.4299969997209, 40.24362500001372], [-82.43026799988256, 40.24362200012879], [-82.43047299992199, 40.24362400028064], [-82.43051599957968, 40.24362299986189], [-82.43219600007794, 40.24369900010459], [-82.43355500018586, 40.243760999914635], [-82.43400700009747, 40.24378100001818], [-82.43450699968967, 40.243803000262396], [-82.4352339999609, 40.2438370000024], [-82.43526499992305, 40.24383900014795], [-82.43667500008458, 40.24390299997333], [-82.4374099998534, 40.24393599993469], [-82.43853299995976, 40.243986999780944], [-82.44103100006754, 40.24409999977404], [-82.44622200027678, 40.24433700025727], [-82.44903500002883, 40.24446000030252], [-82.44937800016051, 40.24448000019955], [-82.45151300004513, 40.24457699975349], [-82.45184199993311, 40.244585999966624], [-82.45194300021544, 40.244595999897285], [-82.45209300000327, 40.24460299998497], [-82.45211399991967, 40.24460399970359], [-82.45213599966097, 40.24460500010784], [-82.4525239999985, 40.244622999839756], [-82.45261199986204, 40.24462599968034], [-82.45269200022797, 40.2446299999247], [-82.4532229997823, 40.244654999732276], [-82.45614500021263, 40.244823000119716], [-82.45761200027556, 40.24487800021306], [-82.45806400018718, 40.244900999814995], [-82.4581989999064, 40.24492400009479], [-82.4582199998228, 40.24493300026178], [-82.45824699958698, 40.24494399985474], [-82.45838899987719, 40.244931000148604], [-82.45842800023526, 40.24492699992202], [-82.45870100004672, 40.24492800032155], [-82.4612960002389, 40.245053999800184], [-82.46148899968443, 40.24506299994989], [-82.4624999996378, 40.24513899994728], [-82.46253200032314, 40.24514100005436], [-82.4626350002553, 40.24514599997886], [-82.46276300030183, 40.24515200029921]]]}, "properties": {"GEOID": "39089", "NAME": "Licking County", "BASENAME": "Licking", "STATE": "39", "COUNTY": "089", "AREALAND": "1767486151", "AREAWATER": "12753677", "INTPTLAT": "+40.0948237", "INTPTLON": "-082.4798957"}}], "_auspice": {"source_url": "https://tigerweb.geo.census.gov/arcgis/rest/services/TIGERweb/State_County/MapServer/1/query?where=GEOID%3D%2739089%27&outFields=GEOID%2CNAME%2CBASENAME%2CSTATE%2CCOUNTY%2CAREALAND%2CAREAWATER%2CINTPTLAT%2CINTPTLON&returnGeometry=true&outSR=4326&f=geojson", "fetched_at": "2026-08-26T23:13:26.185031+00:00", "service": "Census TIGERweb State_County layer 1"}}