{"type": "FeatureCollection", "features": [{"type": "Feature", "geometry": {"type": "Polygon", "coordinates": [[[-119.99952200021353, 45.80831000011957], [-119.99951899984049, 45.804519999812314], [-119.99950999961966, 45.80388199990159], [-119.9995120001678, 45.80208799993164], [-119.99951800001557, 45.80149200031252], [-119.9995120001678, 45.80062400031132], [-119.99951399981761, 45.80001499986978], [-119.99951399981761, 45.79970499969023], [-119.99949200007633, 45.789410000064656], [-119.99949200007633, 45.788885999737495], [-119.99949200007633, 45.7885699999755], [-119.99950499959677, 45.78824799995709], [-119.99948899970327, 45.78540500006758], [-119.9994710001599, 45.778457000294786], [-119.99948299985549, 45.777669000280206], [-119.99948200003055, 45.777520999836725], [-119.99948200003055, 45.77718999979386], [-119.99948399968041, 45.775373000063716], [-119.99948600022853, 45.767678999839575], [-119.99948600022853, 45.76661800012591], [-119.99948700005343, 45.76298300000259], [-119.9994710001599, 45.76180700003987], [-119.99944299967251, 45.76086300027055], [-119.99941599990832, 45.75780699980128], [-119.99940900023563, 45.75724100010365], [-119.99939800036498, 45.75656699990249], [-119.99939300034211, 45.75606399975653], [-119.99935300015913, 45.75398399969116], [-119.9993020001055, 45.75128699975646], [-119.9993010002806, 45.75123499988409], [-119.99925699989964, 45.74890900001725], [-119.999322000197, 45.74025799974601], [-119.99936700040284, 45.734787000089725], [-119.99897900006532, 45.720371000283755], [-119.99870899972856, 45.71085700002499], [-119.99869299983506, 45.71023200013405], [-119.99868799981219, 45.710068999962914], [-119.99868100013947, 45.709846999904286], [-119.99851299990999, 45.704029000116535], [-119.99813100031857, 45.69033700003027], [-119.99816099955748, 45.687967999712214], [-119.99815100041005, 45.68649600020662], [-119.99817200032646, 45.68439000021622], [-119.99816399993054, 45.683891000223035], [-119.99816499975546, 45.68373699993507], [-119.9981670003036, 45.683275000293165], [-119.99817599962613, 45.680903000273595], [-119.99818599967186, 45.6795160002194], [-119.99830200002279, 45.656523000191406], [-119.9983449996805, 45.64737099971889], [-119.99834899987844, 45.647138999964696], [-119.99844000011507, 45.628970000051005], [-119.99846699987926, 45.62387999996606], [-119.99849399964342, 45.61857299980993], [-119.99846199985637, 45.606642000193716], [-119.99844799961267, 45.604184999847845], [-119.99857099963633, 45.592681999930925], [-119.99857400000936, 45.59233900001725], [-119.99862300041318, 45.587887000293705], [-119.998661000048, 45.58440300013125], [-119.99868600016235, 45.58222799971561], [-119.99869000036031, 45.581737999816134], [-119.99869399965998, 45.581333000270305], [-119.99870399970571, 45.58044399980152], [-119.99884000014816, 45.5678770002292], [-119.99884900036899, 45.56703399990761], [-119.99899400013395, 45.55090800023278], [-119.99899499995884, 45.55073300017205], [-119.99899499995884, 45.55064999999589], [-119.99899499995884, 45.550452000225164], [-119.99899400013395, 45.5502329999618], [-119.9990050000046, 45.54943600029115], [-119.99901000002747, 45.54858499987188], [-119.99918300027983, 45.52468899972296], [-119.99921099986891, 45.520496999859446], [-119.99921599989177, 45.520020000164266], [-119.99924199983107, 45.51753899977419], [-120.0002870001196, 45.51753500030373], [-120.00075400009983, 45.517532999938965], [-120.00467599971452, 45.5175130000641], [-120.00476199992823, 45.5175130000641], [-120.00476399957807, 45.51749700028502], [-120.00477799982178, 45.51741100021408], [-120.00478299984466, 45.51738199988968], [-120.00478399966956, 45.51727699987088], [-120.00478299984466, 45.5171569999691], [-120.00485900001263, 45.50246800023255], [-120.00476699995113, 45.502225999701196], [-120.00475199988253, 45.501958999877445], [-120.0047379996388, 45.50001499982629], [-120.00468800030842, 45.478923000246176], [-120.00468300028554, 45.477096000218644], [-120.00467900008759, 45.47691199981371], [-120.00468199956231, 45.47608800021582], [-120.00467800026267, 45.474948999791444], [-120.00462999968377, 45.45186199971363], [-120.00459899972165, 45.44193000031253], [-120.00459100022404, 45.44118800003122], [-120.00458299982812, 45.43715200021836], [-120.00457100013256, 45.43050999981507], [-120.00457100013256, 45.43038300022398], [-120.00457100013256, 45.430154000050536], [-120.00462999968377, 45.42657100021592], [-120.00468800030842, 45.42298699995129], [-120.00468900013331, 45.422957000210765], [-120.00468900013331, 45.422925999852644], [-120.00474699985965, 45.41940399980667], [-120.00480600030919, 45.41581999982138], [-120.0048649998604, 45.41223600000838], [-120.00492299958674, 45.40874799975473], [-120.00492299958674, 45.40502899993983], [-120.00492099993693, 45.40140599984052], [-120.00495500027212, 45.39881800028658], [-120.00510400023502, 45.38722700005005], [-120.00511400028076, 45.38647500005187], [-120.00511799958042, 45.38620300013937], [-120.0051240003265, 45.38577100007477], [-120.00512599997631, 45.385582000112485], [-120.00513500019716, 45.38492499974386], [-120.00515500028865, 45.382375999754515], [-120.00529599985565, 45.37247100017214], [-120.00529900022869, 45.37212199968476], [-120.00543599959774, 45.36119699978821], [-120.00545700041245, 45.35953499969025], [-120.00546699955987, 45.35933200019354], [-120.00549199967423, 45.35667699980188], [-120.00551599996366, 45.35464800011352], [-120.0055469999258, 45.352059999722115], [-120.00556500036748, 45.3505530000515], [-120.00557600023814, 45.350105999762825], [-120.00557500041324, 45.34968999989166], [-120.00562999976648, 45.34716500005735], [-120.00565700042898, 45.34565599996125], [-120.0057369998966, 45.33395299982961], [-120.00575199996523, 45.330629000156115], [-120.0057710002318, 45.326868000136244], [-120.00577500042975, 45.326033000020644], [-120.00579299997312, 45.32244500026286], [-120.00579799999596, 45.32146800008202], [-120.00580600039189, 45.31993600025643], [-120.00581499971442, 45.31817999981461], [-120.00586800031618, 45.312843000115585], [-120.00590400030119, 45.30931499974908], [-120.00591900036979, 45.30814800022307], [-120.00596500040056, 45.30447799996699], [-120.00604400004327, 45.298204999697575], [-120.00611400036347, 45.29266500000942], [-120.00616200004404, 45.288868000056596], [-120.00628000004482, 45.27948999999675], [-120.00631199983188, 45.27648300005842], [-120.00632299970253, 45.276089000147515], [-120.00637299993124, 45.272096999740484], [-120.00639499967257, 45.27185599978315], [-120.00637899977903, 45.27029299995351], [-120.0064120002893, 45.26899599973459], [-120.00652899956687, 45.25975300003322], [-120.00655500040445, 45.25770599992419], [-120.00040900031834, 45.257667000256305], [-119.99480300000741, 45.257630999760856], [-119.98002799979604, 45.257537000116095], [-119.97875900009984, 45.25752899970863], [-119.97560800023895, 45.25750899994968], [-119.97463499992044, 45.257503000273516], [-119.97316200000972, 45.25749499986127], [-119.97267599976293, 45.257491000287054], [-119.96924500041789, 45.25746899977829], [-119.93857500026184, 45.25727399972491], [-119.93740399957659, 45.25726099995044], [-119.92209600016108, 45.257168999807924], [-119.92135299999633, 45.25716699969316], [-119.90620299986624, 45.25706799993343], [-119.90613900029213, 45.25706500007212], [-119.89931299979044, 45.257023999844286], [-119.89775100019128, 45.25701699974071], [-119.89675000028367, 45.257008000148296], [-119.89220900035276, 45.25697899997651], [-119.89029899970073, 45.25696699987926], [-119.8895299995967, 45.25696199989072], [-119.8869880000063, 45.2569440000547], [-119.88234599979305, 45.25691600022819], [-119.88235599983878, 45.2559600001273], [-119.88235500001389, 45.254349999933716], [-119.8823929996487, 45.243845999902376], [-119.88239900039481, 45.24200100020798], [-119.88240299969446, 45.240365999982444], [-119.88241199991529, 45.23832200025152], [-119.88244000040271, 45.231628999701705], [-119.8823640002347, 45.22763700023886], [-119.882354000189, 45.22717199971867], [-119.8824410002276, 45.22160700030094], [-119.88245600029624, 45.22112600013021], [-119.88247600038774, 45.22031600021004], [-119.88247600038774, 45.22022399970807], [-119.88247899986244, 45.22003299992381], [-119.88262199997759, 45.214980000294545], [-119.8826370000462, 45.21443099978251], [-119.88275900024492, 45.21009099971297], [-119.88305600034586, 45.19956999969559], [-119.88308499975986, 45.19871700020186], [-119.88317099997357, 45.195499000178025], [-119.88322299985211, 45.193696999924235], [-119.88322700005008, 45.19353000008736], [-119.88323399972276, 45.193261000176335], [-119.8832499996163, 45.19284800007875], [-119.8832499996163, 45.19269100017821], [-119.88332999998222, 45.18984800017166], [-119.88335000007372, 45.189142000005496], [-119.88374199971088, 45.175339000175505], [-119.8837640003505, 45.17447900021958], [-119.88391400013835, 45.16915200028363], [-119.88107100024905, 45.16921899988369], [-119.87903599992354, 45.169267000276534], [-119.87800900007664, 45.16929100014112], [-119.87391900023246, 45.16938800015055], [-119.86859400012894, 45.16951499986747], [-119.86783599989556, 45.1695330001635], [-119.86583400008031, 45.169580000276284], [-119.86580300011818, 45.16958100029173], [-119.86214699974394, 45.16966700028838], [-119.86055900020548, 45.16966400024648], [-119.86033700044767, 45.16966400024648], [-119.85447199967065, 45.16966600027444], [-119.85424599971483, 45.16966700028838], [-119.84517100042405, 45.16966400024648], [-119.84465900023795, 45.1696630002325], [-119.84283599962455, 45.16966400024648], [-119.84260600036912, 45.169662000218494], [-119.84222300005446, 45.16966400024648], [-119.82709499966568, 45.169583999704656], [-119.82647399969966, 45.16958100029173], [-119.81961799995908, 45.169543999708274], [-119.81944200023199, 45.16954200030936], [-119.80619400035799, 45.169467999701034], [-119.80023999989253, 45.16943499974969], [-119.79191399971597, 45.169389000169396], [-119.79102800033439, 45.16938400007507], [-119.79081200042432, 45.16938300005617], [-119.79073500043144, 45.16938300005617], [-119.78609599969292, 45.1693570001916], [-119.78486800000456, 45.16935000005558], [-119.78478699981372, 45.16935000005558], [-119.78045900031817, 45.169326000215804], [-119.78030500033239, 45.16932500019588], [-119.77990100010133, 45.16932300015594], [-119.7741600000712, 45.16929100014112], [-119.77104299964722, 45.16927399978948], [-119.76766500000564, 45.16925500002378], [-119.76486099957611, 45.16923900031618], [-119.76267299998803, 45.16922700005753], [-119.75975899995363, 45.16921099970873], [-119.75981699967996, 45.16309699978368], [-119.75997400003881, 45.14647799985747], [-119.75997700041184, 45.14619999999092], [-119.76004900038187, 45.1385820001201], [-119.7600669999252, 45.136501999744446], [-119.76021599988813, 45.12193800026187], [-119.76061900029427, 45.08960899995403], [-119.76064299968539, 45.08822000031093], [-119.7606719999977, 45.08553599986756], [-119.76068000039362, 45.08529900016977], [-119.76073100044725, 45.08127799995525], [-119.76130499965927, 45.08127700029353], [-119.76280000020964, 45.08127599999754], [-119.76360199992563, 45.08127499970148], [-119.76437900042555, 45.08127499970148], [-119.77541600024693, 45.08126499991158], [-119.776653999981, 45.08126400024964], [-119.7885100001351, 45.08125500011989], [-119.7901079997193, 45.08125100020275], [-119.79032799982734, 45.08125300016138], [-119.79083099979258, 45.08125300016138], [-119.79071899963958, 45.07011700015673], [-119.79070399957097, 45.06860200010627], [-119.79069900044641, 45.067822999928005], [-119.79067299960883, 45.06413099987449], [-119.79067400033207, 45.06105400010053], [-119.79067299960883, 45.060568000022165], [-119.79066299956307, 45.05743400010142], [-119.79066099991329, 45.05694199982265], [-119.79065099986752, 45.05381500014946], [-119.79065800043854, 45.05331499989207], [-119.79070799976891, 45.04967999985272], [-119.79071299979178, 45.049265000120094], [-119.79071699998975, 45.04915100012206], [-119.79079999983043, 45.04294699980419], [-119.79080700040144, 45.04240900010954], [-119.79085000005917, 45.0393240000398], [-119.79085400025711, 45.038774000137], [-119.79093799992269, 45.028602000183405], [-119.79092700005204, 45.028353999829875], [-119.79093100025001, 45.027768999930935], [-119.79095200016641, 45.02468899984951], [-119.79095600036436, 45.024114000221395], [-119.79096100038726, 45.023516999725075], [-119.79097800010567, 45.02103599984899], [-119.79098200030361, 45.0204329997297], [-119.79100400004494, 45.01737399978111], [-119.79100700041796, 45.01688299990491], [-119.79102900015928, 45.013713000046], [-119.79103400018218, 45.013095999760175], [-119.79104500005283, 45.011376000036606], [-119.79104599987772, 45.011272000089754], [-119.79105500009855, 45.01005099970108], [-119.79106000012145, 45.00942800018208], [-119.79108199986275, 45.00616099998597], [-119.79108500023578, 45.0057600000582], [-119.7910919999085, 45.00486900023016], [-119.7911069999771, 45.0026419999368], [-119.79110899962691, 45.00240300003309], [-119.79111100017505, 45.00209100029282], [-119.79111199999997, 45.001834000140605], [-119.79111899967266, 45.00111900025093], [-119.79112500041876, 44.99954000001716], [-119.79113000044163, 44.999348999695776], [-119.79113600028943, 44.99857900000762], [-119.79113700011435, 44.998422999783706], [-119.79116200022868, 44.99475500013448], [-119.78725399995938, 44.99478999993737], [-119.78610200043903, 44.99480000024011], [-119.78429600044237, 44.99481699986148], [-119.78378699973102, 44.994821000107954], [-119.78241099990468, 44.99483400011298], [-119.78171899979355, 44.994815999958604], [-119.78104500012408, 44.99478800013069], [-119.77753600006292, 44.99488299976354], [-119.77566599959387, 44.99493299990823], [-119.77492400015234, 44.994951999926386], [-119.77263299973379, 44.99501499997489], [-119.77024400030426, 44.995193000211586], [-119.76762499982266, 44.99513700027527], [-119.76521299992858, 44.99508599977514], [-119.76260400039105, 44.99503100026863], [-119.76018199955293, 44.995004999709664], [-119.75912600029206, 44.994993000278406], [-119.75889600013828, 44.994990999843594], [-119.75811799981341, 44.99498300000934], [-119.75800099963756, 44.99498200010936], [-119.75316099995591, 44.99493100010659], [-119.75259299969335, 44.99492500006587], [-119.74981500010138, 44.9949630001012], [-119.74845199979555, 44.994934999709834], [-119.74834999968827, 44.99493299990823], [-119.74810899966386, 44.994926999867765], [-119.74145899978758, 44.99475799984616], [-119.73957499997316, 44.99471500015202], [-119.73804000013813, 44.994729999989914], [-119.73750000036299, 44.99470999999347], [-119.73444800023631, 44.994703000024806], [-119.73409900025686, 44.99470200011998], [-119.73367400010942, 44.9947010002151], [-119.73137799966801, 44.99467899976283], [-119.72932700034728, 44.99464299998627], [-119.7276950004279, 44.99464900005647], [-119.7240919997571, 44.9946630000061], [-119.72325599970594, 44.994669000074204], [-119.72248699960191, 44.99466599972259], [-119.71885600024036, 44.99470599973921], [-119.71774400000464, 44.99471600005666], [-119.71371299971169, 44.99475500013448], [-119.71312199988289, 44.99475400023052], [-119.7094119999803, 44.994774000211606], [-119.70822299975171, 44.9947810001716], [-119.70759599993791, 44.99477799982584], [-119.70329000018364, 44.99478900003406], [-119.70261999981383, 44.99478999993737], [-119.69807499968495, 44.9948860001038], [-119.69748999970396, 44.99487900015663], [-119.69283099977228, 44.994821000107954], [-119.69235899976917, 44.994815999958604], [-119.68847800016236, 44.994893000050055], [-119.68765299998182, 44.994908999742584], [-119.68732400009385, 44.99491299998263], [-119.68255100035937, 44.99496400000145], [-119.6822869998704, 44.994965999801984], [-119.67882600038818, 44.99500200001091], [-119.6774489998386, 44.994989000043944], [-119.67725700021799, 44.99499400017819], [-119.67222800039046, 44.9951169997856], [-119.66775500023161, 44.99472399992819], [-119.66706499977029, 44.994663999911594], [-119.66492099966484, 44.9946519997737], [-119.66289399973526, 44.99464000026857], [-119.66261900027396, 44.99463899972737], [-119.6581729998793, 44.994613000261054], [-119.65795100012144, 44.99461199971939], [-119.6530069997844, 44.99458399979181], [-119.65236400007709, 44.99458499969873], [-119.64842099964767, 44.99458999986818], [-119.64655500027487, 44.99459200031705], [-119.64374499999757, 44.99459599994394], [-119.64137199956323, 44.99459900029922], [-119.63839800015273, 44.994602000019114], [-119.63618899974993, 44.994604999738804], [-119.63458500031795, 44.99460700018708], [-119.63317099995848, 44.99461599998018], [-119.6329619997211, 44.99460900000007], [-119.63100599993662, 44.99461099981298], [-119.62796700022876, 44.99461500007383], [-119.62582300012332, 44.994617999792844], [-119.62568500003104, 44.994617999792844], [-119.62391500001938, 44.994621000146964], [-119.6229719998381, 44.994621000146964], [-119.62097500004575, 44.99462399986566], [-119.61797700034576, 44.99462800012565], [-119.61612799979308, 44.99462999993785], [-119.61298199995511, 44.99463400019743], [-119.61128100043875, 44.99461599998018], [-119.60831499962751, 44.994586000240865], [-119.60643400018608, 44.99456700010136], [-119.605890000213, 44.9945639997444], [-119.604964999575, 44.99455300012829], [-119.60389099987248, 44.99453399997784], [-119.60364700037333, 44.994539000151796], [-119.60122999955807, 44.99472000031018], [-119.5976279996105, 44.994990999843594], [-119.59694999974307, 44.99504099989405], [-119.59528199983869, 44.99516800025815], [-119.59472799981984, 44.995208999820356], [-119.59429900037273, 44.99524499987664], [-119.59409699980806, 44.99525199977905], [-119.5938740002253, 44.9952720002216], [-119.59337399973481, 44.99531000002677], [-119.59110300030602, 44.99530699970877], [-119.58842500027319, 44.99530400002578], [-119.58616900001473, 44.99530200023709], [-119.5834759999133, 44.99529899991862], [-119.5810409995547, 44.99529800002416], [-119.57690100038012, 44.99529299991647], [-119.5736750001762, 44.99529499970547], [-119.57071000008817, 44.99529399981098], [-119.56858799972403, 44.99530400002578], [-119.56808800013184, 44.9952920000219], [-119.5655520003892, 44.9952920000219], [-119.56039399979194, 44.99529100012736], [-119.55841500044124, 44.99529000023276], [-119.55523600009298, 44.9952889997029], [-119.55336599962392, 44.99528799980831], [-119.5528939996208, 44.99531099992103], [-119.5500909999145, 44.995446000092706], [-119.54498300044426, 44.99569200027947], [-119.54456499996952, 44.99568899998141], [-119.54362900035922, 44.99567799994602], [-119.53982700039512, 44.99569499994215], [-119.53893899956711, 44.99569499994215], [-119.5346720001709, 44.99569800023984], [-119.53385100018835, 44.99569800023984], [-119.5295200003197, 44.995701999789596], [-119.52876299991127, 44.995701999789596], [-119.52727999995481, 44.99570400019963], [-119.52436900029346, 44.99570400019963], [-119.52367499963418, 44.99570500008697], [-119.51923499998561, 44.99571100004598], [-119.51858899990523, 44.99571100004598], [-119.51410200040101, 44.99571799989151], [-119.51350300017631, 44.99571799989151], [-119.5124110000321, 44.99572000030095], [-119.51187299990674, 44.995724999736154], [-119.50901900014682, 44.995724999736154], [-119.50841700044738, 44.995724999736154], [-119.50400399966466, 44.995730999693066], [-119.5033989995922, 44.995730999693066], [-119.50113800020917, 44.99572700014538], [-119.4988579996613, 44.99573200021519], [-119.49831200003833, 44.99573200021519], [-119.49371400020603, 44.99573300010209], [-119.49322399976126, 44.99573300010209], [-119.49248300014465, 44.99573700028461], [-119.49120900042556, 44.99572899991924], [-119.48856499982959, 44.995733999988914], [-119.4881370002074, 44.995733999988914], [-119.48341700017637, 44.99573499987573], [-119.48304999975527, 44.99573499987573], [-119.47821400027155, 44.99572899991924], [-119.47797099969901, 44.99572899991924], [-119.47301300001659, 44.99572299996211], [-119.47289300036597, 44.99572299996211], [-119.46775599968511, 44.99571600011723], [-119.46273799972823, 44.995710000158745], [-119.46249800042703, 44.995710000158745], [-119.45764100012866, 44.99569699971712], [-119.45722699985185, 44.99569699971712], [-119.4553499997101, 44.99570500008697], [-119.45390199991373, 44.99567199998355], [-119.45254299980583, 44.995685999683204], [-119.451956000175, 44.995685999683204], [-119.44884100029914, 44.99568399990786], [-119.44744500038134, 44.995675000282446], [-119.44669600036877, 44.995673999759326], [-119.44439900010245, 44.99567700005816], [-119.44234700005852, 44.99566400024436], [-119.44143599966424, 44.99566400024436], [-119.43724700008585, 44.9956509997923], [-119.43627799996531, 44.995649999904025], [-119.43214700011322, 44.995637000084045], [-119.43111900044143, 44.995636000195525], [-119.42870400017433, 44.995632000005955], [-119.42589200024719, 44.99562600003866], [-119.42360400020168, 44.995621999848346], [-119.42066400022802, 44.995614999991126], [-119.41850599987886, 44.995614999991126], [-119.41546299997306, 44.995615999880016], [-119.41341099992908, 44.995615999880016], [-119.41026099989315, 44.99561699976889], [-119.40983400009588, 44.99561699976889], [-119.40878399978449, 44.99560700024398], [-119.40831699980424, 44.99561699976889], [-119.4051309997833, 44.99561800029306], [-119.40322299967937, 44.99561800029306], [-119.40000200039664, 44.99561800029306], [-119.3981269999047, 44.9956190001819], [-119.39784999989527, 44.99564100027332], [-119.39486100041613, 44.99562000007071], [-119.39302600010716, 44.99562000007071], [-119.39069200003088, 44.995613000213254], [-119.3897200004356, 44.99562099995956], [-119.3879250003096, 44.99562099995956], [-119.38458199992982, 44.995621999848346], [-119.38282399961372, 44.995621999848346], [-119.37944400032235, 44.99562299973716], [-119.37772000034145, 44.99562500014991], [-119.3742740000295, 44.99563299989454], [-119.3726079997749, 44.99563500030698], [-119.37175500000531, 44.995637000084045], [-119.36910399973665, 44.99564399993862], [-119.36749500028182, 44.99564599971543], [-119.36395699990835, 44.995654000092344], [-119.36238199989039, 44.99565599986879], [-119.36166200019015, 44.99564800012737], [-119.35880900025514, 44.9956650001324], [-119.35726799967405, 44.995667999796446], [-119.35541300017188, 44.99569200027947], [-119.35364399998518, 44.9956880000938], [-119.35214799960991, 44.99569099975665], [-119.3484789997152, 44.99571100004598], [-119.34702699972088, 44.99571399970761], [-119.34332100001622, 44.995733999988914], [-119.34248900016303, 44.9957650002841], [-119.34190599983185, 44.99573700028461], [-119.33816199959405, 44.99575799980904], [-119.3367849999428, 44.99576199998987], [-119.33299899987223, 44.99578999997709], [-119.33166200040392, 44.99579300026986], [-119.32816400021345, 44.99582100024198], [-119.32653899996676, 44.99582600030363], [-119.32269599999479, 44.99585500014435], [-119.3214160004279, 44.99585799979845], [-119.32110000006041, 44.995865000261254], [-119.32029199959833, 44.99587399985681], [-119.31755800038731, 44.995887000258236], [-119.31629299999074, 44.995892000314136], [-119.31236600035314, 44.995938999928754], [-119.31116799990373, 44.995943000096894], [-119.30717500014391, 44.99599100018733], [-119.3066110000793, 44.995992999952016], [-119.30604299981674, 44.99599499971659], [-119.30604299981674, 44.99569599982964], [-119.30028300041833, 44.995712999820434], [-119.29869400015667, 44.99571799989151], [-119.29767200033265, 44.99571600011723], [-119.29518599992042, 44.99572999980619], [-119.29212299992311, 44.995739999944895], [-119.29192499955639, 44.99573700028461], [-119.29045599984362, 44.99574800030874], [-119.29008799959762, 44.99574599990024], [-119.28985099977116, 44.99574400012693], [-119.28499099999802, 44.99576299987619], [-119.2798929996752, 44.995778999961075], [-119.27823700036468, 44.9957830001404], [-119.27479600007561, 44.99579599992725], [-119.26970199995077, 44.995799000219655], [-119.26894100024266, 44.995799000219655], [-119.26533099989918, 44.99580400028323], [-119.263284999703, 44.99580400028323], [-119.2595329999676, 44.995811000117406], [-119.25445800010934, 44.99582100024198], [-119.24938300025104, 44.99583099972959], [-119.24430900021768, 44.99584199973567], [-119.2390529997111, 44.99586700003034], [-119.2381580001087, 44.995887000258236], [-119.23416600017379, 44.99589099979475], [-119.22894200035259, 44.995929999708174], [-119.22402300012993, 44.99594099969525], [-119.2189239999822, 44.995969000230275], [-119.2179099996558, 44.99598199997492], [-119.21382400000957, 44.9959970001164], [-119.20872400003692, 44.99602499998884], [-119.20362499988919, 44.99605299984755], [-119.19969800025162, 44.996068999851474], [-119.19852499991654, 44.99607600028849], [-119.19342499994389, 44.99609999996542], [-119.18832499997129, 44.99612400026752], [-119.18322499999861, 44.99614700004471], [-119.17913000013155, 44.996180999753605], [-119.1781600001861, 44.99617099969185], [-119.17790300026815, 44.99618300014692], [-119.17640100004509, 44.9961720002063], [-119.17309500037354, 44.99619400008543], [-119.16802999966269, 44.9962169998345], [-119.16296599967507, 44.9962410000876], [-119.16302000010175, 45.00455600021344], [-119.16303900036833, 45.00841000030024], [-119.16305100006389, 45.00924900005896], [-119.16305699991167, 45.01023600020148], [-119.16305799973657, 45.013049999832845], [-119.16305699991167, 45.01426600006916], [-119.16305500026183, 45.01538000013412], [-119.1630529997137, 45.01785800021253], [-119.16305000023897, 45.01792999978019], [-119.16305199988878, 45.01906299996421], [-119.16305899956149, 45.01907899989202], [-119.16305100006389, 45.03592900007103], [-119.16302900032257, 45.03805599993016], [-119.16303500017035, 45.03897599972766], [-119.16303599999527, 45.039064999852016], [-119.1630329996222, 45.03940600003869], [-119.16304600004102, 45.04180399973032], [-119.16307500035333, 45.04367100021619], [-119.16307700000316, 45.04741600017974], [-119.16307799982808, 45.04906000000512], [-119.16306100010962, 45.05085799976977], [-119.16305600008675, 45.05172699976034], [-119.16304900041405, 45.053254999694346], [-119.16304600004102, 45.05392099988361], [-119.16300400020822, 45.0575900001262], [-119.16297200042116, 45.060435999875025], [-119.1629620003754, 45.06125799972501], [-119.16296400002524, 45.06489700028244], [-119.16296499985016, 45.06853500026149], [-119.16297400007099, 45.06955499974568], [-119.1629969996372, 45.07216300015037], [-119.16302900032257, 45.07579199977935], [-119.1630329996222, 45.079401999952715], [-119.16303699982019, 45.08286299994879], [-119.16303699982019, 45.08294299978718], [-119.1610330003551, 45.08294299978718], [-119.160341000244, 45.08294900011942], [-119.16025800040332, 45.08294299978718], [-119.15901399992315, 45.082944000054034], [-119.15647800018051, 45.08294299978718], [-119.15594500007805, 45.082944000054034], [-119.15590900009305, 45.082942000154596], [-119.15425799990709, 45.08294299978718], [-119.15155700030802, 45.082942000154596], [-119.15054700017957, 45.08293700008861], [-119.1499439997569, 45.082937999721274], [-119.14920099959214, 45.0829400002551], [-119.14642399982509, 45.0829400002551], [-119.14642499965001, 45.08300200027808], [-119.14642800002306, 45.083211999896854], [-119.14644599956641, 45.0845939997761], [-119.14647400005381, 45.086580999734956], [-119.14652400028253, 45.09022300004529], [-119.1465359999781, 45.09178900024283], [-119.14654299965079, 45.092181999765494], [-119.14657399961293, 45.09386400016503], [-119.14662300001675, 45.097506000264744], [-119.14662999968942, 45.098332000266524], [-119.14664700030619, 45.101137000097154], [-119.14665999982667, 45.102911999855], [-119.14666200037479, 45.10315300030633], [-119.1466699998724, 45.10476799981477], [-119.14667800026832, 45.105243000112935], [-119.14668300029119, 45.10556099984574], [-119.14669400016184, 45.10839999982879], [-119.14669800035979, 45.10972900011487], [-119.14671699972806, 45.11203099975552], [-119.14671699972806, 45.11220100010735], [-119.14672299957586, 45.113461000130634], [-119.1467319997967, 45.11475699993143], [-119.14673299962159, 45.114973000206454], [-119.14673299962159, 45.11566200006957], [-119.14673799964446, 45.11688899979477], [-119.14673799964446, 45.11700099975239], [-119.14674900041341, 45.11929300009298], [-119.1467540004363, 45.12058899992345], [-119.14675299971306, 45.12205700005901], [-119.14676299975883, 45.122164999793206], [-119.14678000037557, 45.1265540002231], [-119.14677399962949, 45.12749799985696], [-119.14678700004828, 45.13017200012381], [-119.14678899969807, 45.1310720001063], [-119.14679700009401, 45.13555199970473], [-119.14679999956873, 45.13744600012506], [-119.14680600031485, 45.14078199993538], [-119.14680700013976, 45.141024999912986], [-119.14680600031485, 45.14377499974662], [-119.14680700013976, 45.14466799984271], [-119.14680899978957, 45.148162000292636], [-119.14680700013976, 45.14831100013371], [-119.14679899974384, 45.1485069999778], [-119.14680799996465, 45.14931100004341], [-119.14680700013976, 45.150138999868986], [-119.14680799996465, 45.15064700016803], [-119.14680700013976, 45.153114999925336], [-119.14680700013976, 45.15434599973802], [-119.14680799996465, 45.155597999981715], [-119.14679399972096, 45.1592300001245], [-119.14678500039844, 45.16150800022216], [-119.14678399967522, 45.161862000288494], [-119.1467829998503, 45.16212799991801], [-119.14678000037557, 45.16286099982139], [-119.14677899965235, 45.16349700005283], [-119.14678000037557, 45.16369800020309], [-119.14677799982744, 45.16391799992957], [-119.14677600017762, 45.16537800007943], [-119.14677399962949, 45.16625999975229], [-119.14677399962949, 45.16651500025376], [-119.14677000032982, 45.168708999782226], [-119.14676899960659, 45.16888599988404], [-119.14678899969807, 45.17103399976565], [-119.1468110003377, 45.17193899993125], [-119.14683800010188, 45.172942999852786], [-119.14692699979034, 45.17644999992923], [-119.1469290003385, 45.17682899997213], [-119.146937999661, 45.178120999789286], [-119.1469579997525, 45.18056199970799], [-119.14698899971464, 45.18467499986541], [-119.1469939997375, 45.18580100019878], [-119.1469949995624, 45.18630500022843], [-119.14699600028564, 45.18652099987003], [-119.14701200017916, 45.18828600024536], [-119.1470349997454, 45.19191500028478], [-119.14705200036214, 45.19471699998122], [-119.14705800020991, 45.195506999825], [-119.14705900003483, 45.19604099982963], [-119.14708099977614, 45.19911799982758], [-119.14708300032427, 45.201235000216755], [-119.14708400014919, 45.20271899977702], [-119.14708699962391, 45.206321000298175], [-119.14708999999696, 45.20992200001265], [-119.14709099982188, 45.21020799979554], [-119.14709400019493, 45.21352300020947], [-119.1471550002943, 45.2185970001852], [-119.14716699998986, 45.220368000207834], [-119.14717799986052, 45.22076200020325], [-119.14719299992912, 45.224384999922584], [-119.14720399979979, 45.226945999807924], [-119.14720799999776, 45.22800799968627], [-119.14724200033292, 45.23165699997428], [-119.14724599963257, 45.23223299971939], [-119.14725099965544, 45.23338699972947], [-119.14725900005136, 45.23437999980152], [-119.14726300024934, 45.23466599993134], [-119.14730699973195, 45.238139999968475], [-119.14730900028007, 45.23895499988331], [-119.14732699982342, 45.240783999980515], [-119.14732699982342, 45.24107999975053], [-119.14732699982342, 45.241331000259734], [-119.14732699982342, 45.241547999753365], [-119.14734000024221, 45.242376000142976], [-119.14734199989205, 45.24260500004479], [-119.14731199975482, 45.24667499989833], [-119.14728099979268, 45.25071600012993], [-119.14727300029507, 45.25309500008412], [-119.14728199961758, 45.25343100009536], [-119.14726599972406, 45.254592000015066], [-119.14726400007423, 45.255936000131996], [-119.14824300024057, 45.25593900005291], [-119.14805499991958, 45.25954699975049], [-119.14786699959859, 45.26315400007584], [-119.14767900017593, 45.26676100011608], [-119.14749699970275, 45.27033800001649], [-119.1473310000214, 45.273957999746045], [-119.1471700003629, 45.27754700012619], [-119.1470089998061, 45.28113599980234], [-119.14684800014766, 45.28472400010787], [-119.14677600017762, 45.28664599996831], [-119.14671199970522, 45.28834200017193], [-119.14663100041265, 45.290511999960444], [-119.14643200022104, 45.29630499973233], [-119.14631400022024, 45.2992329999334], [-119.14630199962635, 45.299539000298495], [-119.14625499977072, 45.302798000262364], [-119.14626399999153, 45.30369600005788], [-119.14623399985432, 45.306387000242374], [-119.1461989996942, 45.30998499984481], [-119.14616400043242, 45.313581999731554], [-119.1461140002037, 45.31717199973308], [-119.14606499979989, 45.32076199969484], [-119.1460149995712, 45.324352000205664], [-119.14596600006571, 45.32794299971679], [-119.14585700028576, 45.331649999956426], [-119.14575000015564, 45.33536299971923], [-119.14573799956176, 45.33593200030452], [-119.14562899978182, 45.34231499988246], [-119.14565399989617, 45.34955499970278], [-119.14566599959174, 45.35318200012513], [-119.14566700031496, 45.353640000026914], [-119.14568800023136, 45.359314000013335], [-119.14573599991193, 45.37228600023806], [-119.1457330004372, 45.37269299979909], [-119.1457330004372, 45.37276699969145], [-119.14574299958463, 45.37489800018534], [-119.1457550001785, 45.378518000142485], [-119.14576799969899, 45.38213899998], [-119.14578000029286, 45.385759000095945], [-119.14575799965326, 45.38938600011219], [-119.14578000029286, 45.390279999807774], [-119.14577600009491, 45.39052300026589], [-119.14573599991193, 45.39301400004821], [-119.14573799956176, 45.3966510000051], [-119.14569200042934, 45.4002680000235], [-119.14565399989617, 45.4035410000783], [-119.14565100042144, 45.40381499979497], [-119.14565899991904, 45.40747300030328], [-119.1456639999419, 45.40778200005839], [-119.14564300002552, 45.411075999955955], [-119.14562700013198, 45.41467799982533], [-119.14562200010911, 45.41832099976642], [-119.14562299993403, 45.42138999994364], [-119.14561799991117, 45.42196299987682], [-119.1456129998883, 45.425605000228714], [-119.14561000041354, 45.4285790001077], [-119.1456079998654, 45.42924800000575], [-119.14561500043642, 45.42973400007615], [-119.14567399998765, 45.43287799995186], [-119.14574000010991, 45.43650800028997], [-119.14580500040721, 45.44013799971465], [-119.14587099963116, 45.44376800007235], [-119.14583399982124, 45.44738700010128], [-119.1458100004301, 45.44981900022426], [-119.14579700001129, 45.451518000300034], [-119.14572699969109, 45.45819500023957], [-119.14571699964536, 45.45920000029834], [-119.14561600026133, 45.469191999827885], [-119.14557899955311, 45.472719999900185], [-119.14554299956811, 45.476338999732796], [-119.14550599975816, 45.47995800020784], [-119.14546999977316, 45.48357800017707], [-119.14543299996323, 45.48719699985007], [-119.14539699997823, 45.49081600003245], [-119.14536000016828, 45.49443500005004], [-119.14534299955154, 45.49619600023695], [-119.14532400018328, 45.49805399985863], [-119.14531099976449, 45.499113999847395], [-119.14530999993957, 45.499248999868726], [-119.14528700037336, 45.50167300004353], [-119.14525100038836, 45.505291999930776], [-119.14521399968011, 45.50891100010554], [-119.14521100020539, 45.509506999946346], [-119.14521000038047, 45.509601999898706], [-119.14517799969511, 45.51252999989396], [-119.14514400025824, 45.51590900004647], [-119.14537199986385, 45.51590900004647], [-119.15100300028917, 45.515918000058726], [-119.15374400007119, 45.51592299985513], [-119.15539500025714, 45.51592500027708], [-119.15889000007458, 45.51593100028375], [-119.16052100016904, 45.51593400028682], [-119.16403600007799, 45.515939000081765], [-119.16564600025605, 45.515942000084415], [-119.16983499983444, 45.51596000009697], [-119.17081900002364, 45.5159499998809], [-119.17432700025986, 45.51595599988486], [-119.17599099996627, 45.51595899988659], [-119.17947200043832, 45.515964000308834], [-119.18116399973387, 45.51596700031015], [-119.18461800044174, 45.51597300031229], [-119.1863359996765, 45.51597500010303], [-119.18976299972188, 45.515981000104375], [-119.19149699974854, 45.51598400010478], [-119.19490899972529, 45.51598899989528], [-119.19665799982054, 45.51599199989526], [-119.20005399990377, 45.51599799989478], [-119.20181899989252, 45.516000000314115], [-119.20366199969911, 45.516012999890684], [-119.20519999990714, 45.516006000312736], [-119.2068569999409, 45.51601200031072], [-119.21034599991057, 45.51601400010009], [-119.21214199986146, 45.516017000098785], [-119.21485599987932, 45.51602499988457], [-119.24609599994776, 45.51607200025558], [-119.24821400011393, 45.51607599982998], [-119.24821499993885, 45.51610200020397], [-119.2482190001368, 45.51981800021061], [-119.24822499998457, 45.52329100022459], [-119.24823000000747, 45.52689900025036], [-119.24823500003033, 45.530506999823935], [-119.24824099987812, 45.53411500015994], [-119.24824599990099, 45.537722000132334], [-119.24825299957368, 45.53922799979246], [-119.24825299957368, 45.54151999991829], [-119.24825599994674, 45.54193300016326], [-119.24825599994674, 45.5425829997282], [-119.24825599994674, 45.54493799994374], [-119.24823599985523, 45.54849700025184], [-119.24821499993885, 45.55205699999898], [-119.24831899969591, 45.555755999696515], [-119.24834299998537, 45.556469999935935], [-119.24842300035132, 45.55945600003258], [-119.24842900019911, 45.56306400005074], [-119.24844699974246, 45.56621799993619], [-119.24843900024482, 45.57005000025981], [-119.2484440002677, 45.57318700018989], [-119.2484509999404, 45.57464900003283], [-119.24845000011548, 45.577494999811854], [-119.24845400031346, 45.581339000215], [-119.24846000016124, 45.58471099974219], [-119.248466000009, 45.588318000013224], [-119.2484869999254, 45.591952999951395], [-119.24850899966673, 45.59558700013713], [-119.24853100030636, 45.59922200006392], [-119.24854700019985, 45.60193500012562], [-119.25037400011291, 45.60195500014075], [-119.2507039998258, 45.60195500014075], [-119.26056700038549, 45.602025000137594], [-119.26781899996118, 45.60208899980684], [-119.26951899965265, 45.602104000091906], [-119.27006699982374, 45.60210899976706], [-119.2795689998101, 45.60218100006765], [-119.29762200010393, 45.602323999831974], [-119.29809999995481, 45.602327000253865], [-119.29837000029157, 45.60232900011603], [-119.3087429995909, 45.60241100005968], [-119.30901499957743, 45.60241399984839], [-119.31297499972531, 45.60245899980247], [-119.32489500035182, 45.60254499989361], [-119.32886499964708, 45.6025709998806], [-119.32943899975744, 45.60257500021595], [-119.3297020004215, 45.60257700006927], [-119.33031800036463, 45.602581999702224], [-119.3304289997944, 45.602586000036794], [-119.33093799960744, 45.60258699996329], [-119.33140100028803, 45.6025910002975], [-119.33657900007849, 45.602631999778566], [-119.3416919995716, 45.60267499970804], [-119.34669799983291, 45.602714999832024], [-119.35211400017302, 45.602754999927534], [-119.35729299978838, 45.6027959999173], [-119.35820699965736, 45.602793000148985], [-119.36247099957882, 45.60283599995501], [-119.36764900026762, 45.60287699988558], [-119.36966600015145, 45.602899000035244], [-119.37263399971422, 45.602916999865585], [-119.37287899993657, 45.60292000025573], [-119.37554500027386, 45.60292000025573], [-119.37780099963396, 45.60292300001725], [-119.38296799955378, 45.60292800024788], [-119.38398899955287, 45.60292900016828], [-119.38498399961273, 45.60293100000898], [-119.38518299980434, 45.60293100000898], [-119.38813500037188, 45.602933999769874], [-119.39330999978928, 45.6029409998399], [-119.3984700000364, 45.60294500014887], [-119.40363699995616, 45.6029510002975], [-119.40880399987596, 45.602956999817074], [-119.40944599975838, 45.602954000057366], [-119.41397099979574, 45.60296200004468], [-119.4164460003373, 45.60296399988419], [-119.41882999974396, 45.60296399988419], [-119.41913900043878, 45.602968000191524], [-119.42430600035857, 45.60297399970924], [-119.42462000017791, 45.60297199987007], [-119.42947300027834, 45.60297899993532], [-119.4302370003595, 45.60297999985481], [-119.43464000019813, 45.60298500008035], [-119.43464000019813, 45.603055999967154], [-119.43463900037324, 45.6036349998411], [-119.43463500017526, 45.60660499992047], [-119.43463400035037, 45.60739799987189], [-119.4346300001524, 45.610224999932036], [-119.4346300001524, 45.61112800001533], [-119.43462599995445, 45.61384599979618], [-119.43462299958139, 45.61556800006421], [-119.43462099993155, 45.617465999952096], [-119.43460599986295, 45.62140900026163], [-119.43460400021313, 45.622529999828814], [-119.4345959998172, 45.624327999992445], [-119.43459499999229, 45.624859999693], [-119.43458400012166, 45.62833700026304], [-119.43457200042607, 45.63196000031209], [-119.43456900005303, 45.63558599973112], [-119.43456499985508, 45.63921100017125], [-119.4345599998322, 45.64160800003874], [-119.43456200038034, 45.642835999734274], [-119.43455900000728, 45.64646100025944], [-119.43455900000728, 45.65008999990364], [-119.4345599998322, 45.654259000242895], [-119.43456099965711, 45.65734899978762], [-119.43456200038034, 45.66097800029453], [-119.43456099965711, 45.664717999938745], [-119.4345599998322, 45.66823900007054], [-119.4345599998322, 45.671870000169655], [-119.43456300020523, 45.67553300005641], [-119.43455099961136, 45.6776609998573], [-119.43455300015953, 45.67913000016252], [-119.43454700031171, 45.68275999997729], [-119.43453899991582, 45.686392999926476], [-119.43460900023601, 45.69011899978641], [-119.43461900028174, 45.69372699976485], [-119.43464900041896, 45.69727299989941], [-119.43465400044185, 45.701517000268105], [-119.4346440003961, 45.70441100029299], [-119.4346179995585, 45.70457600000378], [-119.43454999978644, 45.7049769998677], [-119.43454800013663, 45.70836200016456], [-119.4345459995885, 45.71199299970775], [-119.43454099956563, 45.719295999924206], [-119.43453899991582, 45.72294800006045], [-119.43453700026598, 45.72655799984056], [-119.43453499971784, 45.73018899979153], [-119.43453300006803, 45.73378299977911], [-119.43456499985508, 45.73738199999138], [-119.4345959998172, 45.74098100022117], [-119.43461900028174, 45.7445900000528], [-119.43462199975647, 45.74614300003023], [-119.43461699973358, 45.75434900026075], [-119.43460400021313, 45.75517100027482], [-119.43460300038824, 45.75642899988389], [-119.43458999996942, 45.75694100011748], [-119.43458199957352, 45.75761900010884], [-119.43457599972574, 45.759032000089135], [-119.43454700031171, 45.762624000100644], [-119.43462199975647, 45.76630099996488], [-119.43464900041896, 45.767612999857796], [-119.43463900037324, 45.76850899978065], [-119.43462400030461, 45.76998200025874], [-119.43464100002306, 45.77033500004026], [-119.43463699982509, 45.77079900027948], [-119.4346300001524, 45.77163399974648], [-119.43467700000807, 45.77294400010733], [-119.43469100025175, 45.7732499999665], [-119.43473100043475, 45.77406699973539], [-119.43474099958217, 45.77426399972397], [-119.4347430001303, 45.77470900010725], [-119.43474200030538, 45.77475100017264], [-119.4347359995593, 45.77593300022979], [-119.434757000374, 45.776454000271904], [-119.43476599969651, 45.77680399996716], [-119.43478400013818, 45.77748899997704], [-119.43480300040476, 45.77819799978848], [-119.43480900025254, 45.778695000122674], [-119.43482299959791, 45.7796669997715], [-119.43483900038976, 45.78023299999816], [-119.43483400036692, 45.78067199982926], [-119.43485899958294, 45.78231399990005], [-119.43487799984949, 45.78352100013384], [-119.43488000039765, 45.78367300024457], [-119.43488100022257, 45.78408300017466], [-119.43488500042052, 45.78486399986417], [-119.43492499970519, 45.7857709997092], [-119.43493499975092, 45.78599200016917], [-119.43494200032193, 45.786334000024155], [-119.43496499988817, 45.78743800018332], [-119.43497300028407, 45.78780900027161], [-119.43502000013972, 45.792050000254456], [-119.43479199963578, 45.80188900030759], [-119.43478800033614, 45.802167000136016], [-119.43477999994022, 45.80253000021389], [-119.43471600036611, 45.805408999924325], [-119.4347070001453, 45.805650000083595], [-119.43470399977224, 45.805794000146264], [-119.43470399977224, 45.805876000267844], [-119.4346949995514, 45.80596099980065], [-119.4346939997265, 45.80615000004297], [-119.43469299990159, 45.80628699973819], [-119.43468500040399, 45.80654399990774], [-119.43468799987872, 45.80689799994928], [-119.43468799987872, 45.80754399995436], [-119.43480900025254, 45.807843000143286], [-119.43478699961291, 45.808083999791315], [-119.43477400009243, 45.80823499990727], [-119.4347489999781, 45.81154600022897], [-119.43468200003093, 45.81445900018186], [-119.43468399968077, 45.815093000235244], [-119.43468399968077, 45.815655999856034], [-119.43482199977302, 45.81574700000544], [-119.4348069997044, 45.81638300015262], [-119.4348000000317, 45.8167150002341], [-119.4348069997044, 45.816731999722975], [-119.43483099999384, 45.81678600023789], [-119.43484000021468, 45.81680400018919], [-119.43483900038976, 45.81839900004195], [-119.43493599957584, 45.82316000018936], [-119.43498900017758, 45.82477700012881], [-119.4350159999418, 45.82554099987314], [-119.43502400033769, 45.826207000276256], [-119.43495599966732, 45.82671999995055], [-119.43490700016184, 45.82774699980094], [-119.4348560001082, 45.82811099996193], [-119.43484500023754, 45.82819299977631], [-119.43483900038976, 45.828298999876466], [-119.43478900016106, 45.82843100004963], [-119.43477200044262, 45.82853600004924], [-119.43476599969651, 45.828651000059985], [-119.43475900002383, 45.82874900026265], [-119.4347489999781, 45.82889399970947], [-119.4347489999781, 45.82917899991719], [-119.43477200044262, 45.82993699972608], [-119.43475300017604, 45.83112099984088], [-119.43476599969651, 45.83227300010364], [-119.43475900002383, 45.83348999980209], [-119.43476200039689, 45.834185000214944], [-119.43475900002383, 45.83432000008089], [-119.43475300017604, 45.83462900022444], [-119.43475599965078, 45.837022000217715], [-119.4346650003125, 45.83738300008712], [-119.43466299976437, 45.84113700018405], [-119.43466199993945, 45.842333000133564], [-119.43466199993945, 45.8435590001366], [-119.43466100011453, 45.844731999748234], [-119.43466100011453, 45.84593900020195], [-119.43466000028961, 45.847141999741694], [-119.43465899956638, 45.8483590002628], [-119.43466000028961, 45.84851999980596], [-119.43466000028961, 45.848548999810156], [-119.43465899956638, 45.848704999875444], [-119.43465899956638, 45.84891600004579], [-119.43465899956638, 45.849000000303036], [-119.43465899956638, 45.85054200023053], [-119.43465899956638, 45.85076699980005], [-119.43466100011453, 45.85196799971186], [-119.43466100011453, 45.85313000030718], [-119.4346650003125, 45.85435699992082], [-119.4346650003125, 45.85561500026534], [-119.43466100011453, 45.85680500005026], [-119.4346650003125, 45.858016000265664], [-119.43466100011453, 45.86123999974152], [-119.43466699996232, 45.86462999977991], [-119.4346650003125, 45.864892999852096], [-119.43235499962736, 45.86489099998704], [-119.43204800037903, 45.864889999741706], [-119.43205199967866, 45.86533800024916], [-119.43205400022678, 45.865420999863], [-119.43218100044842, 45.879312000180484], [-119.43210500028043, 45.88892200002774], [-119.43212799984666, 45.89383700001854], [-119.43211600015108, 45.90126299997169], [-119.43211600015108, 45.90130200024779], [-119.43211600015108, 45.90132699999363], [-119.43211299977803, 45.90332800025269], [-119.43211899962581, 45.90458499986965], [-119.43212799984666, 45.90729000016127], [-119.4321379998924, 45.90868400024287], [-119.4321379998924, 45.91116699982442], [-119.4321379998924, 45.91181999976206], [-119.4321379998924, 45.91299399990784], [-119.43213899971732, 45.91337900028717], [-119.43214999958795, 45.91827100000925], [-119.43737900033037, 45.918016000037255], [-119.45039799987546, 45.917380999793494], [-119.45201399990133, 45.91690899987332], [-119.45625899955621, 45.91566500002685], [-119.48808299978072, 45.906361000284925], [-119.50113400001122, 45.90715300030369], [-119.50446899999507, 45.90735500021727], [-119.51143400041391, 45.90777600014085], [-119.52451900008127, 45.90856699988833], [-119.52456199973898, 45.90858500015124], [-119.52462399966325, 45.90860399986685], [-119.52725599966536, 45.90955000021547], [-119.52898200019439, 45.91016600026381], [-119.53639799980161, 45.91283600022925], [-119.53694599997267, 45.91303300006785], [-119.54787499983902, 45.91694699984865], [-119.57160200021586, 45.92547799985653], [-119.5826099997249, 45.92322399995639], [-119.58508000024358, 45.9227179999407], [-119.59641599981569, 45.92039499995144], [-119.60054300036815, 45.919549000073324], [-119.60066499966855, 45.9195110000051], [-119.60348099979366, 45.91780999988057], [-119.60574799992277, 45.916442000024865], [-119.60965000034429, 45.914077999774214], [-119.62205100029644, 45.90655900009884], [-119.62362799996421, 45.905601999769004], [-119.62428599974018, 45.904911999898324], [-119.62586099975813, 45.903259999942826], [-119.62613699994266, 45.902974000283336], [-119.62722599971381, 45.90182700004809], [-119.65290399985226, 45.87485499978127], [-119.6636439995727, 45.86356400017222], [-119.66964999991674, 45.85724899973774], [-119.66997399978182, 45.85690800016533], [-119.67234800004105, 45.85665099971666], [-119.67376700042341, 45.85649799997856], [-119.69324900024702, 45.85438699981861], [-119.69397200032031, 45.854309000300915], [-119.6978160001172, 45.853891999748235], [-119.7185659998121, 45.851638999841], [-119.72993900009246, 45.85040300015564], [-119.73247599966001, 45.850126999985605], [-119.75669199975836, 45.847489999906564], [-119.77285399966672, 45.84572700003827], [-119.77388100041195, 45.84582199969494], [-119.78459600001803, 45.846477000125276], [-119.80270500038834, 45.84763000030818], [-119.80568100034701, 45.847155000196985], [-119.82643000021702, 45.843842999716294], [-119.84717499988909, 45.8405260001443], [-119.84934300028398, 45.84017999972416], [-119.86745500012907, 45.83637800007549], [-119.86813100034666, 45.83624800024279], [-119.86831200009662, 45.83619799974483], [-119.86877800025195, 45.83610199978941], [-119.87353000007003, 45.835124000232874], [-119.88858999978845, 45.83202199975156], [-119.90724499978172, 45.82817600003082], [-119.90891900043222, 45.8280679997591], [-119.90893399960251, 45.828067000103324], [-119.90905800034936, 45.82805899972696], [-119.93065400014123, 45.82665999971665], [-119.95171400035586, 45.825291999872654], [-119.96577200034176, 45.824375999731274], [-119.97153199974015, 45.82235199970196], [-119.97517600041881, 45.821071000249], [-119.97643400024441, 45.820628999965436], [-119.99418700006426, 45.81438699981421], [-119.99950100029714, 45.81251700002838], [-119.99952200021353, 45.80831000011957]]]}, "properties": {"GEOID": "41049", "NAME": "Morrow County", "BASENAME": "Morrow", "STATE": "41", "COUNTY": "049", "AREALAND": "5259046255", "AREAWATER": "44372727", "INTPTLAT": "+45.4254956", "INTPTLON": "-119.6023111"}}], "_auspice": {"source_url": "https://tigerweb.geo.census.gov/arcgis/rest/services/TIGERweb/State_County/MapServer/1/query?where=GEOID%3D%2741049%27&outFields=GEOID%2CNAME%2CBASENAME%2CSTATE%2CCOUNTY%2CAREALAND%2CAREAWATER%2CINTPTLAT%2CINTPTLON&returnGeometry=true&outSR=4326&f=geojson", "fetched_at": "2026-08-26T23:13:27.836252+00:00", "service": "Census TIGERweb State_County layer 1"}}