{"type": "FeatureCollection", "features": [{"type": "Feature", "geometry": {"type": "Polygon", "coordinates": [[[-97.03385999994794, 32.836949999973086], [-97.03385699957488, 32.8371340000134], [-97.03385400010015, 32.83741499974917], [-97.03385400010015, 32.837567000162245], [-97.0338509997271, 32.83764900034657], [-97.0338449998793, 32.83816800023499], [-97.03383999985645, 32.838531999906905], [-97.03357700009072, 32.85275300002886], [-97.03357399971766, 32.85289899965761], [-97.03341100040936, 32.86199799986884], [-97.0334080000363, 32.86218900014499], [-97.0333159999748, 32.8663099999621], [-97.03321999971533, 32.87057100014786], [-97.03321600041569, 32.870736000261125], [-97.03315799979106, 32.87327799987266], [-97.03311900033131, 32.87532099963398], [-97.03310000006474, 32.876315000072665], [-97.03309500004187, 32.87656799982416], [-97.03308800036916, 32.87832000023377], [-97.03308800036916, 32.87849300019781], [-97.03308800036916, 32.8792149999786], [-97.0326249996886, 32.90428899964708], [-97.03235900044811, 32.91899200019597], [-97.03233400033375, 32.92016700004561], [-97.0323290003109, 32.920616000262584], [-97.0322370002494, 32.925592000113035], [-97.03223600042448, 32.925717999918945], [-97.03221200013503, 32.92701700000648], [-97.03217000030224, 32.92908799967096], [-97.03217100012714, 32.92924299990652], [-97.03215199986057, 32.93021800029329], [-97.03214699983769, 32.930408999797834], [-97.03208599973834, 32.93375699987386], [-97.03201799996627, 32.93768099990578], [-97.03195900041503, 32.940923999771975], [-97.03190800036141, 32.943795999982484], [-97.03190599981326, 32.943867000199674], [-97.03187900004909, 32.94550599994975], [-97.03187499985113, 32.9457730001164], [-97.03182499962242, 32.948165000078085], [-97.03181700012482, 32.94879199988369], [-97.03181700012482, 32.948850000111086], [-97.0318089997289, 32.949283999903024], [-97.03170699962165, 32.9550009998833], [-97.03165399991819, 32.95765000004549], [-97.03147499981806, 32.967807999642744], [-97.0314639999474, 32.96846200013821], [-97.0314580000996, 32.96876300003794], [-97.03144700022895, 32.96941800034144], [-97.03144399985591, 32.96957700034297], [-97.03143800000812, 32.96990699981663], [-97.03143800000812, 32.96992299975065], [-97.03143700018322, 32.96993999977156], [-97.03143200016035, 32.97024199999676], [-97.03142600031255, 32.97053299978339], [-97.03142299993951, 32.97073699991685], [-97.03141799991664, 32.97100600013365], [-97.0313869999545, 32.97273399997737], [-97.03138500030468, 32.97283499976508], [-97.03128499984724, 32.977192999799065], [-97.0311960001588, 32.981084999639975], [-97.03111599979285, 32.98463799998851], [-97.0310630000894, 32.98696399978267], [-97.03104399982283, 32.98785599985092], [-97.03104100034811, 32.98791900023805], [-97.03104100034811, 32.98794000010593], [-97.0310339997771, 32.98812499991016], [-97.03101000038595, 32.98929699992063], [-97.03100899966273, 32.98940799980088], [-97.0310070000129, 32.989691000038256], [-97.03115799962563, 32.989692999770455], [-97.03227499988421, 32.989698999720275], [-97.03293299966016, 32.9897039998037], [-97.0333159999748, 32.989707000155015], [-97.04130900006544, 32.98976099968006], [-97.04437899973543, 32.98978299972829], [-97.04543700044277, 32.98979200002041], [-97.04547699972744, 32.98979200002041], [-97.04618700028024, 32.989796000233625], [-97.05786299961098, 32.98987099986617], [-97.06180000019259, 32.989903999895304], [-97.06197599991968, 32.98990700023982], [-97.06524200030658, 32.989925000044366], [-97.06780200033865, 32.98994299984529], [-97.06803999999002, 32.98994299984529], [-97.06873999959875, 32.989948999778115], [-97.06892299989686, 32.98994999964128], [-97.06915300005063, 32.98995100025791], [-97.069178000165, 32.98995100025791], [-97.069326000303, 32.989952999984226], [-97.07019300031632, 32.989958999916375], [-97.07113599959928, 32.98996499984811], [-97.07207600030584, 32.989970999779445], [-97.07391200043973, 32.98998599998271], [-97.07510099977002, 32.989991000049876], [-97.07529300028895, 32.989991999912604], [-97.07660399981795, 32.99000100018342], [-97.07683300014682, 32.99000200004598], [-97.08644999976092, 32.99006100020729], [-97.08816200004622, 32.99007300005644], [-97.0960870003648, 32.99012499963519], [-97.10682500043544, 32.99018899977022], [-97.1081610000788, 32.99019700016059], [-97.10923200030662, 32.9902030000761], [-97.11000899990826, 32.990208000131034], [-97.12414300006212, 32.99029599984523], [-97.13024399994237, 32.99033500037543], [-97.13758000008198, 32.99037699971007], [-97.1408139997835, 32.9904000002163], [-97.15406500003051, 32.99048199984287], [-97.15684699982043, 32.990500000283646], [-97.15836300028718, 32.99050899974916], [-97.158765999795, 32.990511000216316], [-97.16044499957003, 32.99052200014762], [-97.16084100030348, 32.990523999861], [-97.16149200040674, 32.99052800004109], [-97.16349000002398, 32.990540999683255], [-97.16393400043802, 32.99054400000611], [-97.16504300030066, 32.990549999898086], [-97.16647299965535, 32.990559000111986], [-97.16695200022947, 32.9905619996808], [-97.16725900037615, 32.9905640001467], [-97.16907600024345, 32.990575999927515], [-97.16918900022135, 32.990575999927515], [-97.17053400008555, 32.990585000138765], [-97.17158600004679, 32.990591000027955], [-97.17207700031646, 32.99059299973977], [-97.17239899963344, 32.99059500020501], [-97.17260500039608, 32.99059699991673], [-97.17444400000468, 32.990608999693], [-97.17545300030821, 32.990615000334046], [-97.17648000015511, 32.99062299993232], [-97.17752000042078, 32.99062700010792], [-97.17856700035915, 32.99063600031399], [-97.17923299963272, 32.99063899988012], [-97.17962500016817, 32.990641000344326], [-97.1796319998409, 32.990631000283294], [-97.17966000032827, 32.990641000344326], [-97.18000599993468, 32.99064399991035], [-97.18315199977268, 32.99066200031808], [-97.18381000044693, 32.990667000346946], [-97.18395199983885, 32.99066800020203], [-97.18435600006988, 32.99066999991209], [-97.18468800033091, 32.99067200037554], [-97.18545700043492, 32.990676999650425], [-97.18646099981729, 32.99068199967845], [-97.18752700002223, 32.99068800031451], [-97.18912100030677, 32.99069699976087], [-97.19290200035448, 32.99071699986679], [-97.19317299961781, 32.99072400035487], [-97.19774799988389, 32.99074500030886], [-97.19866699977575, 32.99075000033304], [-97.20540799988859, 32.99079200022367], [-97.20634900042009, 32.99079399993093], [-97.21033899980684, 32.99081499986822], [-97.2137709998751, 32.99083400009427], [-97.21641499957273, 32.99084900015086], [-97.21665399994734, 32.99085000000388], [-97.21776500035811, 32.99085699972794], [-97.22316599973132, 32.99088699983076], [-97.22381799965947, 32.99089099999439], [-97.22421100001988, 32.990894000305346], [-97.2247890003282, 32.99089799971519], [-97.22870900029307, 32.99091899962779], [-97.22876199999652, 32.99091899962779], [-97.23452899996593, 32.990948999709474], [-97.2348290004399, 32.99095100016666], [-97.23525000038939, 32.99095399972215], [-97.23535900016934, 32.99095200001852], [-97.23544299983492, 32.99095600017917], [-97.24211000032791, 32.990988999802624], [-97.25359400003804, 32.99104899990827], [-97.2540340002541, 32.99105100036318], [-97.2540629996681, 32.99105100036318], [-97.25416399995044, 32.991052000213905], [-97.25438400005845, 32.99105300006457], [-97.25491700016093, 32.991056000370016], [-97.25991199965327, 32.991082000250394], [-97.26279499972551, 32.99109599966119], [-97.2641730001, 32.99110399996935], [-97.26538700044296, 32.9911080001231], [-97.26588899968496, 32.991109999823195], [-97.2662789996723, 32.99110700027306], [-97.26802799976755, 32.991118000130086], [-97.26861500029669, 32.9911209996799], [-97.26876699973437, 32.99112200028326], [-97.2718399997774, 32.99114099968973], [-97.27246999996424, 32.99114399999219], [-97.27702699978867, 32.99117099969602], [-97.27769399978544, 32.99117499984672], [-97.28196600010284, 32.99119999984306], [-97.28216199992141, 32.99120099969205], [-97.28319700016422, 32.99119999984306], [-97.28877699963758, 32.99123200028004], [-97.28883799973693, 32.99123200028004], [-97.28889999966123, 32.99123200028004], [-97.2907569997115, 32.99124099967098], [-97.2909049998495, 32.99124200027297], [-97.29114199967597, 32.99124300012154], [-97.2911650001405, 32.99124300012154], [-97.29155900032579, 32.991244999818576], [-97.29474299979861, 32.99126200025539], [-97.29480499972288, 32.99125999980526], [-97.29890100031318, 32.99127899993551], [-97.29932899993536, 32.99128200023327], [-97.29965100015065, 32.99128200023327], [-97.2997900000678, 32.99128399992943], [-97.30011300010798, 32.99128499977751], [-97.30023699995655, 32.99128499977751], [-97.30125100028296, 32.99129100037259], [-97.30466300025972, 32.99130600035145], [-97.30492500020056, 32.99130700019929], [-97.3171720001669, 32.991376000219404], [-97.31865099992541, 32.991382000054756], [-97.32063900039525, 32.991387000042906], [-97.32101900033685, 32.99138799988976], [-97.32237000004883, 32.99139799986503], [-97.32630799955706, 32.99140899968578], [-97.32632900037177, 32.99140899968578], [-97.32704800024709, 32.991415000272426], [-97.32741999979275, 32.991416999965566], [-97.32776200009953, 32.991417999812086], [-97.3288230002816, 32.99142100010512], [-97.34237199955614, 32.99148500005386], [-97.3470799998916, 32.99150599982679], [-97.35102099977289, 32.99152800019348], [-97.35189899965685, 32.99152800019348], [-97.35279099978453, 32.991530999729314], [-97.35306100012127, 32.99153300017329], [-97.35322599997771, 32.99153300017329], [-97.35336700044301, 32.991534000018504], [-97.35350299998713, 32.99153499986376], [-97.35365299977497, 32.99153599970895], [-97.35374700038462, 32.99153599970895], [-97.35519199980793, 32.99154200028696], [-97.35605399979838, 32.991545999667444], [-97.3598990003185, 32.99156300004633], [-97.3603500004052, 32.99156499973611], [-97.360680999943, 32.99156600033444], [-97.36164800041374, 32.99156999971383], [-97.36244500010685, 32.99157399984652], [-97.36369600025974, 32.99157999966847], [-97.36463900044103, 32.991583999800646], [-97.36734400023803, 32.99159899972977], [-97.36827099962751, 32.99160200001672], [-97.36955399956742, 32.991603999705625], [-97.37107000003418, 32.99161199996767], [-97.37185300038189, 32.99161500025411], [-97.37311000038255, 32.991620000229055], [-97.375719999745, 32.99163000017796], [-97.38178600036349, 32.991653000357665], [-97.38279800014176, 32.99166099986186], [-97.38286900028686, 32.991653000357665], [-97.38355800002495, 32.991653000357665], [-97.38360599970554, 32.99166599983414], [-97.38533800008234, 32.99167400009063], [-97.38621799961614, 32.99167700037496], [-97.3879049997871, 32.99168400003342], [-97.38846899985171, 32.99168700031742], [-97.38863500043138, 32.99168700031742], [-97.3916230000856, 32.99169800010222], [-97.39308599995059, 32.9917030000724], [-97.39626500029884, 32.99171799998129], [-97.3970510001213, 32.99172299995034], [-97.3971499998555, 32.99172399979345], [-97.39720900030505, 32.99172399979345], [-97.39845899973469, 32.99173200004463], [-97.3984599995596, 32.99169800010222], [-97.3984799996511, 32.9908390001134], [-97.4010570002999, 32.991026000324695], [-97.40157500033376, 32.99106399992833], [-97.4018809997572, 32.99108599965171], [-97.4057310003002, 32.99136600024165], [-97.40979299965699, 32.99166199970562], [-97.4118980003027, 32.99181499978265], [-97.41288900016458, 32.99188699968278], [-97.41404400005797, 32.99197099986881], [-97.41484300029923, 32.99202899962762], [-97.41546199971711, 32.9920480003458], [-97.42020400038777, 32.99219800024053], [-97.43051800013586, 32.992318000274174], [-97.43065000038035, 32.99231999994686], [-97.43087499961294, 32.99232300020923], [-97.43099299961372, 32.992324999881795], [-97.43112300020837, 32.99232599971809], [-97.43147600038579, 32.9923309996527], [-97.44051300004173, 32.99227200025545], [-97.4416090003839, 32.99226499989015], [-97.44214699961094, 32.99226199962581], [-97.44332900016684, 32.99225400017608], [-97.44349599967309, 32.99225300033898], [-97.44427800019592, 32.992247999646494], [-97.4460570004284, 32.992236999930306], [-97.45010500043979, 32.99235900033619], [-97.4505420002828, 32.992380999736774], [-97.45113800013445, 32.99238999976396], [-97.45296900024546, 32.992444999742766], [-97.45316699971387, 32.99244999967062], [-97.45414099985732, 32.99247999998541], [-97.45486899995346, 32.9925020001093], [-97.45573699979168, 32.9925250000617], [-97.45577699997465, 32.9925250000617], [-97.45582899985317, 32.99252400022772], [-97.45882900010129, 32.99261199989303], [-97.45892100016282, 32.99261400031251], [-97.45941599973213, 32.99262900006658], [-97.46077700038818, 32.99266900015171], [-97.46194300015222, 32.99270299972011], [-97.46197699958911, 32.99270400030553], [-97.46266600022551, 32.99273100028552], [-97.46714799970685, 32.9929350003698], [-97.46743200028729, 32.99294799965743], [-97.46767300031172, 32.99295800020934], [-97.46775500032749, 32.992962000279114], [-97.46844300024065, 32.99299099983765], [-97.46983400013562, 32.993111000299955], [-97.48487600031068, 32.99336700018824], [-97.48640399957466, 32.99338599986483], [-97.48663799992639, 32.99339200031705], [-97.49806599956001, 32.993627000126956], [-97.49836400038416, 32.99363399963081], [-97.50298300013287, 32.993748000298034], [-97.50327900040888, 32.99375399997218], [-97.50457499986928, 32.99378300002392], [-97.50571200021933, 32.993791999908126], [-97.50679900034068, 32.99380899985437], [-97.5090329999595, 32.99384500012855], [-97.50906200027181, 32.99384500012855], [-97.5115539996335, 32.99390999964459], [-97.51188500006961, 32.99391799969766], [-97.51260700031797, 32.99393500037303], [-97.51271799974774, 32.9939379998271], [-97.51502599988473, 32.99399499998274], [-97.51986300009163, 32.994100000331784], [-97.52013400025328, 32.99410500016588], [-97.52479800020782, 32.99413099990146], [-97.52481199955322, 32.99413099990146], [-97.52560499994668, 32.994130000085626], [-97.52684699987871, 32.99413300028647], [-97.52778300038733, 32.99413700030298], [-97.52783500026587, 32.99413700030298], [-97.52854999994322, 32.99413499991802], [-97.5285690002098, 32.99413499991802], [-97.52858400027841, 32.99413499991802], [-97.53122499960301, 32.99408999990923], [-97.53179899971336, 32.99408900009298], [-97.53502499991728, 32.994085999890586], [-97.53509100003951, 32.994085999890586], [-97.53525300042124, 32.994085999890586], [-97.53537100042202, 32.994082999688146], [-97.53547199980602, 32.994085000074286], [-97.53550799979104, 32.994085000074286], [-97.53858699968188, 32.9940749996501], [-97.54343999978231, 32.99419400033013], [-97.54418100029724, 32.9941769997046], [-97.54419499964263, 32.99271199971446], [-97.54419499964263, 32.99269100022849], [-97.54426199958978, 32.98964000007049], [-97.54429299955193, 32.986594000194394], [-97.54429299955193, 32.98657599971057], [-97.54433699993285, 32.98222499975629], [-97.5443620000472, 32.97964900030559], [-97.54436399969703, 32.97953100034307], [-97.5443620000472, 32.97939699974737], [-97.54434399960554, 32.97762499979489], [-97.54441899994862, 32.974820000205725], [-97.54440399988, 32.96934099972119], [-97.54439999968204, 32.96817299977762], [-97.54445599975853, 32.96339699967566], [-97.54455399966784, 32.95930799998931], [-97.54470099998093, 32.9529910000934], [-97.54477700014893, 32.94980299973648], [-97.54482200035476, 32.947940999853266], [-97.54483499987523, 32.94738699963254], [-97.54487400023328, 32.945734999870865], [-97.54489500014968, 32.9446880002898], [-97.54498200018831, 32.940399000304566], [-97.54501800017333, 32.93864699979058], [-97.54507900027271, 32.935711000117095], [-97.54508000009761, 32.93564999963829], [-97.54508299957236, 32.935451999796605], [-97.54509400034131, 32.93483100029651], [-97.54510400038707, 32.934237999712785], [-97.54511100005975, 32.933798999722654], [-97.54512699995328, 32.932895000332074], [-97.54516200011336, 32.93082899971322], [-97.54517899983182, 32.929932999946146], [-97.54517899983182, 32.929914999980696], [-97.54520499977109, 32.92829999994571], [-97.5452270004107, 32.92698200021523], [-97.54523900010626, 32.92625999994648], [-97.54527199971824, 32.92429699962612], [-97.5452769997411, 32.92399699971489], [-97.545289000335, 32.92331899999918], [-97.54530799970324, 32.922852999898105], [-97.54531299972612, 32.92274299996285], [-97.54531600009918, 32.92269000006175], [-97.54534100021353, 32.9220339997108], [-97.54535600028215, 32.92165499996992], [-97.54535999958178, 32.92155199999067], [-97.54536600032789, 32.92110599966317], [-97.54536700015278, 32.92104600031323], [-97.5453689998026, 32.92087899984727], [-97.54537899984837, 32.92054600012674], [-97.54548699980339, 32.91545099981517], [-97.54550100004708, 32.914805999655854], [-97.54553399965906, 32.91298699965447], [-97.54553500038227, 32.91294799967129], [-97.54560800017721, 32.910874000083574], [-97.54560900000213, 32.91084599997056], [-97.54572100015513, 32.907513000172194], [-97.54573100020086, 32.90722100029369], [-97.54574299989643, 32.9068579997555], [-97.54574399972135, 32.90682400033738], [-97.54574600026947, 32.90677099995395], [-97.54575799996505, 32.906323999755614], [-97.54576299998791, 32.90614799965729], [-97.54576600036096, 32.906079000204635], [-97.5457699996606, 32.90518300023271], [-97.54579399995005, 32.90411099986869], [-97.54586599992007, 32.90093899994515], [-97.54586400027024, 32.90074000000144], [-97.54586699974499, 32.90062299965521], [-97.54586699974499, 32.90060599988213], [-97.54587000011804, 32.90052299970092], [-97.54588500018663, 32.90031399985424], [-97.54588500018663, 32.90029999963756], [-97.54587799961564, 32.900067000016705], [-97.54588400036174, 32.89976899969885], [-97.54590000025526, 32.89905199987757], [-97.5459239996464, 32.89793399986749], [-97.5459250003696, 32.897890000044], [-97.54594999958566, 32.89663600003404], [-97.54594999958566, 32.896621999990266], [-97.54598399992084, 32.89465799993642], [-97.54598399992084, 32.894647000141454], [-97.54598999976862, 32.89430199977665], [-97.54599099959356, 32.89427300026633], [-97.54610299974654, 32.889593000143], [-97.54618800013536, 32.88785699974224], [-97.54618899996028, 32.887825000347235], [-97.54619700035619, 32.88759100008248], [-97.54620900005175, 32.886919000045225], [-97.54623400016611, 32.885747000371566], [-97.54623800036406, 32.88557199965471], [-97.54624900023471, 32.88506399969823], [-97.54625199970944, 32.884905999667474], [-97.54626400030334, 32.8843600002189], [-97.54626599995316, 32.88424199981035], [-97.54626799960297, 32.884204999848045], [-97.54626799960297, 32.884169000175795], [-97.54627900037195, 32.88372800017437], [-97.54628000019686, 32.88367099981389], [-97.54628000019686, 32.88361200030211], [-97.54633299990032, 32.88128599987443], [-97.54634799996892, 32.88060700015088], [-97.54642599978672, 32.87708800029358], [-97.54653200009193, 32.8722559998473], [-97.54665199974254, 32.866720999875305], [-97.54697099958477, 32.8637140002745], [-97.54697899998068, 32.86332099993226], [-97.54709699998146, 32.85684599998766], [-97.54714700021017, 32.85504500000639], [-97.54715999973065, 32.854612999734606], [-97.54721099978427, 32.85278699981915], [-97.54721300033242, 32.85271599975401], [-97.54721199960919, 32.85269099984505], [-97.54725599999011, 32.850845000328796], [-97.54729199997513, 32.84938700007161], [-97.54731399971644, 32.84838200017386], [-97.54731500043965, 32.84834500034036], [-97.54732100028745, 32.848167999842445], [-97.54732200011237, 32.84811199997375], [-97.54747600009814, 32.84151600021622], [-97.54748600014388, 32.84109099999901], [-97.54749899966436, 32.84042799964252], [-97.54752499960364, 32.83681800020153], [-97.54759599974875, 32.827101000271206], [-97.54759099972587, 32.826846999640146], [-97.54758999990096, 32.82683199970203], [-97.54760099977163, 32.82662799998995], [-97.54769899968092, 32.821905000059466], [-97.54770100022904, 32.82182699993908], [-97.54772100032052, 32.82017900000688], [-97.54772299997035, 32.82001700030727], [-97.54772399979527, 32.81994399990339], [-97.54774600043487, 32.818024999871774], [-97.54775599958232, 32.817169000196024], [-97.5477690000011, 32.81619500023919], [-97.54779900013833, 32.813556999746474], [-97.54781699968169, 32.81213600000795], [-97.54788100015409, 32.80680099983262], [-97.54794899992616, 32.80098700032689], [-97.54797499986542, 32.79877799986476], [-97.54797599969034, 32.79872400008125], [-97.5479799998883, 32.79840200021614], [-97.54798599973607, 32.79800699963782], [-97.54820099982125, 32.77611400015126], [-97.54820099982125, 32.776090999855306], [-97.54820199964614, 32.776028999783186], [-97.54820400019429, 32.7748489999707], [-97.54820400019429, 32.77483200026619], [-97.54820400019429, 32.77434800016267], [-97.5484529997163, 32.75562799977305], [-97.54860099985432, 32.74451799969714], [-97.54867899967213, 32.73957799968118], [-97.54870700015952, 32.73794500026147], [-97.54870700015952, 32.73793399993859], [-97.54880000004596, 32.73450799975094], [-97.54880599989373, 32.734136999975945], [-97.5489170002218, 32.72717800030922], [-97.54892100041977, 32.726692000028585], [-97.54894200033615, 32.72562800020432], [-97.54900199971232, 32.721830999778305], [-97.54900000006249, 32.721451999670435], [-97.54899699968944, 32.72140700018277], [-97.5490009998874, 32.7212710001992], [-97.54899400021472, 32.72109499973467], [-97.54900199971232, 32.72091600004824], [-97.54899800041268, 32.72087300004472], [-97.54900199971232, 32.72063000005689], [-97.5490079995601, 32.72056899979736], [-97.5490009998874, 32.720474999625445], [-97.5490009998874, 32.72037099977009], [-97.5490009998874, 32.7203309999097], [-97.54903500022259, 32.72012899981153], [-97.54905299976593, 32.72002500030838], [-97.54910200016974, 32.719730999850626], [-97.54909399977383, 32.71332699989269], [-97.54908299990316, 32.71019900000764], [-97.5490779998803, 32.70880000010009], [-97.54907200003251, 32.706835999772], [-97.54908100025334, 32.70327699973576], [-97.54908600027622, 32.703119999989795], [-97.54908100025334, 32.702948000307245], [-97.54907600023049, 32.70273299985995], [-97.54907600023049, 32.70271399983772], [-97.54919000003328, 32.69887499996937], [-97.5495139998984, 32.688306999847676], [-97.54952999979191, 32.686009999731205], [-97.54955400008136, 32.682701999999566], [-97.54955800027932, 32.68210200019029], [-97.54956199957897, 32.68156699963858], [-97.54956199957897, 32.68151200029055], [-97.54956300030219, 32.68138999992489], [-97.5495640001271, 32.68133900023706], [-97.5495640001271, 32.681303000039605], [-97.54956900014999, 32.68109400005567], [-97.54956900014999, 32.68107899974502], [-97.54956999997489, 32.681055000301185], [-97.54953399998988, 32.67961899979036], [-97.54958099984555, 32.676917999717695], [-97.5495859998684, 32.676620000160675], [-97.5496479997927, 32.67310200027797], [-97.54972399996068, 32.66872899992139], [-97.54973800020437, 32.667899999882465], [-97.54984000031162, 32.65661600032734], [-97.54995599976426, 32.64528699978743], [-97.54998900027454, 32.64103099970633], [-97.55003299975715, 32.635499000037775], [-97.55004500035105, 32.634017000068255], [-97.5500989998794, 32.63014499980826], [-97.5500999997043, 32.63010499962366], [-97.5501549999559, 32.62614599970146], [-97.55021000020747, 32.6222899999146], [-97.55020900038258, 32.622158999908024], [-97.55019500013886, 32.61810799964005], [-97.55019199976583, 32.618054000106696], [-97.55005299984865, 32.615705000231515], [-97.55001100001586, 32.61124399978131], [-97.55001000019094, 32.61116500025413], [-97.55001000019094, 32.611070999950094], [-97.55001299966567, 32.61074200000068], [-97.55000900036603, 32.6105950001156], [-97.5500140003889, 32.61035100012895], [-97.55001900041177, 32.61032899981832], [-97.55007299994013, 32.61013800005914], [-97.55014800028322, 32.60990600015635], [-97.55019199976583, 32.609696000124], [-97.55019400031397, 32.60915800025201], [-97.55021400040543, 32.60848600021846], [-97.55023199994879, 32.60785199997617], [-97.55023799979656, 32.607052000238966], [-97.55025200004027, 32.60530599993061], [-97.5502699995836, 32.602825000162305], [-97.55028999967512, 32.60081300014805], [-97.55029999972085, 32.59986300035817], [-97.55032300018537, 32.597300999798364], [-97.55032599966013, 32.591346999758116], [-97.55032700038333, 32.59112400024129], [-97.5503240000103, 32.590319000345126], [-97.5503240000103, 32.59019500003714], [-97.55032800020827, 32.5887550003772], [-97.55032999985808, 32.58813900008009], [-97.55034800029973, 32.58429600033131], [-97.55035199959939, 32.583286999959874], [-97.55035400014751, 32.58285699966928], [-97.55035400014751, 32.582740999667145], [-97.55035499997243, 32.58250899996956], [-97.55036199964513, 32.58133800011467], [-97.55036300036835, 32.581183000257845], [-97.55036800039123, 32.58037100009616], [-97.55036800039123, 32.58032300013983], [-97.55038199973662, 32.577283000008244], [-97.55039599998031, 32.57421299963523], [-97.55052099965378, 32.56329899977988], [-97.55052400002683, 32.562921999902876], [-97.55052599967665, 32.562650999765715], [-97.55052599967665, 32.56263999981271], [-97.55052700039988, 32.56257600033461], [-97.55052800022479, 32.56241999971217], [-97.55057500008046, 32.55637099965488], [-97.55057699973028, 32.556130999752035], [-97.55058199975316, 32.55539100023857], [-97.54705299960054, 32.55540299978007], [-97.53359999968714, 32.55541699974785], [-97.52001399970436, 32.55542499994478], [-97.5034569997858, 32.55543899990914], [-97.50342400017382, 32.55543899990914], [-97.49425400044849, 32.55539599979534], [-97.4834360000119, 32.55524499988401], [-97.48295099959002, 32.55523900010295], [-97.48277999988579, 32.55523399978027], [-97.48260800035666, 32.555227999998415], [-97.48257999986926, 32.555227999998415], [-97.48238300022577, 32.55523099988939], [-97.47958999966689, 32.55519100032542], [-97.4739370003986, 32.55506200032286], [-97.47247799983327, 32.555027999722014], [-97.47225799972524, 32.5550240003631], [-97.471317999917, 32.555002000100025], [-97.46920800014672, 32.55495400019575], [-97.46908799959782, 32.55494400027558], [-97.46893299978711, 32.55493700025503], [-97.46864099970907, 32.55494100037502], [-97.46685300015407, 32.554899999704894], [-97.46000400008619, 32.554659999654035], [-97.45992100024552, 32.55465699974397], [-97.45499500035015, 32.55448499993794], [-97.44350599971885, 32.55429899966225], [-97.43965699989907, 32.55423200036817], [-97.43585400011006, 32.55417599974446], [-97.43219400043617, 32.55412299977105], [-97.43203600025244, 32.554121000071454], [-97.43099799963657, 32.554105999672935], [-97.43092700038977, 32.55410500020154], [-97.42506099978785, 32.55402399982254], [-97.42502300015302, 32.554023000350234], [-97.42294699981963, 32.55399300027513], [-97.42051499983408, 32.55395900002642], [-97.41914300020571, 32.55393899996317], [-97.41282200021743, 32.55384699991781], [-97.41277700001157, 32.55384599968634], [-97.41014500000949, 32.553812000139125], [-97.4096040004094, 32.553805000030295], [-97.40910599956872, 32.553797999920974], [-97.40867899977145, 32.55379200004312], [-97.40162399983926, 32.553601000189154], [-97.3991280002796, 32.553547999876145], [-97.3967540000204, 32.55364000022801], [-97.39632700022311, 32.553659000124334], [-97.39066300018587, 32.55360400013451], [-97.38636699957904, 32.55355900018653], [-97.3859769995917, 32.55355600023972], [-97.37968300026591, 32.55350500037069], [-97.3790050003985, 32.553499999951406], [-97.37438900012452, 32.553469000223], [-97.37055399965013, 32.55342700015861], [-97.36889099976861, 32.553424000207386], [-97.36546000042358, 32.553418999783574], [-97.36516800034555, 32.55342599992252], [-97.36503699992598, 32.55341800030453], [-97.36457499996861, 32.55341700006829], [-97.36437300030225, 32.553415000352956], [-97.3638130004356, 32.55341100016497], [-97.36370499958224, 32.5534119996441], [-97.36354700029682, 32.55341599983203], [-97.36270700004769, 32.55340200030929], [-97.35327200000846, 32.55329600017414], [-97.35322400032787, 32.55329600017414], [-97.35315900003056, 32.55329499993654], [-97.35298800032633, 32.553293000218495], [-97.35229200001726, 32.5532819998755], [-97.35217999986425, 32.55328000015716], [-97.35198300022076, 32.553271000288355], [-97.35154300000471, 32.553249999833696], [-97.35080800023587, 32.55316300027754], [-97.35051899963256, 32.5531150001469], [-97.34985500000883, 32.55308000008279], [-97.34910599999628, 32.55304900020931], [-97.34871000016116, 32.553037999836405], [-97.34854899960438, 32.55303700035313], [-97.34811299958628, 32.55300500022397], [-97.34757000033638, 32.552968999875695], [-97.34737699999253, 32.55296100021699], [-97.34724499974806, 32.55295999997566], [-97.34650599978126, 32.552927000334535], [-97.34609599970243, 32.55291700018851], [-97.34464299988319, 32.552912999978325], [-97.34358400024927, 32.552912999978325], [-97.34216400004199, 32.55291000000986], [-97.34185000022264, 32.55291000000986], [-97.34181400023762, 32.55291000000986], [-97.3414829998015, 32.55290899976797], [-97.34108799979131, 32.552915999946684], [-97.34062199963599, 32.552924000366545], [-97.34051000038129, 32.552924999851086], [-97.33961900007854, 32.55294099993135], [-97.33952600019211, 32.55294299965725], [-97.33708499998575, 32.55298300022317], [-97.33706599971917, 32.55297900001594], [-97.33689300036512, 32.5529779997748], [-97.33660600030996, 32.552976000049675], [-97.33652799959383, 32.55297499980851], [-97.33648800030917, 32.55297499980851], [-97.33630599983599, 32.55297400032453], [-97.33628999994245, 32.552968999875695], [-97.33530499992835, 32.55295299980042], [-97.33503399976671, 32.55294800010758], [-97.33344500040336, 32.55292000015673], [-97.33334499994591, 32.552917999673134], [-97.33169399975996, 32.55288900022794], [-97.33166699999579, 32.55288900022794], [-97.32983500005987, 32.55285700004601], [-97.32954800000469, 32.55285200034787], [-97.32948400043058, 32.55285100010531], [-97.3284159996775, 32.55283200003794], [-97.32828900035422, 32.55283000030958], [-97.32822900007976, 32.552829000066765], [-97.32814700006399, 32.55282700033834], [-97.32807500009396, 32.55282600009551], [-97.32755399968705, 32.55281599993823], [-97.32730599998995, 32.55281199972356], [-97.3272199997762, 32.55281100023776], [-97.3268530002534, 32.55280599977979], [-97.32679299997896, 32.55280500029393], [-97.32442100026788, 32.55276199967532], [-97.32435699979546, 32.552761000188966], [-97.32432699965821, 32.552759999945394], [-97.32355400025456, 32.55274600032033], [-97.32348899995723, 32.55274500007661], [-97.32341799981212, 32.55274399983288], [-97.32338600002507, 32.552743000346304], [-97.32284700007482, 32.55273300017973], [-97.3222770001624, 32.55272300001209], [-97.32222199991084, 32.552721999768096], [-97.3221919997736, 32.552721999768096], [-97.32192099961195, 32.55271800030642], [-97.32183199992349, 32.55271700006238], [-97.3216779999377, 32.552714000087434], [-97.32165100017352, 32.552714000087434], [-97.321627999709, 32.552714000087434], [-97.32161000016563, 32.55271299984334], [-97.32158099985332, 32.55271299984334], [-97.32153300017275, 32.55271200035645], [-97.32151300008127, 32.55271200035645], [-97.31990499955302, 32.55269200001531], [-97.3198679997431, 32.55269200001531], [-97.31971200010749, 32.552690999770974], [-97.3195520002739, 32.55269000028383], [-97.31951799993871, 32.55268900003947], [-97.3194889996264, 32.55269000028383], [-97.31929899965562, 32.55269600023534], [-97.31927799973921, 32.55269699972243], [-97.31910299983701, 32.552702000186414], [-97.3190529996083, 32.55270399991761], [-97.31901800034653, 32.55270500016181], [-97.3188969999727, 32.55270299967342], [-97.31884699974398, 32.552702000186414], [-97.31839599965727, 32.55269499999105], [-97.31838300013679, 32.55269499999105], [-97.31544499981298, 32.55264700036729], [-97.3146799999069, 32.5526359999451], [-97.31451800042352, 32.55263400021238], [-97.31419899968297, 32.552629999989634], [-97.31405700029106, 32.55262800025678], [-97.31398399959781, 32.55262700001172], [-97.31079400027721, 32.55258400006498], [-97.31040699976461, 32.552576999860435], [-97.31038900022126, 32.552576999860435], [-97.30979099982146, 32.55256600018683], [-97.30907399959595, 32.55255799973504], [-97.30898300025768, 32.55255700024642], [-97.30655100027214, 32.55253099990862], [-97.3064630004086, 32.5525299996625], [-97.30643900011914, 32.5525299996625], [-97.30642700042358, 32.5525299996625], [-97.30639899993618, 32.55252900017354], [-97.3062819997603, 32.552527999927385], [-97.30617100033055, 32.552526999681284], [-97.30559600039528, 32.552520999718475], [-97.3047329996816, 32.5525119997735], [-97.30435600011306, 32.552508000302474], [-97.30407800027872, 32.55250500032053], [-97.2999089998935, 32.55245999982154], [-97.29569100000279, 32.552415000057245], [-97.29477299993584, 32.552401999868735], [-97.29380399981527, 32.552394000159495], [-97.29106600040629, 32.552357000075304], [-97.28789100025601, 32.55231500024776], [-97.27832800017026, 32.55218799964015], [-97.27826200004802, 32.55218700014739], [-97.2782329997357, 32.55218700014739], [-97.27740599990535, 32.55217599966879], [-97.27108900011504, 32.552145999733504], [-97.27089099974832, 32.55214500024029], [-97.27086200033432, 32.55214500024029], [-97.2707629997018, 32.55213900025195], [-97.27075000018131, 32.55213800000144], [-97.27073799958744, 32.552136999750985], [-97.27072400024205, 32.55213600025767], [-97.27069599975465, 32.552135000007155], [-97.27066700034065, 32.5521339997566], [-97.2706289998075, 32.55213200001269], [-97.27060100021842, 32.552130000268725], [-97.27058699997471, 32.552130000268725], [-97.27057500027914, 32.552130000268725], [-97.27035799964585, 32.552130999762106], [-97.2696920003723, 32.552114000043886], [-97.26885399977299, 32.552093000075715], [-97.26552200016216, 32.552021000147555], [-97.26536700035147, 32.552019999895734], [-97.26533600038933, 32.552019999895734], [-97.26530299987905, 32.552019999895734], [-97.26525400037356, 32.552019999895734], [-97.26520400014485, 32.552019999895734], [-97.26518800025131, 32.552019999895734], [-97.26513200017482, 32.552021000147555], [-97.26396399986263, 32.55202400014573], [-97.26382800031851, 32.55202400014573], [-97.26378599958741, 32.55202400014573], [-97.26330400043686, 32.552013999899046], [-97.26326699972863, 32.552012999647204], [-97.26317499966713, 32.5520109999006], [-97.26304800034382, 32.55200799990199], [-97.26293199999289, 32.55200600015527], [-97.2626390000899, 32.55200000015762], [-97.26257899981546, 32.55199899990558], [-97.26242400000476, 32.55199700015865], [-97.26238200017197, 32.55199599990657], [-97.26193799975795, 32.551983999909616], [-97.26114299971465, 32.551962999911034], [-97.26085499983458, 32.551955999658034], [-97.26076100012322, 32.551952999657594], [-97.2604559996264, 32.55194499990833], [-97.25983200018564, 32.5519289996505], [-97.25925499970224, 32.55191499989583], [-97.25863100026149, 32.55189999988583], [-97.2581950002434, 32.55188900012927], [-97.25406500021623, 32.5517880002366], [-97.25388100009323, 32.55178299972165], [-97.25373100030538, 32.55177900021813], [-97.25364400026676, 32.55177699970916], [-97.25344500007512, 32.551771999950795], [-97.25261700041987, 32.55175299965501], [-97.25226900026531, 32.55175099990261], [-97.25058000044453, 32.55173899987288], [-97.24893699975618, 32.55172600034363], [-97.24293100031049, 32.55166399965067], [-97.24165000002039, 32.551646999843996], [-97.23945300021147, 32.55161900024444], [-97.23917600020204, 32.55161499997641], [-97.23764300001687, 32.55158100034127], [-97.23712699963284, 32.55156699977512], [-97.2367080002315, 32.55155799973455], [-97.23643700006984, 32.55155199970696], [-97.23507399976398, 32.551525999835235], [-97.23489899986178, 32.55152299982041], [-97.23281099983284, 32.55148400037604], [-97.23279900013726, 32.55148400037604], [-97.22630800026967, 32.551360999629296], [-97.22622200005596, 32.551360000127346], [-97.22571999991561, 32.55135200032522], [-97.22564399974763, 32.55135100006601], [-97.2243619996326, 32.55132999991932], [-97.22368600031332, 32.55132099985493], [-97.22352700030467, 32.55131600007117], [-97.22182000004223, 32.55128899987118], [-97.22077599957858, 32.55127300025362], [-97.22066799962356, 32.551271999993475], [-97.22057100043747, 32.55127099973331], [-97.22050899961489, 32.55127000023035], [-97.22048900042172, 32.55127000023035], [-97.22046299958413, 32.55127000023035], [-97.22032500039019, 32.551267999709985], [-97.21961800021043, 32.55125600037285], [-97.218495999929, 32.551244000276945], [-97.21671800041975, 32.55122400036592], [-97.2156720003063, 32.551212999769355], [-97.214981999845, 32.551206000215025], [-97.21412800025047, 32.551195000373454], [-97.2134550004059, 32.55118800006052], [-97.21085199981782, 32.55115799979502], [-97.20982499997095, 32.551142999658495], [-97.2092450000128, 32.551134000332574], [-97.20684499981431, 32.551096000224085], [-97.20669300037666, 32.55109399969983], [-97.20556699989726, 32.551076000280084], [-97.20327499965381, 32.55109499996196], [-97.20178599984955, 32.5511100001065], [-97.19996300013446, 32.55112700001487], [-97.19909899959588, 32.55113600009872], [-97.19891299982305, 32.551137000360384], [-97.19872399967716, 32.55113900012648], [-97.19729900034532, 32.55113600009872], [-97.18817899995038, 32.55112800027665], [-97.18702400005697, 32.55111699966831], [-97.1862730003946, 32.551101000020104], [-97.18562099956814, 32.55108200033949], [-97.1845540004366, 32.551045999977134], [-97.17704000002176, 32.55064600002754], [-97.1738330000844, 32.55060400015658], [-97.17374199984782, 32.55060199962142], [-97.16777200038712, 32.5504880000864], [-97.16775300012056, 32.5504880000864], [-97.16705799963638, 32.55047700015685], [-97.16600700039837, 32.550460999637345], [-97.16564900019807, 32.550455999805685], [-97.16395399963118, 32.55043000037371], [-97.1637360000713, 32.55042700032226], [-97.1635329996817, 32.55042400027077], [-97.16312500015101, 32.55041800016738], [-97.16096400032711, 32.55038700013168], [-97.15585699978347, 32.550306000183326], [-97.15229099982092, 32.550251999924775], [-97.15020600016501, 32.550223000375496], [-97.1498599996603, 32.55021799977336], [-97.14978000019268, 32.55021700025867], [-97.14972300029126, 32.550215999986754], [-97.14969700035198, 32.550215999986754], [-97.14967200023763, 32.550214999714825], [-97.14899500019511, 32.55020500002387], [-97.14896599988279, 32.55020500002387], [-97.1489449999664, 32.55020500002387], [-97.14649799991224, 32.550145000340066], [-97.14640099982786, 32.55014299979468], [-97.1463680002159, 32.55014700012825], [-97.14634499975136, 32.55014100000639], [-97.14608000033581, 32.550137999945306], [-97.1448829997113, 32.55012399991128], [-97.14332100011211, 32.55010500002381], [-97.14312799976827, 32.55010300023475], [-97.1429739997825, 32.55010099968836], [-97.1429529998661, 32.55010099968836], [-97.14291400040634, 32.55010000017237], [-97.14277999961372, 32.55009799962592], [-97.14258999964294, 32.55009599983664], [-97.14240800006804, 32.550094000047324], [-97.14100100027957, 32.55007699994331], [-97.14098000036317, 32.55007699994331], [-97.140721999722, 32.55007399988006], [-97.13605600011763, 32.549934000098894], [-97.13596599970595, 32.54993200030595], [-97.13159200017962, 32.54984600008138], [-97.1302399997444, 32.549819000196386], [-97.130034999705, 32.549808999704084], [-97.12995500023737, 32.54980500011262], [-97.1299159998793, 32.549806999908384], [-97.12989599978783, 32.54980800018485], [-97.12987700041957, 32.549808999704084], [-97.12986400000078, 32.549808999704084], [-97.12984499973419, 32.549809999980546], [-97.1298239998178, 32.54981100025698], [-97.1298020000765, 32.549811999776196], [-97.12978600018296, 32.549813000052616], [-97.12976899956621, 32.549811999776196], [-97.12973799960406, 32.54981100025698], [-97.1296899999235, 32.54981400032902], [-97.12967300020506, 32.54981400032902], [-97.12965399993848, 32.54981499984819], [-97.12958500034152, 32.54981699964374], [-97.12903399979739, 32.54983200000183], [-97.12890999994882, 32.54982099999184], [-97.12872199962783, 32.549798999967855], [-97.12295100035878, 32.549737999735484], [-97.12276800006067, 32.54973499966097], [-97.12221999988958, 32.54972799999139], [-97.12120599956319, 32.54971200009561], [-97.12116999957817, 32.54971200009561], [-97.1202420003638, 32.54969999979323], [-97.1201650003709, 32.54969900027277], [-97.11900600027954, 32.54969000004492], [-97.11803600033409, 32.54968200009395], [-97.1164820002325, 32.54966799998881], [-97.11467799988567, 32.54965599968057], [-97.1135880002896, 32.54965099980412], [-97.11278300020055, 32.54963799997246], [-97.10997100027343, 32.5496179997036], [-97.10933100004083, 32.54960799994613], [-97.10910099988705, 32.549611000024896], [-97.1089069997183, 32.54960799994613], [-97.10859500044708, 32.54960600014596], [-97.10807900006303, 32.54960400034571], [-97.10641299980846, 32.54959699990869], [-97.10302199974811, 32.54969300012092], [-97.10106000011584, 32.54974800023575], [-97.1003660003549, 32.549767999718426], [-97.09962400001504, 32.549789000230554], [-97.0985290003961, 32.549745000161515], [-97.09797600020214, 32.549723000118895], [-97.09744800012253, 32.54970200034857], [-97.09700999955629, 32.54968399989245], [-97.0963459999326, 32.549656999958735], [-97.09517099994768, 32.54960900022477], [-97.09347100025624, 32.549539999899736], [-97.09237099971612, 32.54949599970864], [-97.09113600035508, 32.54944600008484], [-97.08962400008632, 32.54938500036982], [-97.08886000000516, 32.54936600032599], [-97.0876869996701, 32.549320999767716], [-97.08705499983341, 32.54929600028916], [-97.08683200025065, 32.549261000250326], [-97.08666999986895, 32.54925899968517], [-97.08535500014196, 32.549242000180236], [-97.0850899998281, 32.54923900008909], [-97.08472400013021, 32.54923400018935], [-97.08434699966335, 32.549229000289344], [-97.08401899960029, 32.54922499991486], [-97.07791000022242, 32.549151000147475], [-97.0682070003946, 32.54903100008804], [-97.06691699988367, 32.549015000068025], [-97.06517899965908, 32.54899400013205], [-97.06427099963787, 32.54898199973374], [-97.06381899972627, 32.54897800010543], [-97.06084299976759, 32.54893800002637], [-97.06065799981965, 32.54893800002637], [-97.05882699970866, 32.54891500025679], [-97.05271699960757, 32.54883999994661], [-97.05183299987581, 32.54882899981511], [-97.04983100006058, 32.548804000199546], [-97.04963600006693, 32.54886700012607], [-97.04858999995345, 32.54885100007682], [-97.04597600039303, 32.54875600000947], [-97.04593600021006, 32.54875600000947], [-97.04569299963751, 32.54875299990208], [-97.04452900042158, 32.54873999994044], [-97.03868499956096, 32.54866599977323], [-97.03858800037489, 32.55441500010736], [-97.03857699960594, 32.55514900030975], [-97.038503999811, 32.55925800035098], [-97.03852300007757, 32.55999799977595], [-97.03852399990248, 32.56004099995597], [-97.03850800000895, 32.56083099986087], [-97.03849600031337, 32.56156700011676], [-97.03840500007679, 32.56676799992545], [-97.03829100027396, 32.57335900012434], [-97.0381799999459, 32.57978500025838], [-97.03813300009021, 32.58264699981633], [-97.03811600037179, 32.58345600009745], [-97.03807899966355, 32.585612999761906], [-97.03806699996798, 32.586287999913374], [-97.0380050000437, 32.589816000028385], [-97.03800099984575, 32.59007799986397], [-97.03795900001293, 32.59249599965002], [-97.03794999979212, 32.59298499990547], [-97.03794999979212, 32.593182000181464], [-97.0378009998292, 32.60157399999385], [-97.03773399988205, 32.60540099988807], [-97.03762299955396, 32.61277400002019], [-97.03761900025432, 32.613092000254454], [-97.0375969996147, 32.614429999946864], [-97.03756200035292, 32.61658000032174], [-97.03753800006348, 32.61802700032783], [-97.03753100039077, 32.618467000221635], [-97.03745500022279, 32.6228410001419], [-97.03733999969675, 32.6301129999646], [-97.03733300002406, 32.63051900025313], [-97.03732800000118, 32.63080600002403], [-97.03731299993258, 32.630960000149024], [-97.03731200010766, 32.63118499984532], [-97.03731100028274, 32.631388000057555], [-97.03730899973462, 32.632029000127055], [-97.03730399971175, 32.633034000338604], [-97.03730299988682, 32.633424000146896], [-97.03730200006191, 32.63360499993238], [-97.0372800003206, 32.63477699982153], [-97.03725299965812, 32.63615799990076], [-97.03721199965022, 32.63829899993834], [-97.03721099982533, 32.63833199992551], [-97.03721000000041, 32.63837100016982], [-97.03720900017551, 32.63844100025527], [-97.03716999981744, 32.64041100029769], [-97.03713700020548, 32.642121999694986], [-97.03713399983243, 32.64226900000113], [-97.03711100026622, 32.643419000109795], [-97.03707699993103, 32.64516199997826], [-97.03707199990815, 32.645436000118366], [-97.03706299968731, 32.645873000012706], [-97.03706199986242, 32.645957999680014], [-97.03705799966446, 32.64643799962229], [-97.03705199981667, 32.647216000287585], [-97.03704900034192, 32.64775800036179], [-97.03704099994602, 32.6481050000089], [-97.0370259998774, 32.64889800020762], [-97.03700800033405, 32.64981000020964], [-97.03699400009035, 32.65058299998267], [-97.03697800019683, 32.651451000129896], [-97.03695899993025, 32.652376999758125], [-97.0369499997094, 32.65285000010035], [-97.03693999966367, 32.65338699991989], [-97.03692200012033, 32.65435600022187], [-97.03690700005171, 32.655157999665526], [-97.03689399963291, 32.65582199990383], [-97.03686500021892, 32.657313000115046], [-97.03686000019604, 32.657579999758404], [-97.03684799960216, 32.65824199975679], [-97.03684299957929, 32.658459000334446], [-97.03684099992947, 32.658585000281754], [-97.03682599986084, 32.6593419998277], [-97.03682400021103, 32.65948899980944], [-97.03678599967787, 32.661419999786325], [-97.03679400007381, 32.66284300010475], [-97.0367949998987, 32.66301700020213], [-97.03673999964712, 32.66627399994858], [-97.03664299956276, 32.67211899991131], [-97.03658499983644, 32.67553200037111], [-97.03657899998865, 32.67591200006329], [-97.03657399996577, 32.67620599971487], [-97.0365689999429, 32.67650999987507], [-97.03654899985142, 32.677777000238535], [-97.03649699997288, 32.680854999644694], [-97.03648399955408, 32.68159099970088], [-97.03644300044452, 32.68408300005237], [-97.03642500000285, 32.68528700036828], [-97.03635499968266, 32.68955999976883], [-97.03632700009356, 32.69132100026332], [-97.03630299980414, 32.692735999826795], [-97.03629500030651, 32.693227000081706], [-97.03628799973552, 32.693637999699945], [-97.03627900041299, 32.694211999822194], [-97.03627699986485, 32.69438999999807], [-97.03625299957541, 32.69576700008046], [-97.03625099992558, 32.695873000207655], [-97.03624599990272, 32.69607100017938], [-97.03624099987984, 32.696496000151356], [-97.03620900009278, 32.69831999980004], [-97.03607699984832, 32.7061250002703], [-97.03607600002341, 32.706144000322205], [-97.03606000012986, 32.70708899986512], [-97.03606000012986, 32.70717400026126], [-97.03603599984044, 32.70864700030303], [-97.03602400014488, 32.709400000373776], [-97.03601699957386, 32.7097800002992], [-97.03599900003051, 32.710928000100886], [-97.03599599965747, 32.71109700031287], [-97.03596600041854, 32.71294000019609], [-97.03591199999188, 32.7163279998178], [-97.0359060001441, 32.71660900037564], [-97.03584000002185, 32.72059800011179], [-97.03582300030341, 32.721600000075725], [-97.03579499981602, 32.72331799979604], [-97.03575200015831, 32.72595600005502], [-97.03569899955654, 32.72917600033], [-97.03563400015753, 32.733092000197644], [-97.03562999995955, 32.73334799983594], [-97.0356170004391, 32.73410900001583], [-97.03560200037047, 32.734917999907644], [-97.03559999982235, 32.735046000219], [-97.03558300010391, 32.736028999789355], [-97.03556399983734, 32.73706199976542], [-97.03555100031686, 32.73785800034955], [-97.03552799985232, 32.7391280000665], [-97.0355260002025, 32.73925499994947], [-97.03552399965437, 32.73935399982796], [-97.03552200000453, 32.73945100025853], [-97.03551799980657, 32.7397089998539], [-97.03551600015676, 32.73978999996821], [-97.0354990004383, 32.74076999963038], [-97.03547500014886, 32.7420860002054], [-97.03547299960073, 32.742201000216404], [-97.03545199968434, 32.743362000128734], [-97.03541800024745, 32.744659999656825], [-97.03538399991228, 32.74723100004412], [-97.03538200026246, 32.74732400037707], [-97.0353720002167, 32.748082999928194], [-97.03536100034607, 32.7489539999714], [-97.03534899975217, 32.749799000106236], [-97.03533799988152, 32.750633999813346], [-97.0353370000566, 32.75070100017629], [-97.03533200003373, 32.751074000328266], [-97.0353229998129, 32.7517550000199], [-97.03531799979004, 32.75214199970777], [-97.0353010000716, 32.75319700014612], [-97.0352879996528, 32.75401499982658], [-97.03527400030741, 32.75493999998762], [-97.03519099956843, 32.75709800019541], [-97.03518499972063, 32.75725600031675], [-97.03517899987285, 32.75796999993217], [-97.03517800004795, 32.7580039997351], [-97.03517700022304, 32.758065000059965], [-97.03516800000222, 32.75917999994855], [-97.03516800000222, 32.759264999787376], [-97.0351670001773, 32.759368000141066], [-97.0351670001773, 32.759403999811184], [-97.0351670001773, 32.75942999973172], [-97.03516600035239, 32.759455000200255], [-97.03516499962916, 32.759517999929585], [-97.03516499962916, 32.75960200000292], [-97.03516899982712, 32.75965799975601], [-97.03517100037524, 32.75969299986711], [-97.03517899987285, 32.75980399978303], [-97.03517999969777, 32.759821000091414], [-97.03518200024591, 32.75985399974765], [-97.03518700026879, 32.75993199984782], [-97.03518300007082, 32.76047199977159], [-97.03518200024591, 32.760507999750814], [-97.03518200024591, 32.760519000308086], [-97.03518200024591, 32.76053599972458], [-97.03518100042099, 32.76065799988517], [-97.03517399985, 32.761535999813574], [-97.03516899982712, 32.76220200006759], [-97.03516800000222, 32.7623860000103], [-97.03516499962916, 32.76247300014234], [-97.03514999956053, 32.76291999994905], [-97.0351460002609, 32.76305800015082], [-97.0351529999336, 32.76373400035903], [-97.0351670001773, 32.76453599992287], [-97.03512899964414, 32.765135000368545], [-97.03511399957553, 32.76537199982682], [-97.03511399957553, 32.76713000025351], [-97.03511299975062, 32.76719600017856], [-97.0350960000322, 32.76759599989071], [-97.0351040004281, 32.76761400033021], [-97.03510299970489, 32.76767299989903], [-97.03509199983424, 32.77268599997796], [-97.03512799981925, 32.77370400026317], [-97.03513399966702, 32.77389099995996], [-97.03493399965048, 32.77992900019946], [-97.03490100003852, 32.78170300004777], [-97.03489900038869, 32.78182999963973], [-97.03480899997702, 32.78278099995704], [-97.03479899993125, 32.78289800015627], [-97.03480399995414, 32.78294799998789], [-97.03479200025858, 32.78372600036365], [-97.03477899983979, 32.784549000071955], [-97.03477100034218, 32.78502700034404], [-97.03476899979404, 32.785161999766125], [-97.03475500044865, 32.786034000244136], [-97.03472100011346, 32.788182000075565], [-97.03471400044077, 32.78831000011126], [-97.03471100006772, 32.78848199970398], [-97.03470400039502, 32.78868399964398], [-97.03465699964104, 32.79260499975041], [-97.03465199961819, 32.7930369996431], [-97.03449000013478, 32.79950299964048], [-97.0344149997917, 32.80253999968877], [-97.0344139999668, 32.80257800020198], [-97.03439600042346, 32.80330899969945], [-97.03443700043132, 32.805155999627985], [-97.03442999986031, 32.80557099982916], [-97.03435899971521, 32.80957200013311], [-97.0343579998903, 32.80961699962287], [-97.0343579998903, 32.80963499986545], [-97.0342249998209, 32.81614899998806], [-97.03421899997312, 32.816400000067745], [-97.03423300021683, 32.816661999848826], [-97.03422599964583, 32.816958000291315], [-97.0342020002547, 32.81827200027167], [-97.03413799978227, 32.82206700009065], [-97.03413000028466, 32.82230600010043], [-97.0340270003525, 32.82777900028832], [-97.03402399997945, 32.82786099969901], [-97.03390400032886, 32.83428999971111], [-97.03386800034384, 32.836056000256846], [-97.03386599979571, 32.83637000033687], [-97.03386199959775, 32.83650799979484], [-97.03385999994794, 32.836949999973086]]]}, "properties": {"GEOID": "48439", "NAME": "Tarrant County", "BASENAME": "Tarrant", "STATE": "48", "COUNTY": "439", "AREALAND": "2241376178", "AREAWATER": "99392439", "INTPTLAT": "+32.7721191", "INTPTLON": "-097.2912241"}}], "_auspice": {"source_url": "https://tigerweb.geo.census.gov/arcgis/rest/services/TIGERweb/State_County/MapServer/1/query?where=GEOID%3D%2748439%27&outFields=GEOID%2CNAME%2CBASENAME%2CSTATE%2CCOUNTY%2CAREALAND%2CAREAWATER%2CINTPTLAT%2CINTPTLON&returnGeometry=true&outSR=4326&f=geojson", "fetched_at": "2026-08-26T23:13:28.225208+00:00", "service": "Census TIGERweb State_County layer 1"}}