{"type": "FeatureCollection", "features": [{"type": "Feature", "geometry": {"type": "Polygon", "coordinates": [[[-104.37125799987979, 41.001495999930555], [-104.36814999967665, 41.00149499995169], [-104.35882900033856, 41.00149299999398], [-104.35577499966378, 41.00149299999398], [-104.35572299978523, 41.00149399997286], [-104.35569799967087, 41.00149399997286], [-104.3532980003707, 41.001502999782126], [-104.34610000032336, 41.00153399979391], [-104.34357799992613, 41.001759999919855], [-104.34236600013134, 41.0015689997021], [-104.3383649999756, 41.00164599997714], [-104.33710999962476, 41.001671000064725], [-104.33703099998205, 41.001670000088524], [-104.33698400012638, 41.001670000088524], [-104.31466299971312, 41.001643000047395], [-104.31463099992607, 41.001643000047395], [-104.29641500032393, 41.00171700030955], [-104.29581199990126, 41.001719000260515], [-104.2955900001434, 41.001720000235984], [-104.29537000003538, 41.001720000235984], [-104.29425399960174, 41.00171800028503], [-104.27686700037808, 41.00169500016699], [-104.25756899977917, 41.001678999873796], [-104.25749000013644, 41.001678999873796], [-104.25050700017425, 41.001720000235984], [-104.25050700017425, 41.00161999990317], [-104.24914600041653, 41.00161899992619], [-104.24506300024504, 41.00161899992619], [-104.24370300031222, 41.00161899992619], [-104.24268999981072, 41.00161899992619], [-104.23965199992777, 41.00161899992619], [-104.23864000014949, 41.00161899992619], [-104.23754100033258, 41.00161899992619], [-104.2342470003566, 41.00161899992619], [-104.2331490003646, 41.00161899992619], [-104.22328900017796, 41.00161799994919], [-104.21657200035455, 41.001654999765705], [-104.2164560000036, 41.00165599974215], [-104.21596499973391, 41.00164699995372], [-104.21592399972603, 41.00164599997714], [-104.21533799992011, 41.00163600021064], [-104.21434399968518, 41.0016340002572], [-104.21245400002294, 41.00163300028042], [-104.21241899986286, 41.00161799994919], [-104.21220200012787, 41.00156299983539], [-104.21207400008134, 41.001564999791036], [-104.21144100041977, 41.00158000013433], [-104.20738699966226, 41.001602000315266], [-104.19715099973197, 41.00166000032566], [-104.19522500008473, 41.001670000088524], [-104.19117200005047, 41.00169300021529], [-104.18926999979433, 41.00170199999743], [-104.18356599957413, 41.00173099996499], [-104.18166500004122, 41.0017409997171], [-104.18001899987813, 41.00174600027051], [-104.17508100028721, 41.00176399981908], [-104.17343599994904, 41.0017699996675], [-104.17126400025448, 41.001729000014436], [-104.16474999992235, 41.00160900015558], [-104.16257900005272, 41.0015689997021], [-104.1586830003773, 41.001582000089414], [-104.14699600027758, 41.00162499978781], [-104.14310100042705, 41.00163900014077], [-104.13958099959696, 41.00165099985986], [-104.12902400017462, 41.00169100026352], [-104.12550500006772, 41.00170499992455], [-104.12550500006772, 41.00168599970594], [-104.12550500006772, 41.00162899969523], [-104.12550500006772, 41.001610000132715], [-104.12516799978384, 41.00161200008689], [-104.12415900037861, 41.00162199985704], [-104.12382299991964, 41.00162499978781], [-104.11997599974968, 41.00160800017843], [-104.10843599996308, 41.00155899992391], [-104.10458999961804, 41.00154300027567], [-104.1008849997383, 41.00154600021003], [-104.08977199974896, 41.00155899992391], [-104.08885399968203, 41.0015599999018], [-104.06701600004084, 41.00178499996414], [-104.0670129996678, 41.001615000018106], [-104.05407699996336, 41.001615000018106], [-104.0532490003081, 41.001405999738765], [-104.05315800007149, 41.01680899970163], [-104.05309699997214, 41.018045000095455], [-104.0530939995991, 41.03053299967261], [-104.0530939995991, 41.03073899976055], [-104.0530939995991, 41.04221600022154], [-104.05306500018509, 41.04983099972773], [-104.05306299963696, 41.050213000211485], [-104.05310000034518, 41.06131199988863], [-104.0531010001701, 41.061459999692836], [-104.0531010001701, 41.06154699987538], [-104.05312000043668, 41.067432999855406], [-104.0531570002466, 41.07789099998378], [-104.05316899994216, 41.08565799984609], [-104.05317700033807, 41.08972500018085], [-104.05301999997923, 41.090284000042864], [-104.05302599982703, 41.09059799987283], [-104.05308299972843, 41.104984999856256], [-104.0531079998428, 41.10498700005471], [-104.05329399961563, 41.10503099966786], [-104.05336200028601, 41.10511499977044], [-104.05338700040035, 41.10533799976317], [-104.05338700040035, 41.10548099983354], [-104.0533970004461, 41.113870000035035], [-104.0533970004461, 41.11418200022255], [-104.05343599990586, 41.12498200001958], [-104.05347000024105, 41.13061499985296], [-104.05347000024105, 41.1307850002026], [-104.05349299980726, 41.14076000004458], [-104.05349399963217, 41.14131999968308], [-104.05348799978438, 41.142204999920615], [-104.0534889996093, 41.143025000187045], [-104.05351000042401, 41.15523299987504], [-104.05351399972366, 41.15725700032984], [-104.05342300038537, 41.170539000050134], [-104.05340999996658, 41.172457000322304], [-104.0533689999587, 41.178506000192954], [-104.05335999973786, 41.18064300024963], [-104.05335899991297, 41.18086699976316], [-104.05333799999657, 41.185912000317664], [-104.05333799999657, 41.185985000294544], [-104.05333600034675, 41.186540000272664], [-104.05333600034675, 41.18660099976652], [-104.05333600034675, 41.186674000327336], [-104.05333399979858, 41.186803000100745], [-104.05329600016377, 41.19560500027644], [-104.05329500033886, 41.19702899968714], [-104.05328899959275, 41.19789400004216], [-104.05328899959275, 41.197925000100575], [-104.05328100009515, 41.199164999860365], [-104.05328000027023, 41.19928999997721], [-104.0532769998972, 41.19968000002401], [-104.05327500024737, 41.19994800014397], [-104.0532700002245, 41.20068300023819], [-104.05316999976708, 41.218151000118326], [-104.05315300004864, 41.24076200024556], [-104.05311100021585, 41.24522100011818], [-104.05311000039093, 41.24535799985947], [-104.05308399955335, 41.249980000216844], [-104.05290299980338, 41.261044000125445], [-104.0527709995589, 41.26909900003007], [-104.05276499971113, 41.26947900019743], [-104.05271100018275, 41.272627000177614], [-104.05292799991774, 41.27525099967537], [-104.05290700000134, 41.2778119999101], [-104.05290600017642, 41.27788199980742], [-104.05290199997846, 41.27796000024107], [-104.05289100010782, 41.278017000265365], [-104.05287400038938, 41.278066000317544], [-104.05285099992486, 41.2781019999604], [-104.05281099974188, 41.278140999719895], [-104.0527560003886, 41.278165000131544], [-104.052693999566, 41.27818199977083], [-104.05257399991541, 41.27819500012739], [-104.0524530004399, 41.27819699976657], [-104.05256800006764, 41.29794099992329], [-104.05256999971745, 41.29829200021675], [-104.05256999971745, 41.303008999727226], [-104.05256999971745, 41.303151999710195], [-104.05256999971745, 41.30665000021266], [-104.05259999985466, 41.31614199979694], [-104.05267600002266, 41.31652199996216], [-104.05268100004554, 41.31655700007014], [-104.05269100009127, 41.31956300032656], [-104.05266900034997, 41.32078500033664], [-104.05263900021275, 41.3208849999338], [-104.05260999990043, 41.32093800020461], [-104.05257399991541, 41.32097299996517], [-104.05252100021195, 41.32100000032661], [-104.05245099989176, 41.32103599989163], [-104.05230799977662, 41.321064999901566], [-104.0524750001812, 41.32237600006266], [-104.05251199999111, 41.32267000029004], [-104.05268600006839, 41.33056200021211], [-104.0525039995952, 41.34659200009276], [-104.05251600018907, 41.35704499974563], [-104.05251600018907, 41.357640999762296], [-104.05252899970957, 41.36753500025179], [-104.05252899970957, 41.3676080003094], [-104.05245400026482, 41.37497700006769], [-104.05228699986021, 41.393214000105225], [-104.05224699967727, 41.397790999741325], [-104.05224500002744, 41.3980649997249], [-104.05228900040838, 41.407587999980684], [-104.05228600003531, 41.407606999941024], [-104.05230299975376, 41.40816999993197], [-104.05229299970802, 41.409068999906516], [-104.0523129997995, 41.416825999731174], [-104.05248100002899, 41.41834599998324], [-104.0524940004478, 41.421776999879626], [-104.05249199989964, 41.421939000283565], [-104.05249799974742, 41.4221719997734], [-104.05250500031843, 41.422512999942356], [-104.05250100012049, 41.425257999816736], [-104.05251100016622, 41.42606599968623], [-104.05251299981605, 41.42673500008356], [-104.05252200003686, 41.429865999811256], [-104.05254299995326, 41.437123000304226], [-104.05253600028058, 41.437509999897415], [-104.05253499955734, 41.43832399982148], [-104.05253299990751, 41.439809000082136], [-104.05253999958022, 41.44041200005049], [-104.05254100030344, 41.44049099990487], [-104.05253200008262, 41.44110399973452], [-104.0525379999304, 41.44518699984279], [-104.05252799988466, 41.445900999808394], [-104.05253700010547, 41.44650500033498], [-104.05253200008262, 41.44727099976746], [-104.05253200008262, 41.447364000214264], [-104.05253700010547, 41.451096000007766], [-104.05253999958022, 41.46181600019847], [-104.05254100030344, 41.464329000230244], [-104.05252899970957, 41.46536999966541], [-104.0525300004328, 41.466569000136786], [-104.05252299986178, 41.46706199997988], [-104.0525300004328, 41.46810999983833], [-104.05252299986178, 41.47586500033368], [-104.05253600028058, 41.47635999976958], [-104.052517000014, 41.476896999760974], [-104.0525239996867, 41.47748099989383], [-104.05252299986178, 41.47915899971936], [-104.0525039995952, 41.47990799966623], [-104.0525029997703, 41.47994300006219], [-104.0524960000976, 41.48000400001482], [-104.05244500004397, 41.48039299971915], [-104.05240700040913, 41.480766999999624], [-104.05238899996748, 41.4811969999688], [-104.05237800009682, 41.482149999791794], [-104.05239399999036, 41.483703000279775], [-104.05238999979238, 41.48484200013398], [-104.0523970003634, 41.48554800029818], [-104.05239599964018, 41.48620399995189], [-104.05239499981526, 41.48647599971511], [-104.05240900005897, 41.48741600031785], [-104.0524180002798, 41.488940999843024], [-104.0524259997774, 41.48999600012285], [-104.05243800037128, 41.49075699969609], [-104.05243800037128, 41.49078400025068], [-104.05244300039415, 41.493529000141955], [-104.0524340001733, 41.49467800013483], [-104.05243699964807, 41.4982260002495], [-104.05242900015045, 41.498785000274964], [-104.0524340001733, 41.49925800015076], [-104.05244500004397, 41.49972000030885], [-104.05243800037128, 41.50000900010825], [-104.0524590002877, 41.50376899972412], [-104.05245099989176, 41.50522400009389], [-104.05244900024194, 41.506944000243934], [-104.05246299958733, 41.507930999820516], [-104.05246599996036, 41.50810999987472], [-104.05245099989176, 41.50923599981458], [-104.05245199971668, 41.50978199978693], [-104.05244199967093, 41.51086500018498], [-104.0524469996938, 41.511634000244385], [-104.0524459998689, 41.51255099981532], [-104.05245500008971, 41.51517800011684], [-104.05243099980026, 41.515524999707324], [-104.05237200024904, 41.52282800012088], [-104.0523909996173, 41.522945000099504], [-104.05240400003609, 41.52302400028734], [-104.05243900019619, 41.523438000128714], [-104.05244400021907, 41.52365400016416], [-104.05246199976241, 41.52441100006431], [-104.0524750001812, 41.52812900015193], [-104.05248199985391, 41.52985300026635], [-104.05249299972455, 41.53304999981979], [-104.05250500031843, 41.53378500028705], [-104.05250199994538, 41.534118999946195], [-104.05250000029557, 41.53475299970926], [-104.05250000029557, 41.53640299968767], [-104.05250500031843, 41.5372629997102], [-104.05250500031843, 41.538217999998494], [-104.05251600018907, 41.53905500024037], [-104.05252000038703, 41.53954100033341], [-104.05253399973243, 41.541153999989916], [-104.05258300013622, 41.54694300008268], [-104.05257599956522, 41.54871499993611], [-104.05259499983181, 41.549382000277575], [-104.05259200035707, 41.55232499978251], [-104.05259200035707, 41.55239199999153], [-104.05257899993826, 41.552455999865465], [-104.05256100039493, 41.55254800032953], [-104.05253299990751, 41.552612999686986], [-104.05255399982393, 41.5604979998423], [-104.05253999958022, 41.56427399990018], [-104.05328399956989, 41.564287999698784], [-104.0535239997694, 41.56429200021682], [-104.05647899981166, 41.56434900017824], [-104.05746399982577, 41.564367999930184], [-104.05919299982952, 41.56434699992102], [-104.06438200038895, 41.564287999698784], [-104.0661120002176, 41.564267999793515], [-104.06636199956455, 41.56426500007604], [-104.06833499996578, 41.564263999946135], [-104.07279899990378, 41.56426100022847], [-104.0750119996062, 41.56424799988201], [-104.07723899955234, 41.56423600033547], [-104.08240800002027, 41.564205999778935], [-104.0873530001822, 41.56417999973338], [-104.09232000008546, 41.564154999809034], [-104.09379100034637, 41.5641620000577], [-104.09792100037352, 41.56417900027431], [-104.10309400014111, 41.564203000058576], [-104.10483599966533, 41.56421000030199], [-104.1100639996845, 41.56423299994436], [-104.11180699993196, 41.5642410003148], [-104.11229400000367, 41.564246999751845], [-104.11375400039391, 41.56426899992336], [-104.11386300017386, 41.564271000183], [-104.11424200029055, 41.564277000289344], [-104.11764000002361, 41.564315999959064], [-104.12551199974043, 41.564406000089434], [-104.12783599977092, 41.564422000114384], [-104.1312350002272, 41.564446999935434], [-104.1331349999352, 41.56444400022627], [-104.13883599978237, 41.56443599988096], [-104.14073700021358, 41.564434000298576], [-104.14141099988305, 41.56442499982457], [-104.14343299978977, 41.564402000250595], [-104.14410900000738, 41.56439700028366], [-104.1441679995586, 41.564393999900034], [-104.14422500035833, 41.56438699967651], [-104.14457699981251, 41.564348000049634], [-104.1446959996382, 41.56433699997831], [-104.14571199961443, 41.564334999720714], [-104.14876299991619, 41.56432999974861], [-104.14977999971731, 41.56432900029185], [-104.15034299995703, 41.56432800016293], [-104.15046500015575, 41.56432800016293], [-104.15203299960271, 41.564334999720714], [-104.15259699966732, 41.56433800010709], [-104.15411399995898, 41.56434500033587], [-104.15866499993562, 41.564365999673555], [-104.16018300005219, 41.564374000027584], [-104.16442199985929, 41.564344000207214], [-104.16805300011919, 41.56431899967417], [-104.16993000026095, 41.564307000140815], [-104.17714000000385, 41.564278999876585], [-104.18009400022122, 41.564267999793515], [-104.18137600033623, 41.56416800017422], [-104.18395499973653, 41.56417400029012], [-104.1892399996571, 41.564185999848235], [-104.18940500041188, 41.56418699997934], [-104.19169199973415, 41.564208000040466], [-104.19427100003277, 41.56423199981396], [-104.19717900021938, 41.56425799983853], [-104.20590299988089, 41.56433900023584], [-104.20881199989242, 41.564365999673555], [-104.21887799994339, 41.56434599979239], [-104.22031999989197, 41.56433699997831], [-104.2285720004487, 41.564288999828314], [-104.25051300002202, 41.5641609999262], [-104.25484399989067, 41.56415700007219], [-104.26635299971512, 41.56414700010004], [-104.2688290000816, 41.56419400022454], [-104.27625999975743, 41.564334999720714], [-104.27873699994883, 41.564381999708424], [-104.27922499984545, 41.564390000060456], [-104.2806919999084, 41.56441399976631], [-104.28118099962994, 41.564422000114384], [-104.28159400008181, 41.56442800020676], [-104.28283400036403, 41.56444599980835], [-104.28324799974251, 41.56445300002549], [-104.28568800012397, 41.5644970002207], [-104.28884700038073, 41.56448600017468], [-104.3055299997977, 41.56443099991667], [-104.30564799979847, 41.56443099991667], [-104.30645799991038, 41.56443700000821], [-104.31124900008653, 41.56446699978534], [-104.31140600044536, 41.564467999912104], [-104.31187699972526, 41.56447100029229], [-104.3120340000841, 41.56447199974686], [-104.3165209995883, 41.56449899980113], [-104.31775699967257, 41.56450700013863], [-104.32159899981964, 41.56452999967529], [-104.32459900006776, 41.564547999920606], [-104.32584500019776, 41.56454599966954], [-104.32998400044575, 41.56454000026026], [-104.33421900005492, 41.56453500030407], [-104.33447199977489, 41.564522000012715], [-104.33448799966841, 41.56453400017835], [-104.3359999999372, 41.56453199992685], [-104.340589000447, 41.56452599984413], [-104.34212000008402, 41.564524999718266], [-104.34246200039078, 41.564524999718266], [-104.34349300043564, 41.564524999718266], [-104.34383800021712, 41.56452599984413], [-104.3440530003023, 41.56452599984413], [-104.35710199998464, 41.56473799996396], [-104.36360600027102, 41.56484299997818], [-104.37074800024186, 41.564699999999974], [-104.37168499967707, 41.564682999920436], [-104.37186999962499, 41.56468600029065], [-104.37551299958044, 41.564746000271924], [-104.38335900025629, 41.56471599995218], [-104.39070899974128, 41.56468699974188], [-104.3969269997974, 41.56466300013743], [-104.40371700031405, 41.56463700027578], [-104.40392900002615, 41.56463399990335], [-104.40456900025875, 41.56462699970582], [-104.40478199979577, 41.56462500012934], [-104.41183599990308, 41.5645959998782], [-104.43300200042292, 41.56451099997098], [-104.43982600037646, 41.564483999921706], [-104.44005700035513, 41.56448299979519], [-104.44017700000575, 41.5644850000482], [-104.44053699985585, 41.56449399984171], [-104.44065800022966, 41.5644970002207], [-104.44079299994888, 41.5644999999274], [-104.44315700016236, 41.56448700030115], [-104.45065599961026, 41.5644480000625], [-104.4531560002662, 41.56443599988096], [-104.45330799970382, 41.56443599988096], [-104.45548299977142, 41.56443300017129], [-104.4624649999087, 41.56442399969714], [-104.46479300013718, 41.564422000114384], [-104.4649200003588, 41.56442099998691], [-104.46530199995019, 41.56439999999501], [-104.46542999999672, 41.564393999900034], [-104.4656249999904, 41.564382999836496], [-104.46580800028849, 41.56436400008901], [-104.46609199997063, 41.564334999720714], [-104.46694499974024, 41.564393999900034], [-104.46696700037987, 41.5643960001558], [-104.46732600040507, 41.5644049999617], [-104.46798599983082, 41.564422000114384], [-104.46832800013759, 41.564487999755464], [-104.46892700036231, 41.564547999920606], [-104.46906700010439, 41.56454599966954], [-104.47201100027601, 41.56451499980306], [-104.47320899982712, 41.564492999715355], [-104.4743200002379, 41.564483999921706], [-104.4748419995714, 41.56448100021426], [-104.47607099998298, 41.56445500027942], [-104.47661199958306, 41.56444300009913], [-104.47758800027462, 41.56442399969714], [-104.47820900024064, 41.564429999789326], [-104.47823799965465, 41.564429999789326], [-104.47877999997795, 41.56443599988096], [-104.47884500027529, 41.56443599988096], [-104.47900500010884, 41.56443800013543], [-104.47904199991878, 41.5644349997537], [-104.479108000041, 41.564429999789326], [-104.47925700000393, 41.56441899973191], [-104.4795499999069, 41.56436000024757], [-104.47981299967262, 41.56434300007853], [-104.48052599970015, 41.56433800010709], [-104.48139000023873, 41.56432599990507], [-104.48213599987821, 41.56430499988229], [-104.48292000005084, 41.56429999990785], [-104.48361499963673, 41.564301000037204], [-104.48414100006649, 41.56433400026404], [-104.48437799989296, 41.564360999703844], [-104.48570100001587, 41.56434099982117], [-104.48605500001818, 41.564335999849526], [-104.48766699984608, 41.56431800021724], [-104.48909600027419, 41.56430200016653], [-104.49245200017445, 41.564263999946135], [-104.49769199988918, 41.56417300015882], [-104.50042099997563, 41.56437699974], [-104.50050999966409, 41.56438399996456], [-104.50863300034939, 41.56448700030115], [-104.51137099975837, 41.564523000138635], [-104.51457600004589, 41.56456200033202], [-104.52418500016238, 41.56468099967356], [-104.5273960002977, 41.5646169998064], [-104.5276289999262, 41.564611999856105], [-104.52833100008307, 41.5645959998782], [-104.52856600025972, 41.56459200005112], [-104.5370000003913, 41.56460599978082], [-104.53810099985805, 41.56460699990543], [-104.56670899992439, 41.56464800029608], [-104.57624500024593, 41.56466200001369], [-104.57949499984099, 41.56466599983643], [-104.58924500042279, 41.56468099967356], [-104.59249500001786, 41.56468600029065], [-104.59689700003159, 41.564691999686374], [-104.61010399989767, 41.56471100000955], [-104.61450699973632, 41.56471800019798], [-104.61502399994525, 41.564720999894426], [-104.61657700022192, 41.564730000327145], [-104.61709500025577, 41.56473400014568], [-104.61741599974782, 41.56474500014946], [-104.61838200039367, 41.56477800014953], [-104.61870399971063, 41.56479000026756], [-104.62362899978108, 41.56479900001858], [-104.62552000016656, 41.56480299983284], [-104.63117699963279, 41.564873000238954], [-104.63840599964227, 41.56496200014648], [-104.64333200043595, 41.565024000107776], [-104.64411700043351, 41.5650200003072], [-104.64510099972436, 41.565016999952505], [-104.64647300025108, 41.56501800007075], [-104.64725900007353, 41.56501900018898], [-104.6484039999212, 41.565016999952505], [-104.65184400038537, 41.5650140002698], [-104.65299199970777, 41.5650140002698], [-104.6530300002409, 41.570502999722386], [-104.65314400004372, 41.586972999727045], [-104.65318300040178, 41.592462999950655], [-104.6531840002267, 41.592600000114864], [-104.65318699970143, 41.59301300024814], [-104.65318800042465, 41.593151000271405], [-104.65320099994511, 41.5950309997483], [-104.6532400003032, 41.60067100013688], [-104.65325299982366, 41.60255100022981], [-104.65326500041755, 41.604328999690594], [-104.65329600037968, 41.60864299986828], [-104.65329800002951, 41.60966599994109], [-104.65330399987728, 41.61144600027074], [-104.65332499979368, 41.61295599967134], [-104.65339000009101, 41.617486999999564], [-104.65341199983231, 41.618998000306554], [-104.65341100000741, 41.619187000032234], [-104.65340699980945, 41.61975699974133], [-104.65340699980945, 41.6199469998679], [-104.65318199967857, 41.623018000301386], [-104.6530949996399, 41.62420899973961], [-104.65304299976138, 41.62497300026877], [-104.65334499988516, 41.63225000020701], [-104.65347499958152, 41.63533000011639], [-104.65345799986308, 41.63534100017839], [-104.65340299961149, 41.63537900019515], [-104.65338099987017, 41.63540499976967], [-104.65326700006737, 41.63553900030257], [-104.65321000016596, 41.635712000072495], [-104.65320900034105, 41.635806000168046], [-104.65320900034105, 41.635950000134216], [-104.65323799975505, 41.63641499975849], [-104.65329899985443, 41.636903999672874], [-104.65330600042543, 41.63716000017636], [-104.6533189999459, 41.63761299978979], [-104.65332800016672, 41.64069499978393], [-104.6533330001896, 41.64237299976532], [-104.65331999977082, 41.643469999921756], [-104.65333599966434, 41.64787299970134], [-104.65332700034182, 41.64939800021486], [-104.65332800016672, 41.64994100008952], [-104.65333800021249, 41.65300700023002], [-104.7149210001988, 41.65273199967076], [-104.72851300002935, 41.65267200024697], [-104.73116799959766, 41.65267200024697], [-104.73913399992414, 41.6526749998839], [-104.74179000021566, 41.65267700008924], [-104.75052200027308, 41.65268099982851], [-104.75113499984319, 41.65268699977256], [-104.77916999962407, 41.6529660002455], [-104.78851599997485, 41.653060000007564], [-104.7888649999543, 41.65306300029764], [-104.78991500026572, 41.65307400001757], [-104.79026500007008, 41.653077999732176], [-104.79054600027747, 41.65303500026992], [-104.79090100010472, 41.65300500003493], [-104.79164500009439, 41.65300700023002], [-104.79180499992796, 41.653008000327524], [-104.79290700011792, 41.6530210002515], [-104.79297099969203, 41.653021999677556], [-104.7964410002934, 41.65304700009151], [-104.79669200036358, 41.6530490002853], [-104.79798699999905, 41.653070999727994], [-104.79888400014961, 41.65308699992816], [-104.79995000035456, 41.653097000219056], [-104.80292200011529, 41.653126999739975], [-104.80584199999744, 41.65315100001787], [-104.80780600017785, 41.65316800029323], [-104.80787499977481, 41.65316899971706], [-104.80998100024544, 41.65318900027178], [-104.81541900032688, 41.65324199989962], [-104.81650800009804, 41.653253000260186], [-104.81868399999055, 41.653275999726546], [-104.82636800028469, 41.653355999761864], [-104.83245699957108, 41.6534149997997], [-104.83673300008644, 41.65345600016963], [-104.83733599961079, 41.6534410001519], [-104.84146800018607, 41.65345999986053], [-104.8417510000433, 41.653460999951], [-104.8433219998633, 41.65347700005429], [-104.84343499984121, 41.65347800014454], [-104.84377700014798, 41.65348199983407], [-104.84389099995079, 41.65348400001435], [-104.8441389996479, 41.65348600019457], [-104.84488400036079, 41.653492000063636], [-104.84513299988282, 41.653495000333535], [-104.84531799983077, 41.65349699984226], [-104.84587600004757, 41.6535029997103], [-104.84606199982044, 41.65350499988993], [-104.84648899961769, 41.65350800015923], [-104.84777199955761, 41.65351899980316], [-104.8482000000781, 41.65352300016136], [-104.85306999989697, 41.653562000284694], [-104.86646699973386, 41.65367299999028], [-104.86768199990173, 41.653682000103124], [-104.87200500027274, 41.65371799987087], [-104.87255300044382, 41.65372599989109], [-104.87489900021563, 41.653759000047884], [-104.88193800025432, 41.65385799974571], [-104.88428499985105, 41.6538919999187], [-104.8881959995951, 41.653940999978474], [-104.8999310002737, 41.65408799993426], [-104.90052200010248, 41.65409599990853], [-104.90384299984264, 41.654137999924934], [-104.90693299960414, 41.654180999993244], [-104.91076399988056, 41.65423400014721], [-104.91263199980148, 41.65426100024691], [-104.9253549999689, 41.654437999725076], [-104.93153100019224, 41.65452400010368], [-104.93410600029291, 41.65456000007198], [-104.93845300005505, 41.65462099982315], [-104.94134000032525, 41.65466100002476], [-104.94698400027103, 41.65474000028281], [-104.9500029998874, 41.65478199987929], [-104.95289099998253, 41.65482300005022], [-104.9539029997608, 41.65483699967699], [-104.95410899962512, 41.654839999884295], [-104.95693999981884, 41.65487899988142], [-104.95795300032034, 41.65489400023542], [-104.95799199978009, 41.654883000155145], [-104.9584999997682, 41.65490200010958], [-104.9600489998469, 41.65492400026179], [-104.96014400028146, 41.654925000329584], [-104.96069199955423, 41.6549330001999], [-104.9621889997544, 41.65494799987012], [-104.96668200000472, 41.65499499966446], [-104.96808499959525, 41.65500999999149], [-104.9681800000298, 41.6550110000579], [-104.9705459998931, 41.65504300016164], [-104.97386300033364, 41.65508899982149], [-104.97764699985608, 41.655139999770704], [-104.9800140004426, 41.65517299987425], [-104.98111499990932, 41.65518800015984], [-104.98441800010613, 41.65523300032434], [-104.98458399978749, 41.65523599984195], [-104.9855200002961, 41.65524899998745], [-104.98600099962172, 41.6552549996923], [-104.98744400029354, 41.655275000270485], [-104.98775999976272, 41.655279999910704], [-104.98792600034237, 41.65528200003514], [-104.98812999965857, 41.655285000221674], [-104.98874200030205, 41.65529400010933], [-104.98894700034147, 41.6552970002953], [-104.994517999594, 41.65535699995867], [-105.00000300042942, 41.65541800029742], [-105.00052700031107, 41.655423999986525], [-105.00406800015926, 41.655482000084604], [-105.01123600006937, 41.655599000181304], [-105.01127500042742, 41.65560000023856], [-105.01662899994497, 41.65568699979274], [-105.01680999969494, 41.65569100001629], [-105.0173849996302, 41.6556950002396], [-105.0191160001821, 41.65571500001001], [-105.01951799986499, 41.65572000028721], [-105.01969399959208, 41.655723999837576], [-105.02076399999501, 41.65573499977422], [-105.02156300023626, 41.655744000270126], [-105.02397699978015, 41.6557699996822], [-105.02504899983288, 41.65578199966546], [-105.02507499977213, 41.65579000010051], [-105.02755500033658, 41.65580899978739], [-105.03507399987595, 41.65589300024352], [-105.0375829998544, 41.65592299980459], [-105.03763700028107, 41.65592199975235], [-105.0377660001525, 41.655925999961255], [-105.03780499961225, 41.65592499990907], [-105.03786300023688, 41.655927000013484], [-105.03913399958292, 41.65594100007148], [-105.04294999979074, 41.655983000227124], [-105.04422199986, 41.655998000324075], [-105.04429899985288, 41.65599899970394], [-105.04458900028112, 41.656001999857125], [-105.04512599968324, 41.656009000213906], [-105.04538199977627, 41.65601199969544], [-105.04557500012011, 41.65601399979715], [-105.045692000296, 41.65601499984796], [-105.0460599996437, 41.656020000101876], [-105.04618299966737, 41.656021000152634], [-105.04665200019572, 41.65602599973495], [-105.04842899988006, 41.65604600007372], [-105.04899499959448, 41.65605299975459], [-105.0490230000819, 41.65605299975459], [-105.04935299979476, 41.65605499985503], [-105.0503470000297, 41.656066999785196], [-105.05068000011563, 41.65607200003507], [-105.05282300039617, 41.65609399978764], [-105.05603299980825, 41.65613100026981], [-105.05624200004564, 41.65612700007359], [-105.05925599963915, 41.65608399996206], [-105.06140399994254, 41.65605800000556], [-105.06460699968194, 41.656041999872215], [-105.06905100042678, 41.656021000152634], [-105.06955199984388, 41.656019000051145], [-105.07456099957992, 41.6560750001848], [-105.08654599960548, 41.65621000006716], [-105.0882930000509, 41.656229999677656], [-105.0919970001057, 41.65627100026923], [-105.09385099978292, 41.65629199990729], [-105.09402800023325, 41.65629400000031], [-105.09449600003839, 41.656299000232615], [-105.09931200032891, 41.656353000031686], [-105.09964600023974, 41.65635800025936], [-105.10300100031512, 41.65639499991873], [-105.11306599964284, 41.65650800019788], [-105.11422499973422, 41.656521000086585], [-105.11620200033342, 41.65643300027229], [-105.1164199998933, 41.65643100018359], [-105.11691899966058, 41.656425999961584], [-105.11841699968566, 41.65641200000902], [-105.11891700017618, 41.65640799983024], [-105.12413099995162, 41.65629199990729], [-105.12553100006741, 41.65626199984696], [-105.12560999971012, 41.65626099979994], [-105.12917599967268, 41.65622300001607], [-105.13977800019919, 41.65610999990807], [-105.14374500001973, 41.65606899988515], [-105.14486700030116, 41.65605699995542], [-105.14499399962446, 41.656055999905206], [-105.14998200034243, 41.65600399995915], [-105.155627999938, 41.65602499968426], [-105.15568400001449, 41.65602499968426], [-105.16001900008108, 41.656040999821826], [-105.1659619997776, 41.65606300025613], [-105.17298699957256, 41.65608900021062], [-105.17815100001764, 41.65610799980934], [-105.18194600030903, 41.65612199982793], [-105.18775599993617, 41.656143000185814], [-105.18824399983279, 41.65614500028341], [-105.19232500035447, 41.65615999967143], [-105.1984470001511, 41.65618300011334], [-105.19855299955802, 41.65618300011334], [-105.20084899999944, 41.65619199987551], [-105.20891700043315, 41.656272000316044], [-105.2116049996134, 41.656299000232615], [-105.22552500040533, 41.656437999822614], [-105.22922299971405, 41.65646300025302], [-105.23604599984267, 41.65651000028414], [-105.24032999985562, 41.65650099989528], [-105.25053499982377, 41.65648000032536], [-105.25080199978747, 41.65648399982848], [-105.25197400029761, 41.65650099989528], [-105.25470800040695, 41.656542999685804], [-105.25549199968127, 41.65654399972839], [-105.25633899960312, 41.65654699985619], [-105.25666500001635, 41.65653700010094], [-105.25676200010074, 41.65654499977102], [-105.2570559998286, 41.65657300028642], [-105.25715600028602, 41.65658400007811], [-105.25735700012747, 41.656548999941286], [-105.25743400012037, 41.65654799989872], [-105.25766699974888, 41.65654499977102], [-105.25774499956668, 41.65654499977102], [-105.2578080002142, 41.65654399972839], [-105.25791299979618, 41.656542999685804], [-105.25799499981193, 41.65656399990636], [-105.25805699973621, 41.65658099995205], [-105.25838399997436, 41.656585000120074], [-105.25936499979048, 41.65660000007676], [-105.25969299985356, 41.65660500028531], [-105.26017699955223, 41.65659900003503], [-105.26065199992838, 41.65659399982602], [-105.26095200040236, 41.65655600023863], [-105.26121500016806, 41.65656700003318], [-105.26146399969011, 41.65653399997268], [-105.26162699989673, 41.656530999844335], [-105.26211200031861, 41.656523000172506], [-105.26275300037614, 41.65651299974235], [-105.26300199989815, 41.656524000215406], [-105.26439100014329, 41.656554000153754], [-105.26456600004548, 41.65655999973703], [-105.2683760004055, 41.65664199980273], [-105.2767970001183, 41.65664499992591], [-105.27707800032569, 41.65664700000796], [-105.27730900030437, 41.656648000048996], [-105.27800399989025, 41.656653000253755], [-105.27823599969385, 41.65665500033557], [-105.27863699955182, 41.64959799973939], [-105.27896700016302, 41.64380600033536], [-105.27902400006444, 41.64282399981819], [-105.27907599994296, 41.64227599972854], [-105.27868299958259, 41.62497499999111], [-105.27864099974978, 41.622614999795374], [-105.27861999983341, 41.61331999981524], [-105.27856899977976, 41.590344000310516], [-105.27856899977976, 41.59015000007308], [-105.27855200006132, 41.582247000241004], [-105.27855299988624, 41.58207800025252], [-105.27854799986338, 41.57965999995033], [-105.27854799986338, 41.5794089998004], [-105.27854500038863, 41.578672000073006], [-105.2785439996654, 41.57813500014385], [-105.27850799968039, 41.56658300014313], [-105.27850799968039, 41.56618700001079], [-105.27850500020566, 41.56497900015259], [-105.2785010000077, 41.56360300008984], [-105.27848299956602, 41.5558510000892], [-105.27847800044148, 41.553474999847055], [-105.27847800044148, 41.55326900020679], [-105.27847500006845, 41.55152400023378], [-105.27847000004557, 41.54976099988908], [-105.27846900022067, 41.549283000170966], [-105.27846900022067, 41.54879400025215], [-105.27846699967252, 41.54805900026314], [-105.27844199955815, 41.53709500026676], [-105.27844199955815, 41.53688199969667], [-105.27843800025852, 41.533972000203995], [-105.27842700038786, 41.52953999999214], [-105.27839200022775, 41.514780000102654], [-105.27839100040286, 41.51458500008128], [-105.27835799989258, 41.49997600001707], [-105.2784080001213, 41.4967440000036], [-105.27851299970327, 41.48989300023299], [-105.27851299970327, 41.489720999849304], [-105.27850600003057, 41.486675000213964], [-105.27849699980975, 41.482533999834466], [-105.278486999764, 41.47766999986656], [-105.2784859999391, 41.47753600006742], [-105.2784800000913, 41.474490999887], [-105.27847900026639, 41.47438400023117], [-105.27847900026639, 41.47406499988816], [-105.27847900026639, 41.47395899970939], [-105.27847599989335, 41.47354199991458], [-105.27846900022067, 41.47229399986058], [-105.27846699967252, 41.47187799966357], [-105.27845599980186, 41.467696999875336], [-105.27845300032713, 41.466043999665544], [-105.2784299998626, 41.45622599977548], [-105.27842700038786, 41.455153999884104], [-105.27841800016702, 41.45097300031709], [-105.27841700034212, 41.45071300009943], [-105.27841300014416, 41.44912299974132], [-105.27840300009842, 41.445099000076524], [-105.27839899990045, 41.44357599992245], [-105.27839499970251, 41.44172699987605], [-105.27837799998406, 41.43512799979547], [-105.27830199981608, 41.43395399971434], [-105.27829799961812, 41.43388800026227], [-105.27823800024198, 41.43296000033079], [-105.27805800031692, 41.430175999738275], [-105.27799899986736, 41.429249000146726], [-105.27799200019466, 41.4288349997154], [-105.27797200010319, 41.42759400031548], [-105.2779660002554, 41.42718100033576], [-105.27794000031615, 41.425595999861734], [-105.27786400014816, 41.42084399966655], [-105.27783999985871, 41.41930000031594], [-105.27783999985871, 41.419263000169515], [-105.2778249997901, 41.418471000264645], [-105.27778799998018, 41.41610100023525], [-105.27777700010951, 41.41531100031963], [-105.27777499956139, 41.41520999982105], [-105.27775399964499, 41.414402000283744], [-105.27768500004802, 41.41167499998175], [-105.27766199958349, 41.410767000074706], [-105.27763900001727, 41.40880799973924], [-105.27757000042028, 41.40293499978945], [-105.27754899960557, 41.40097799973295], [-105.27754600013084, 41.400767000181304], [-105.27745499989423, 41.39978399991451], [-105.27742499975702, 41.3995099997657], [-105.27744999987138, 41.3989020000071], [-105.2774509996963, 41.39888600016719], [-105.2775989998343, 41.395473000210785], [-105.2783589997175, 41.395444999684955], [-105.28020099969913, 41.39537800013471], [-105.28036800010372, 41.38027199979371], [-105.28036999975355, 41.380062000037874], [-105.28043099985292, 41.37497799975148], [-105.28045199976931, 41.3644099997193], [-105.28045299959423, 41.36431500010324], [-105.2805139996936, 41.35664899980312], [-105.2805210002646, 41.35572300027347], [-105.28055700024962, 41.35139400033583], [-105.28057899999091, 41.345639000217], [-105.28058700038684, 41.343484999794924], [-105.28062199964862, 41.33474099982005], [-105.28062099982371, 41.33466999992808], [-105.2806340002425, 41.33135299966737], [-105.28063599989234, 41.3309999999015], [-105.28064500011315, 41.328606999841035], [-105.2806619998316, 41.32439099987128], [-105.28067500025038, 41.321447999868894], [-105.28067400042549, 41.32143299969765], [-105.28055300005165, 41.3144350001311], [-105.28044300044681, 41.308105000113294], [-105.28041400013447, 41.3064079998028], [-105.28035999970781, 41.3032879999599], [-105.2802950003088, 41.29949299997162], [-105.28029399958558, 41.2994070003006], [-105.28028100006507, 41.29826700027178], [-105.28024400025515, 41.29492300001892], [-105.28024300043026, 41.29485000013468], [-105.28023099983636, 41.29371099968147], [-105.28022900018657, 41.29353599972356], [-105.28021999996571, 41.29273000021305], [-105.28018700035376, 41.28978999996676], [-105.280177000308, 41.28880999991653], [-105.280169999737, 41.28817299998876], [-105.28014899982063, 41.28626499977936], [-105.28014200014792, 41.28562899968617], [-105.28013200010217, 41.284783999875444], [-105.28010399961477, 41.28225099978386], [-105.28009500029226, 41.28140699987979], [-105.28009199991918, 41.28117299985655], [-105.28008400042161, 41.28047599975187], [-105.28008400042161, 41.28043499979183], [-105.28008199987347, 41.28024300022917], [-105.28006099995704, 41.2783330000656], [-105.28004099986558, 41.2765509998777], [-105.27999800020787, 41.272607000051245], [-105.27997800011639, 41.27069899978669], [-105.27997700029147, 41.2705700000164], [-105.27993899975831, 41.2644759999046], [-105.2799649996976, 41.25531799981353], [-105.27996600042081, 41.25525300021397], [-105.27996600042081, 41.25518799987434], [-105.2799649996976, 41.2550129999373], [-105.27996399987268, 41.254838000206746], [-105.27997300009352, 41.25013100022675], [-105.28020200042236, 41.240850000303986], [-105.28020099969913, 41.24074699975552], [-105.28016499971413, 41.23552900007688], [-105.28016399988921, 41.23535400017475], [-105.2801610004145, 41.235088999932884], [-105.2801610004145, 41.23501200010979], [-105.28015899986633, 41.23467000028218], [-105.28015600039161, 41.2342950000086], [-105.2801549996684, 41.23407399971187], [-105.2801549996684, 41.23403100002274], [-105.28015100036876, 41.2335500002529], [-105.28014200014792, 41.23221300017233], [-105.280141000323, 41.2321100001999], [-105.28013799994996, 41.23163100019668], [-105.28012299988134, 41.22947599993413], [-105.28007799967548, 41.22301199996218], [-105.2800640003301, 41.2208570000844], [-105.2800359998427, 41.216770999805355], [-105.27998800016212, 41.20958699967673], [-105.2799710004437, 41.20705000016505], [-105.27995300000202, 41.204515000149534], [-105.27992799988768, 41.200683999892455], [-105.27992600023785, 41.20043000002925], [-105.27991199999416, 41.19848900014784], [-105.27989000025283, 41.195031000279975], [-105.2798740003593, 41.19266999966256], [-105.27986099994052, 41.19072999998497], [-105.27986099994052, 41.190716999798084], [-105.27986299959035, 41.190464000275405], [-105.27986400031358, 41.18979999981199], [-105.27986400031358, 41.18970400007554], [-105.27986500013849, 41.18662699974408], [-105.27986799961322, 41.18560200032427], [-105.27978099957458, 41.18536600009558], [-105.27978099957458, 41.18530899968359], [-105.27977300007697, 41.18498600024312], [-105.27974799996262, 41.18385299967965], [-105.27974499958957, 41.18363399981142], [-105.27974100028992, 41.183473999753375], [-105.27972799987113, 41.18288799975249], [-105.27971399962743, 41.18226600021957], [-105.27963499998471, 41.17863799980252], [-105.27961499989323, 41.177680000150296], [-105.27960900004544, 41.177430000316996], [-105.27954600029625, 41.17493200031072], [-105.27954000044848, 41.174673999720696], [-105.2793179997923, 41.16434099971933], [-105.27931699996739, 41.164237000201055], [-105.27912100014882, 41.15511400027002], [-105.27898499970638, 41.14879000008828], [-105.27898200023164, 41.14865100011175], [-105.27897300001081, 41.14822799974266], [-105.27893700002579, 41.14654500033325], [-105.27892600015515, 41.14598400017553], [-105.27892500033023, 41.14559800025693], [-105.2789229997821, 41.14444200007017], [-105.2789229997821, 41.14405699971117], [-105.27892199995718, 41.14372399999541], [-105.27892000030738, 41.142725000173414], [-105.27892000030738, 41.14249399972836], [-105.27892000030738, 41.14243400029674], [-105.27892000030738, 41.14239199978248], [-105.27891899958414, 41.14185299992795], [-105.2789160001094, 41.14023799997043], [-105.2789160001094, 41.13970099982013], [-105.2789160001094, 41.13955600005492], [-105.2789150002845, 41.13904700016582], [-105.27891199991144, 41.13709100033019], [-105.27891100008652, 41.13644000023583], [-105.27891100008652, 41.136416999836804], [-105.27890799971348, 41.135130999760754], [-105.27890500023874, 41.133073999979466], [-105.2789019998657, 41.13120700005025], [-105.27890000021587, 41.129899000089104], [-105.278895000193, 41.126858000065816], [-105.27889400036808, 41.126504000046964], [-105.27889400036808, 41.126401000160634], [-105.27889299964485, 41.126370000084385], [-105.27889099999504, 41.124892000168934], [-105.27888500014727, 41.12147100013683], [-105.27887500010151, 41.11687499985089], [-105.27887500010151, 41.11665799999467], [-105.27887500010151, 41.11639700000951], [-105.2788740002766, 41.11599299978808], [-105.27887199972847, 41.114947999677746], [-105.27887099990357, 41.114804000310436], [-105.27887000007864, 41.1144980000984], [-105.27887000007864, 41.114395999936356], [-105.27886900025372, 41.11373499968952], [-105.27886400023085, 41.111877000044586], [-105.27886199968273, 41.11020600016691], [-105.2788600000329, 41.10987900000402], [-105.27884800033735, 41.10432299985228], [-105.27884400013937, 41.102064999790365], [-105.27884400013937, 41.1018939996976], [-105.27884499996429, 41.10180600029974], [-105.27882700042093, 41.09321900031557], [-105.27881499982708, 41.08803000015767], [-105.27881599965197, 41.08798299992946], [-105.27881099962909, 41.085603000183355], [-105.27880200030658, 41.08134099977186], [-105.2787899997127, 41.07551099974337], [-105.2787820002151, 41.071557000213055], [-105.27877499964409, 41.068111000199245], [-105.27877100034445, 41.066397999948876], [-105.27876799997141, 41.065117999821446], [-105.27875999957548, 41.061279999813955], [-105.27875799992565, 41.06000100008392], [-105.27875899975056, 41.05986800032241], [-105.27876399977343, 41.05946999987753], [-105.27876399977343, 41.05933800017507], [-105.27873799983416, 41.04558199973107], [-105.27683700030127, 41.0456829997119], [-105.27683700030127, 41.04176499969161], [-105.27683700030127, 41.03091199973451], [-105.27683700030127, 41.028417000307606], [-105.27683700030127, 41.02331300002581], [-105.27683700030127, 41.01510600004601], [-105.27683700030127, 41.01435100019418], [-105.27683700030127, 41.009502999720645], [-105.27683700030127, 41.00794400030014], [-105.27683700030127, 41.00326800032487], [-105.27683700030127, 41.001709999802735], [-105.27685999986748, 40.99817199997494], [-105.27560299986683, 40.99817800015035], [-105.27528499984952, 40.998066000175776], [-105.27489599968709, 40.99807499977518], [-105.27116099967014, 40.99816100032991], [-105.27018499987688, 40.9981840003252], [-105.26971000039904, 40.9981949999664], [-105.26949399959067, 40.9981949999664], [-105.26700100040406, 40.998193999937456], [-105.25652699992408, 40.99819099985057], [-105.25484399995109, 40.998208999692004], [-105.25477899965375, 40.99820999972072], [-105.25393199973192, 40.99821899997841], [-105.25119799962258, 40.998249000150665], [-105.25053700037189, 40.99825699969709], [-105.25053700037189, 40.99839500002561], [-105.25042500021891, 40.998398000103265], [-105.25021299960848, 40.998405000283846], [-105.24913800008103, 40.998432000295495], [-105.24882199971354, 40.99843999981971], [-105.24838499987052, 40.99843999981971], [-105.24264899986326, 40.998432000295495], [-105.24102600016471, 40.998430000244774], [-105.23741099979836, 40.998424000092314], [-105.2314930002162, 40.99841599988817], [-105.22664199976559, 40.998408999708694], [-105.22650399967333, 40.998408999708694], [-105.22583000000387, 40.99840700033533], [-105.22339399982036, 40.99840400025809], [-105.22258299988354, 40.998403000232315], [-105.21434299992069, 40.998391999947835], [-105.21119799990763, 40.99838799984397], [-105.21041299991009, 40.998386999817946], [-105.21034599996294, 40.998386999817946], [-105.21031699965062, 40.998386999817946], [-105.2101479995962, 40.998385999791914], [-105.21008300019719, 40.998385999791914], [-105.20638499999016, 40.99838099966157], [-105.19529100026739, 40.99836599994615], [-105.19159399988527, 40.998360999814295], [-105.18250500035077, 40.998348000147594], [-105.1800089998928, 40.99834500006768], [-105.17918799991025, 40.99834300001437], [-105.1767269996124, 40.998339999934224], [-105.17590700035306, 40.998338999907475], [-105.17401000011982, 40.9983359998272], [-105.1737210004148, 40.9983359998272], [-105.1729110003029, 40.998333999773564], [-105.17111799982672, 40.99833199971987], [-105.16419900033696, 40.99832300015557], [-105.16192600036007, 40.99832000007451], [-105.16073600030657, 40.99831800002045], [-105.16058200032079, 40.99831800002045], [-105.15924499995418, 40.99831599996627], [-105.15885199959381, 40.99831599996627], [-105.15713900038187, 40.99827000005973], [-105.15505399982766, 40.9982470000944], [-105.15487499972751, 40.9982470000944], [-105.15350899994691, 40.998248000122544], [-105.14601600034678, 40.99825500031906], [-105.14085299972665, 40.99825999978101], [-105.14049000040181, 40.99825999978101], [-105.13999900013211, 40.99825999978101], [-105.13743900010006, 40.99826199983689], [-105.13658600033044, 40.99826299986481], [-105.13514900040474, 40.99826399989271], [-105.1308379997293, 40.998268000004096], [-105.12940199962848, 40.99827000005973], [-105.12553100006741, 40.9982750001985], [-105.12535000031744, 40.9982750001985], [-105.1131950004126, 40.99829800015406], [-105.10914400002815, 40.99830599969454], [-105.10292900034509, 40.998312999884895], [-105.08417600044251, 40.998333999773564], [-105.07701400038019, 40.99833299974673], [-105.07612399990234, 40.998319000047466], [-105.07576599970203, 40.998312999884895], [-105.07540900022497, 40.998306999721784], [-105.07514300008621, 40.998303000290704], [-105.07487699994742, 40.998299000181426], [-105.07480900017538, 40.99829800015406], [-105.07191299968432, 40.998297000126676], [-105.0685269996468, 40.998297000126676], [-105.06650700028823, 40.99829600009927], [-105.06344900031381, 40.99829500007186], [-105.05266299966429, 40.99829300001699], [-105.04771000000473, 40.99829199998953], [-105.04170100018598, 40.9982909999621], [-105.0398719997248, 40.99828999993462], [-105.03438699978769, 40.99828899990711], [-105.03255900004974, 40.99828899990711], [-105.02630300035877, 40.99828699985206], [-105.02478799971696, 40.99828699985206], [-105.02254300022749, 40.99828699985206], [-105.01815499955913, 40.9982859998245], [-105.01336599993111, 40.99828499979694], [-105.00712199993573, 40.99828000033693], [-105.00052599958782, 40.99827600022621], [-104.98838999994956, 40.99825400029108], [-104.98214699977909, 40.99824400000993], [-104.97829399976135, 40.99823599978394], [-104.96673499970817, 40.99821199977807], [-104.96288199969045, 40.99820400022619], [-104.96262999979537, 40.99820300019737], [-104.96257799991683, 40.99820300019737], [-104.96187699958486, 40.998216999921276], [-104.96162700023793, 40.99822300009259], [-104.96145999983334, 40.998226000178065], [-104.96143800009204, 40.99822500014959], [-104.96087300020253, 40.99822500014959], [-104.96068499988154, 40.99822500014959], [-104.95788200017523, 40.99822300009259], [-104.95768899983139, 40.99822000000698], [-104.9574860003401, 40.99830799974902], [-104.9571819996682, 40.9983359998272], [-104.95689899981095, 40.99828099968658], [-104.95674400000026, 40.99822100003553], [-104.95669799996949, 40.99822200006407], [-104.95114699991016, 40.99821799994988], [-104.9433709995545, 40.998212999806746], [-104.94276100035745, 40.99821199977807], [-104.94093100007134, 40.99821199977807], [-104.94032099997598, 40.99821199977807], [-104.93993500018661, 40.998210999749375], [-104.93877799974506, 40.99820999972072], [-104.9383929997806, 40.99820999972072], [-104.93667200017276, 40.998208999692004], [-104.93225099989245, 40.99820600028376], [-104.92343400034453, 40.998201000139716], [-104.92016100028492, 40.99819900008204], [-104.9183140002804, 40.99819800005315], [-104.91382500022806, 40.9981949999664], [-104.90943900010784, 40.9981929999085], [-104.9076830003399, 40.998191999879516], [-104.90760899982173, 40.998191999879516], [-104.90690500001504, 40.99820500025498], [-104.90664800009709, 40.99820999972072], [-104.90650499998196, 40.998212999806746], [-104.90644800008054, 40.99821399983541], [-104.90632900025487, 40.998216999921276], [-104.90550999992212, 40.99823399972727], [-104.90469200031262, 40.99822900026334], [-104.89934100026981, 40.9982000001109], [-104.89909600004742, 40.99819900008204], [-104.89596299972992, 40.99819599999533], [-104.88582899990688, 40.99818799976351], [-104.8824520000902, 40.998185999705385], [-104.87997099970086, 40.99822000000698], [-104.8755240003796, 40.9982819997142], [-104.87252999997928, 40.9982909999621], [-104.87005000031316, 40.998299000181426], [-104.8698839997335, 40.99829600009927], [-104.86938800033927, 40.99828699985206], [-104.8693559996539, 40.99828699985206], [-104.8692229995845, 40.99828499979694], [-104.86895200032116, 40.99828000033693], [-104.86814200020925, 40.99826499992054], [-104.86787199987252, 40.99826099980896], [-104.86670299973541, 40.99824099992528], [-104.86651699996257, 40.99823799984049], [-104.86319899969715, 40.99818100023788], [-104.86203100028327, 40.998161999681365], [-104.86096199970527, 40.9981439998271], [-104.85671899970019, 40.99807199968289], [-104.85527299955365, 40.9980480002953], [-104.84080000036438, 40.99875400020967], [-104.83868899987091, 40.99885700020177], [-104.83584799963144, 40.998929000166505], [-104.83557499981998, 40.9989300001843], [-104.83514800002271, 40.998931000202035], [-104.83480599971595, 40.9989360002907], [-104.83016400040103, 40.99902299973841], [-104.82430600019501, 40.99911699985425], [-104.81830999989674, 40.9991970003233], [-104.81628399979206, 40.99929300021559], [-104.81488399967627, 40.99930499968382], [-104.80973100000017, 40.99935100022398], [-104.79786700034848, 40.9994569999906], [-104.77884699958389, 40.99976900027147], [-104.77394099978001, 40.99982299984422], [-104.77301799969021, 40.9998329998858], [-104.77294999991815, 40.9998329998858], [-104.77181699976606, 40.999845999937556], [-104.77131399980081, 40.99985099995677], [-104.77099499995856, 40.9998549999719], [-104.76898399992251, 40.99987700005066], [-104.76199400028763, 40.999956000273045], [-104.76120500009212, 40.99996500029236], [-104.75966500023425, 40.99998200032552], [-104.75916200026901, 40.99998200032552], [-104.75765300037327, 40.99998200032552], [-104.75715100023294, 40.99998200032552], [-104.755824999737, 40.99998200032552], [-104.75184799987072, 40.99998200032552], [-104.75052300009799, 40.99998200032552], [-104.74773000043741, 41.00002899971634], [-104.73935400003215, 41.000170999720666], [-104.73656200019649, 41.000219000330915], [-104.73325700034984, 41.000258000250184], [-104.72334299973652, 41.00037899985273], [-104.72003899971479, 41.00041899967248], [-104.71676700037843, 41.00045800015133], [-104.70695099967438, 41.00057900006474], [-104.70368000016295, 41.00061899976312], [-104.70177399970886, 41.000641000264835], [-104.69605899961797, 41.000711000333176], [-104.69415399988713, 41.0007350001071], [-104.69132799971628, 41.00076899977175], [-104.68285000010206, 41.00087299999318], [-104.68002499975613, 41.00090800025245], [-104.67960999965443, 41.0009130001911], [-104.67921899984219, 41.00091700014178], [-104.67680399957507, 41.00094699976399], [-104.67599900038435, 41.000957000313], [-104.67366799978284, 41.000978000037215], [-104.66667700032306, 41.00104299981924], [-104.66434700044476, 41.00106500017948], [-104.65658100013485, 41.00113699976614], [-104.65091799992251, 41.00119100025196], [-104.63328399992832, 41.00135500005006], [-104.62551900034164, 41.00142799997779], [-104.62551900034164, 41.0014039997783], [-104.62503899994262, 41.001404999758535], [-104.62360000036709, 41.00140899967931], [-104.62312099979296, 41.001411000317596], [-104.62243399970471, 41.00141300027786], [-104.61851200009, 41.00142500003805], [-104.6046850000828, 41.00146999979741], [-104.60007700020475, 41.001486000141334], [-104.59996599987667, 41.001486000141334], [-104.5996360001638, 41.00148700012029], [-104.59952599966063, 41.00148800009927], [-104.59513600024077, 41.00150199980342], [-104.58703799966985, 41.001527999923944], [-104.58196799983443, 41.0015440002538], [-104.5775790002395, 41.00155899992391], [-104.57071900030095, 41.001552000078284], [-104.5502840002503, 41.00153499977212], [-104.55013899958702, 41.00153499977212], [-104.54361599993237, 41.00155400003427], [-104.54328000037171, 41.00155500001224], [-104.54016899979553, 41.00156399981322], [-104.53263699983734, 41.00158699997698], [-104.5308390002366, 41.001591999864125], [-104.52772900038363, 41.001602000315266], [-104.5250170000156, 41.00162199985704], [-104.52436500008744, 41.00162499978781], [-104.52355199960247, 41.00162899969523], [-104.52269399981, 41.00163300028042], [-104.52207799986685, 41.001637000187365], [-104.52126799975494, 41.00164100009411], [-104.5204960001762, 41.001645000000565], [-104.51924599984822, 41.00165099985986], [-104.51701800007717, 41.00166300025468], [-104.51455900032745, 41.00167499996936], [-104.51179000005801, 41.00168199980197], [-104.50940999995103, 41.00168499972995], [-104.5077119999094, 41.00168900031174], [-104.50571199974398, 41.001694000191144], [-104.50369499986013, 41.00169600014282], [-104.50290099964177, 41.00169500016699], [-104.50232400005667, 41.00169500016699], [-104.50077099978, 41.00169300021529], [-104.50046199998351, 41.00169300021529], [-104.50017499992833, 41.00169300021529], [-104.4995389998937, 41.00169200023941], [-104.49770000028509, 41.00169000028762], [-104.49758899995702, 41.00168900031174], [-104.49754499957608, 41.00169000028762], [-104.49741700042787, 41.00169000028762], [-104.497116000129, 41.00169000028762], [-104.4970530003798, 41.00169000028762], [-104.49620100043511, 41.00168900031174], [-104.49462100039425, 41.00168800033581], [-104.49377799977206, 41.00168800033581], [-104.49294300044413, 41.00168800033581], [-104.49218699986058, 41.00168900031174], [-104.49133900011384, 41.00168900031174], [-104.49014499986238, 41.00169000028762], [-104.48944799972837, 41.00169100026352], [-104.48893999974025, 41.00169100026352], [-104.48841300038387, 41.00169200023941], [-104.48800300030506, 41.00169100026352], [-104.48747699987527, 41.00169300021529], [-104.48746000015683, 41.00169300021529], [-104.48721699958428, 41.00169300021529], [-104.47354899958574, 41.00153899968506], [-104.46767200001148, 41.001472999735036], [-104.46471399959614, 41.00147599967259], [-104.45584000014681, 41.00148900007824], [-104.45288299955641, 41.00149399997286], [-104.45187300032626, 41.00149100003613], [-104.44884600031398, 41.00148200022518], [-104.44783700001044, 41.001480000267016], [-104.44237999966242, 41.00147399971424], [-104.426009000415, 41.001459000024774], [-104.42055200006696, 41.00145400012756], [-104.41960200021298, 41.001455000106986], [-104.39051799994557, 41.00149799988824], [-104.39047600011277, 41.00149899986705], [-104.37551099993061, 41.00152300003196], [-104.37551099993061, 41.0014969999094], [-104.37465999981083, 41.001495999930555], [-104.37210800017468, 41.001495999930555], [-104.37125799987979, 41.001495999930555]]]}, "properties": {"GEOID": "56021", "NAME": "Laramie County", "BASENAME": "Laramie", "STATE": "56", "COUNTY": "021", "AREALAND": "6956354981", "AREAWATER": "4348085", "INTPTLAT": "+41.2928302", "INTPTLON": "-104.6603950"}}], "_auspice": {"source_url": "https://tigerweb.geo.census.gov/arcgis/rest/services/TIGERweb/State_County/MapServer/1/query?where=GEOID%3D%2756021%27&outFields=GEOID%2CNAME%2CBASENAME%2CSTATE%2CCOUNTY%2CAREALAND%2CAREAWATER%2CINTPTLAT%2CINTPTLON&returnGeometry=true&outSR=4326&f=geojson", "fetched_at": "2026-08-26T23:13:25.463450+00:00", "service": "Census TIGERweb State_County layer 1"}}